id,lat,lon,name,street,zip_code,city
273204660,53.5448551,9.8375502,Aramark,,,
276951468,53.5471272,10.0554074,Frischemarkt Wang,Süderstraße 314,20537,Hamburg
277790179,53.5976677,10.0422162,Spätkauf in der Fuhle,Fuhlsbüttler Straße 267,22307,Hamburg
281529048,53.5058495,9.9927918,Ersa Market,,,
292896819,53.5809571,9.9573749,Kiosk Industry,,,
321266832,53.7009207,10.0276856,Frisch vom Bauernhof,,,
393186449,53.5747695,9.9511859,Sukhothai Asia Markt,Heußweg 18,,
408799600,53.5399242,10.0448966,Afghan Plaza,Ausschläger Billdeich 16,20539,Hamburg
447805045,53.4688765,10.279973,Frischmarkt,,,
452998455,53.5638426,9.9656972,ServiceStore DB,Dänenweg 1,20357,Hamburg
469082314,53.5899017,9.918739,ServiceStore DB,,,
482826687,53.5583199,9.9399046,Spitzenmarkt Ihr Kaufmann,,,
504962645,53.5540615,9.933141,Fatis Corner,,,Hamburg
627571047,53.6699497,10.2359413,Hypermarkt Asiatische Spezialitäten,,,
635274730,53.5160223,9.9856134,Black Cherry,,,
725581989,53.5528678,10.0155159,Baba International,,,
800486723,53.5762638,10.0231177,tiptop Getränkemarkt,,,
871936034,53.5727477,10.1054037,REWE To Go,,,
881891148,53.5682652,10.0598759,Star Asian Store,,,
946475310,53.5594739,10.0542097,Bioladen am Hammer Park,Moorende 31,20535,Hamburg
957871719,53.6189728,9.950761,Nostalgie. Polnische Spezialitäten,Tibarg 1a,22459,Hamburg
976181732,53.6023543,10.1540208,Galeria Rahlstedt,,,
976181757,53.603392,10.1544446,Lederwaren Niederstadt,Rahlstedter Bahnhofstraße 14,22143,Hamburg
977652416,53.6042609,9.9996609,Tante Annas Laden,Alsterdorfer Straße 190,22297,Hamburg
982699802,53.5680043,9.8890414,Kiosk&Backshop,,,
983252298,53.4568519,9.9690175,Vitamin-Ecke,,,
983773762,53.6290062,10.1505531,LOTTO TOTO,,,
1094036322,53.5464112,9.9457007,Frischemarkt Gökpinar,Schleestraße 6,22767,Hamburg
1094982736,53.6727647,10.220215,,,,
1094982739,53.6778934,10.2129291,,,,
1169719784,53.5601152,10.0143264,Feinkost Läufer,Lange Reihe 117,20099,Hamburg
1304569168,53.6491746,10.0169815,U-Store,,,
1312453359,53.5207345,10.0083181,ORUC,,,
1315959329,53.6330311,10.0546356,Hamburger Hofladen,Tornberg 37,22337,Hamburg
1323888884,53.5584529,9.971755,Moin Karo - Bioladen,Marktstraße 119,20357,Hamburg
1400062057,53.5588462,9.9663078,Tschiggys Bubblegum Art Tattoo,,,
1452779237,53.4610143,9.9814131,Reformhaus Fellisch,Hölertwiete 4,21073,Hamburg
1482107948,53.5591789,9.8857008,ServiceStore DB,,,
1486152886,53.7376236,10.1972612,,,,
1562338800,53.5826831,9.966422,Monger Store & Deli,Wrangelstraße 100,20253,Hamburg
1573885554,53.5648548,9.9479356,Ebru Markt,,,
1613188119,53.5595478,9.8813442,Natrlich-Naturkost Sass,Waitzstraße 32,22607,Hamburg
1807343726,53.6071906,10.1181674,U-Store,,,
1855127661,53.4565806,9.9595269,Bio Specials & Kaffee,Eißendorfer Straße 163,21073,Hamburg
1911665652,53.4357766,9.9788527,Back und Kios 55,,,
1923916812,53.574226,9.846977,Fruchthaus Osdorf,Rugenbarg 12a,22549,Hamburg
1970261331,53.550598,10.0044757,Yuan Ye,Bugenhagenstraße 5,20095,
2019926829,53.4730605,9.8543895,Dasdemir Markt,,,
2069413126,53.5874787,10.0639813,Al Tat Market,Tondernstraße 19,22049,Hamburg
2070287814,53.554644,9.9575022,Kiosk Bezirk 67,,,
2087350973,53.5054765,10.0897652,Aral,,,
2088614266,53.6176494,10.089393,Welt Laden Bramfeld,Berner Chaussee 58,22175,
2194492867,53.6002913,10.0504862,Ihr Backshop,,,
2264761570,53.5413217,10.101286,Pamir,Schiffbeker Weg 11,22111,Hamburg
2322363338,53.4881842,10.2089474,Angier Gewürze aus aller Welt,,,
2341650880,53.5912462,10.0023692,Vitalien,,,
2341650881,53.592128,10.0022951,Win Asia Markt,,,
2456999677,53.5706111,10.086461,,,,
2461998726,53.5858157,10.0074452,Flink Lebensmittel,,,
2477492253,53.4189855,10.2705658,Süßer Hofladen,,,
2575893701,53.55525,10.0401112,Feinkost Sak,,,
2617905822,53.5625621,9.9637933,Helal Bazar,Susannenstraße 34,20357,Hamburg
2670475004,53.5393479,10.1068642,Zagloba Polnische Spezialitaten,Möllner Landstraße 31,22111,Hamburg
2670996138,53.4569329,9.9897698,ServiceStore DB,,,
2906917852,53.5931015,9.9884523,Asia Markt,Eppendorfer Landstraße 120,20251,Hamburg
2919467739,53.567379,9.9645364,Weiden-Shop,Weidenallee 43,20357,Hamburg
3067676821,53.5260378,9.8007523,Lebensmittel Neuenfelder Markt,,,
3134662700,53.6054266,9.8671156,Netze Shop,,,
3265265489,53.7075933,9.9951121,Weltladen,,,
3295164067,53.5652874,9.9122346,Star Markt & Back,Bahrenfelder Chaussee 53,22761,Hamburg
3339458678,53.6222247,10.0841065,Shell,,,
3387957400,53.5581898,9.9751884,Kiosk - Messe Cafe,Karolinenstraße 12,20357,Hamburg
3412466449,53.5824345,10.0676627,U-Store,,,
3450978211,53.5507006,10.0173847,Holland & Sons British Shopping,,,
3473944682,53.5598075,10.028861,U-Store,,,
3521468691,53.5161489,9.9898492,Tan Markt,,,
3574450993,53.530508,9.8363524,Aramark,,,
3574450995,53.5413365,9.835565,Aramark,,,
3574450996,53.542615,9.8439563,Aramark,,,
3574450997,53.5435356,9.8412628,Aramark,,,
3590363655,53.5544829,9.9287862,Weltladen Ottensen,,,
3597194691,53.5570495,9.9685422,U-Store,Feldstraße 69,20359,Hamburg
3618217153,53.5340113,10.0388436,Barakzai Markt,,,
3621446076,53.5560962,9.9285409,Stick-In Kiosk,Barnerstraße 49,22765,Hamburg
3656847896,53.5520016,9.9409578,Altona City Markt,Große Bergstraße 237,22767,Hamburg
3672023981,53.5770787,9.9479873,Eims Asia Markt,,,
3682119539,53.5597575,10.0140839,Späte Kiosk,Lange Reihe 111,,
3686167434,53.5937814,10.0438903,Öz Onur,Fuhlsbüttler Straße 169,22307,Hamburg
3688387140,53.5777889,9.9511967,Quick Shop,,,
3696100926,53.5779626,9.9515935,The Asian Shop,,,
3703236366,53.5440172,9.9166564,Strandshop,,,
3709520890,53.6051222,10.1585175,Simorgh Markt,,,
3736537257,53.5638253,9.944701,Mini Markt,,,
3748872925,53.582877,10.0670863,Famame,Oberschlesische Straße 24,22049,Hamburg
3769332087,53.5710848,9.9708745,Mini Markt,,,
3792810900,53.5958384,10.049213,Artins Kiosk,,,
3805056754,53.5516901,9.9599554,Kiosk Cafe Frontal,,,
3807484091,53.5454176,9.986994,Kolonialwaren,,,
3808222329,53.6488474,10.0160707,Jahreszeiten Markt,Tangstedter Landstraße 47,22415,Hamburg
3828216688,53.565321,9.9952026,Fruchthaus Bamian,,,
3830449681,53.5540567,10.08485,U-Store,,,
3988947671,53.5643649,10.0202956,Feinkost & Colonialwaren,Papenhuder Straße 9,22087,Hamburg
3995923267,53.5536272,10.0118807,Saira´s India Haus,Steindamm 21,20099,Hamburg
4043814605,53.5736403,9.9612699,Avrasya Spezialitäten,Eppendorfer Weg 80,,
4065570384,53.5764334,9.9690117,Biss&Markt,Bismarckstraße 82,,
4067286739,53.6822935,9.9972119,Phin Thai Asia Shop,,,
4171437294,53.5202124,10.0107311,Ideal Market,,,
4185935617,53.5425563,10.1072162,U-Store,,,
4235550193,53.551545,9.9345506,Quickers,,,
4273166290,53.5554749,9.9819417,BacKiosk,,,
4314721691,53.5564782,10.0098054,Lagerhaus,Lange Reihe 27,20099,Hamburg
4348844753,53.5542764,10.0127128,Dostana-Store,,,
4367493006,53.5438245,10.0022166,Snack Kontor,,,
4370338853,53.5513258,9.9625725,St. Pauli Getränkeshop,,,
4401885857,53.5838577,9.99654,Muttels,,,
4415575179,53.5603585,9.9635424,Schanzenpost Kiosk Tip Top,,,
4415664064,53.5627047,9.9608963,Cayan Kiosk,,,
4415716825,53.5595973,9.9639715,Bigis Shop,,,
4421198335,53.5802214,9.973581,Asia,,,
4436129198,53.5583727,9.972971,Kiosk,,,
4449707749,53.553457,9.9289126,Kiosk 2000,,,
4461729587,53.5114692,10.2511277,Tevekkül Feinkost,Am Rosenplatz 1,21465,Reinbek
4539867930,53.6190616,10.0008682,Ringeltaube,Sportallee 72,22335,Hamburg
4585643483,53.5516498,9.9343356,U-Store,,,
4600476958,53.4657911,9.9870422,Kleeblatt Food Kiosk,,,
4692626489,53.5486781,9.9597016,Minimarkt,,,
4723305129,53.5727901,10.0802718,Gutkauf,,,
4838845646,53.6238052,10.0134577,Hanse-Kiosk,,,
4925162633,53.548358,9.9624472,SN Stehcafe,,,
4925165520,53.5472018,9.9627114,Davids Kauf,,,
4925166021,53.5471285,9.9627239,Hafen Kiosk,,,
4947771800,53.5662152,10.0579367,Paytakht Market,Pappelallee 8,22089,Hamburg
4962642520,53.6017959,10.0491327,Kiosk & Getränke Oase,,,
4985253961,53.5530718,10.0174255,Warage Kaffeeshop,,,
4989976536,53.5391152,10.1060443,Yakta Markt,Möllner Landstraße 20,22111,Hamburg
5037476121,53.5521873,9.9639714,Sekos,,,
5050972341,53.5514246,9.9625718,Stern Shop & Kiosk,,,
5054072111,53.5048335,10.2038604,Kiosk,,,
5055818026,53.5560037,9.9626304,Pauli Point,,,
5055833921,53.5525455,9.9629884,Backshop,,,
5056117585,53.4890669,10.2058024,U-Store,,,
5058872791,53.5744619,9.9836296,Feinkost Sarikaya,,,
5069572482,53.5690027,10.1228912,,,,
5071036524,53.5538039,9.9620735,Tabak Trafic,,,
5147046790,53.574128,10.0843233,Nestlé P-Markt,,,
5148141530,53.5615305,10.0481087,REWE To Go,,,
5732602810,53.6730179,10.2367949,Reformhaus Zündorf,Rathausplatz 33,22926,Ahrensburg
5732617235,53.7297236,10.2676996,Reformhaus Zündorf,Rathausstraße 28,22941,Bargteheide
5741374630,53.4872945,10.2153751,Weltladen Bergedorf,,,
5891754856,53.4629712,9.797116,Kaufhaus mit Herz,,,
5909902492,53.5595417,9.9731409,St. Pauli Perle,,,
5973086309,53.5565927,9.9672519,Stückgut Hamburg,Neuer Kamp 31,20359,Hamburg
6068309852,53.5004235,9.9943166,Rewe to Go,,,
6173259806,53.5275511,10.0242911,REWE To Go,,,
6376216795,53.4609043,9.9812863,Weltladen,,,
6378845233,53.4582241,9.9822264,Somaal Shop,,,
6456477196,53.653604,10.1142719,Asia Markt,,,
6456477197,53.6535839,10.1141439,Polnische Delikatessen,,,
6473966485,53.4907242,10.2097026,Onkel Emma,Reetwerder 8,21029,Hamburg
6662172094,53.5536932,9.9482199,Kiosk Knüppel,Virchowstraße 64,22767,Hamburg
6743146311,53.5837983,9.9328744,Rewe To Go,,,
6747109112,53.5889329,9.9307029,HEM shop,,,
6747109515,53.5858551,9.9334018,Rewe To Go,,,
6793520813,53.4705243,9.9492474,Mini Market,,,
6872035869,53.5535565,10.0057214,Spar Express,,,
6943123257,53.527476,9.9838445,Harbor Shop,,,
7020370721,53.562294,10.1201701,Aral Shop,Schiffbeker Weg 228,22119,Hamburg
7254787755,53.5475663,9.9626121,Emma Markt,,,
7464455330,53.4754995,10.1352563,Milchhof Reitbrook,,,
7721807002,53.5865975,10.0486026,streubar,Steilshooper Straße 41,22305,Hamburg
8042541565,53.4870103,10.1810875,Asia Bazar,Edith-Stein-Platz 6,21035,Hamburg
8044453267,53.5299106,10.3119088,Rewe To Go,,,
8418479195,53.6042464,10.0302326,Hofladen Hamburg,Loki-Schmidt-Platz 5,22297,Hamburg
8500463123,53.5977864,9.860561,Oli Kiosk,Luruper Hauptstraße 253,22547,Hamburg
8518462330,53.5622369,10.2042024,Zum Dorfladen,,,
8735888224,53.4565138,9.9591286,Balkanix,Eißendorfer Straße 167,,
8887077889,53.6290428,9.8865508,Stockhausen-Abholmarkt,Siemensstraße 43,25462,Rellingen
8951794220,53.577176,10.0186914,Laune der Natur,Winterhuder Weg 65,22085,Hamburg
9041923874,53.7335548,9.9962591,Die Waagschale,,,
9093942444,53.5396823,10.1046359,Sultan Darbar Shop,,,
9127331169,53.4601604,9.9786937,Multi-Center Harburg,,,
9223557491,53.5138979,9.9873071,"""BL Balkanische Lebensmittel""-Markt",,,
9229553959,53.6065509,9.9015434,Nabulsi Markt,,,
9426797288,53.5617096,9.9486533,Holstenspäti,,,
9471462672,53.5523808,10.0414059,Tic Tac Store,Eiffestraße 384,20537,Hamburg
9472316013,53.6607709,9.8004869,Maria Markt,Fahltskamp 3,25421,Pinneberg
9518829850,53.7285258,9.898512,UN.FAIRPAQT Quickborn GbR,Kieler Straße 78,25451,Quickborn
9590557230,53.6523956,9.7904569,Frollein Schütte,Heinrich-Christiansen-Straße 43,25421,Pinneberg
9603525292,53.5707144,9.9782287,Afro - Asia - Shop,,,
9680047689,53.5999185,10.0414707,Tropicana Markt,Fuhlsbüttler Straße 324,22307,Hamburg
9705928085,53.5156445,9.9899253,Bulgarische Lebensmittel,Fährstraße 39,21107,Hamburg
9822883129,53.5611388,9.9162666,Scampi & Friends,,,
10022533664,53.5602436,10.0295536,Ahmadian,,,
10072877668,53.5659239,9.911418,Evin Markt,Bahrenfelder Chaussee 56,22761,Hamburg
10144738077,53.5677664,9.9596197,Aydin Markt,Lindenallee 48,,
10230947318,53.6651375,9.9993401,Langenhorner Supermarket,,,
10240514445,53.6060378,10.0357281,Fruit Wave,,,
10270394103,53.5514939,10.0519717,Aral,,,
10583772205,53.5551548,10.0388496,Hammer Shop,,,
10680760005,53.6156909,9.9516871,REWE To Go,,,
10680798305,53.6413524,9.9168565,REWE To Go,,,
10692651502,53.4592114,9.9831661,Indian Bazaar,,,
10875793581,53.6737832,10.2387066,Moin Unverpackt,Große Straße 34a,22926,Ahrensburg
10926342973,53.5893326,10.0014161,Multiversum,,,
11003422563,53.5907546,10.0564392,REWE To Go,,,
11003445110,53.5924844,10.0544695,REWE To Go,,,
11014488126,53.555125,10.0438747,Afro-Shop,,,
11049685895,53.5663882,10.0403177,Naseri,,,
11139708221,53.555603,9.9875233,Press Point,,,
11179074264,53.593091,9.9875076,Späti,,,
11214128854,53.4818342,10.2077975,REWE To Go,,,
11314065570,53.5611784,9.8424471,HBB Store,,,
11367062831,53.549186,9.9598468,Mini-Market,,,
11369875969,53.4529619,9.9741724,Viva Polonia - Polski Sklep,,21073,
11775549960,53.6720767,10.2405147,Bamiyan Market,,,
11905013121,53.6355725,9.918189,Amir Supermarkt,,,
11910271877,53.5595489,9.9485382,ohne Namen,,,
11933685373,53.7280672,9.9980133,REWE To Go,Ulzburger Straße 440,22844,Norderstedt
11947908823,53.710056,9.9996689,Star,Ulzburger Straße 274,22846,
11950507638,53.5529491,10.0113176,Avanti Market,,,
11951754233,53.5347601,10.1202112,Kapellen mini Markt,,,
12005735163,53.5778316,9.8096363,REWE To Go,,,
12005895949,53.5493328,9.9527644,REWE To Go,,,
12092991292,53.4710938,9.9235457,REWE To Go,,,
12102454596,53.5168178,9.9876981,Frischemarkt Kaya,,,
12204976573,53.5664176,9.9788294,Magazin Romanesc Hamburg,Bundesstraße 44,20146,Hamburg
