id,name,street,zip_code,lat,lon,geojson_feature_id
245214984,Café am Planschbecken,,,53.5966611,10.0215259,04405409
262390792,Das Eis-Café,Rodigallee 167,22043,53.5712716,10.1162154,05504512
265568834,Café May,Von-Axen-Straße 2,22083,53.5796013,10.0252884,04408419
268499724,Jeffs Cheesecake Café,Linnering 5,22299,53.5969403,10.0048452,04405409
269898957,Pavillon,Bei der Reitbahn 9,22763,53.5510058,9.9253374,02204213
274850437,Schanzenbäcker,Sachsenfeld 2,20097,53.544986,10.0226721,01106116
275633114,Espresso House,Alstertor 1,20095,53.5517327,9.9982755,01101101
278076924,Cafe zur Ohlstedter Apotheke,,,53.6956871,10.1405574,05515523
279023056,Tre Pazzi,Hofweg 101,22085,53.5788223,10.0140897,04406414
279023078,Pritsch,,,53.5761226,10.0238954,04408418
280167702,Zum Haselknick,,,53.6932378,10.1186506,05515523
280709535,em - breakfast. coffee. waffles. drinks.,Neuer Pferdemarkt 14,20359,53.5590133,9.9645108,02202207
287514744,Cafe am Hainholz,Hainholzweg 65,21077,53.4495287,9.9384502,07709710
288039515,Ninos Eiscafe,Rothenburgsorter Marktplatz 5,20539,53.5331813,10.039865,01114133
288309626,MoHos,Schlüterstraße 10,,53.564869,9.987091,03302312
288309634,Café Canela,,,53.5627144,9.9890018,03302312
288995964,Duvenstedter Eiscafé,Poppenbütteler Chaussee 8,22397,53.7082656,10.1046377,05514522
292290844,Eis-Livotto,,,53.5629016,9.9774846,01104109
292829393,Knuth,Große Rainstraße 21a,22765,53.5530564,9.9310803,02204213
294701714,Café Eis Stern,Hauptstraße 47,25469,53.636155,9.8397158,0
300596010,Saliza Café,Grindelallee 148,20146,53.5696033,9.9796248,03302311
301149383,Café Douro,Grindelallee 168,20144,53.5708444,9.9788956,03302311
302672371,La Veneziana,,,53.5677668,9.9815113,03302311
302715021,Campus Suite,Großer Grasbrook 10,20457,53.5418192,9.9931964,01102103
303636738,Espresso House,Osterstraße 140,,53.5770067,9.9487168,03301303
305266546,püük - fein + herausgeputzt,Lorichsstraße 28a,22307,53.6024968,10.0438417,04410429
308906255,Dedikodu,,,53.4602348,9.9790602,07701702
311465092,Espresso House,Kurze Mühren 4,20095,53.5528347,10.0037572,01101101
313715843,Meckys Bistro-Café & Backshop,,,53.5841685,9.8546292,02209221
319216630,Jour fixe,,,53.5774137,9.9770362,03303313
319503160,Café Ines,,,53.5942962,9.9442076,03305317
325963637,Zur alten Vierländer Bäckerei,,,53.4014097,10.167856,06606607
332366021,Junge,Frohmestraße 16,22457,53.634475,9.9190079,03307319
340367742,Eiscafe Elisa,,,53.5036903,10.212701,06601601
341788129,Grüneberg,,,53.5582266,10.0126711,01105113
351575187,Coffee Fellows,Ottenser Hauptstraße 7,22765,53.5521158,9.9322828,02204213
355585910,Torrefaktum,Bahrenfelder Straße 237,22765,53.5569476,9.9278603,02204211
360691168,Café Mini & Me,Stresemannstraße 336,22761,53.5633954,9.9270231,02205215
364122986,Café-Shop Blueberry,,,53.5564901,10.0216254,01105113
364123092,Café Berliner Tor,,,53.5571934,10.0228843,01105113
364138836,Endlich-Salon,,,53.5554615,9.9815072,01103108
364138843,Copenhagen Coffee Lab,Poolstraße 34,20355,53.5541161,9.9797517,01103106
365997861,Eis Cafe Venezia,Hauptstraße 35a,22885,53.5691922,10.1629655,0
367030242,Eiscafé Pinocchio,Ulzburger Straße 304,22846,53.7123883,10.0000146,0
370259494,Eisliebe,Wohldorfer Damm 10,22395,53.6726249,10.1261323,05516524
384430539,Liva,,,53.5913419,9.8736259,02208220
385090863,Anteplioglu,Große Bergstraße 199c,,53.5519335,9.94383,02201204
385124494,geen Ottensen,Große Rainstraße 15,22765,53.5528223,9.9307739,02204213
385177411,Café Nr. 28,Schlüterstraße 28,20146,53.5671888,9.9871172,03302312
385669383,Café CampusBlick,Von-Melle-Park 8,20146,53.567295,9.9843428,03302312
388299636,Coffee Club,,,53.6196309,9.9516975,03306318
391529042,LArte del Gelato,Gerberstraße 6,25451,53.7308002,9.898128,0
409233552,Espresso House,Gertigstraße 1,22303,53.5812726,10.0120965,04405413
409233566,Café Canale,Poelchaukamp 7,22301,53.581398,10.0102217,04405413
409233569,Eiscafé am Poelchaukamp,Poelchaukamp 3,22301,53.5816037,10.0106466,04405413
410226495,Eisart,Kiebitzweg 41,22869,53.6083286,9.8390083,0
410438369,Maison Émilie,Emilienstraße 78,20259,53.5718775,9.9527103,03301306
412741903,Swedish Cream,,,53.5717786,9.98916,03302312
413546923,Liebling,,20146,53.5703193,9.9858697,03302312
414037056,Cafe Knallhart,Von-Melle-Park 9,20146,53.5664589,9.9837031,03302312
414220899,Park Cafe,,,53.55326,9.9521531,02201205
433294571,Hansa Steg,Schöne Aussicht 20a,22085,53.569849,10.0096268,04406414
433299709,La Dolce Vita,An der Alster 28a,20099,53.5602185,10.0107642,01105113
433300839,COCO riviera,An der Alster 72,20099,53.5581654,10.0041095,01105114
438141513,Chez Nathalie,Lutterothstraße 88,20255,53.581715,9.9454414,03301301
440241274,Literaturhaus Cafe,,,53.5681246,10.0166099,04406415
441120275,Konditorei Lindtner,Eppendorfer Landstraße 88,20249,53.5911235,9.9881888,04402404
441266948,Espresso house,Danziger Straße 70,20099,53.5578806,10.0121139,01105113
442006772,Espresso House,Gustav-Mahler-Platz 1,20354,53.5564395,9.9901686,01103108
442443891,Elbphilharmonie Kultur Café Starbucks,,,53.5513282,10.0009461,01101101
442871101,Noris Bar Il Gatto,Hagener Allee 7,,53.6718843,10.2391206,0
449119801,Bäckereicafé,,,53.6943251,10.1785334,0
450652001,LEspresso Bar,Grindelhof 45,20146,53.5694245,9.9837686,03302311
451658955,Antonios Eis-Cafe,,,53.6402896,10.0175015,04413432
454616259,EISCAFE29,,,53.5683518,9.9952357,03302312
457006309,Espresso house,Mittelweg 130,20148,53.5709355,9.9953424,03302312
457422216,Éclair au café,Lattenstieg 4,22299,53.5999992,9.9960826,04405408
471767438,Heferl,,,53.550284,9.9820098,01103107
475005177,Kaffeewelt,Böckmannstraße 3-4,20099,53.5533568,10.0170236,01105114
489657283,Cafe Westwind,Spadenteich 1,20099,53.555966,10.0082293,01105114
500618033,Cafe Gnosa,Lange Reihe 93,20099,53.5587826,10.0127916,01105113
500644902,Cube Cafe.Bar,,,53.5583877,10.0127849,01105113
500644908,Bar Sankt Georg,,,53.557846,10.0115842,01105113
500872682,Café Leinpfad,,,53.5930782,9.9941771,04405409
505002935,Ti Breizh,Eppendorfer Weg 161,20253,53.5791065,9.9650353,03304316
510617252,Starbucks,,,53.5487113,9.9878089,01101102
510617258,PhiCoffee,,,53.5485259,9.9876341,01101102
523283738,Cafe Schmidt,Beselerplatz 10,22607,53.5597256,9.8884773,02206218
535406042,Schanzenbäckerei,Holstenplatz 20-22,22765,53.5616086,9.9485084,02201206
543635611,Café Porto,,,53.5676622,9.9813908,03302311
580913155,Löschers Hofcafé,Hoopter Elbdeich 77,21423,53.4000091,10.1583653,0
600286957,Kleines Hofcafe,Grelckstraße 19,22529,53.6008427,9.9556592,03305317
613106739,Il Gelato,,,53.5915314,10.0022666,04405409
614228223,Kaffeegarten Schuldt,Süllbergsterrasse 30,22587,53.5588512,9.8013467,02211223
625215295,Espresso House,Eppendorfer Baum 24,20249,53.5838461,9.9841244,04402404
625770783,DESY Bistro,,,53.5752101,9.876299,02205217
628631587,La Paninoteca,Alstertor 21,20095,53.552534,9.9967777,01101101
630975409,Due Baristi,Langenfelder Damm 2-4,20257,53.5782294,9.9414659,03301301
635162528,elbgold Ottensen,Ottenser Hauptstraße 35,22765,53.551929,9.929398,02204213
635255010,Kaffeeliebe,Am Veringhof 23a,21107,53.5147302,9.9838288,01116137
635376674,Café Pause,,,53.5156964,9.9826325,01116137
653107919,Cafe Strauss,Wiesenstraße 46,20255,53.5775214,9.9538908,03301305
656703922,Eiscafé Jacobs,Immenhöven 23,22417,53.6609945,10.0213706,04413432
674350591,Pèrola,Schanzenstraße 48,20357,53.5612148,9.9657269,02202207
674895707,Wuchercaphé,,,53.5671128,9.9850868,03302312
684220908,Cafe ARTig,Graf-Anton-Weg 27,22459,53.6271345,9.9451025,03306318
684525531,CoffeeBaer,,,53.4219986,9.8979756,0
687702174,Planke,Övelgönne 2,22605,53.5444256,9.9129429,02207219
697019337,Cafe am Eck,,,53.579873,9.9802776,03303314
697736270,Cafe Prüsse,,,53.5594273,10.0079077,01105113
703704384,Der Grill Shop,Grusonstraße 53,,53.5293917,10.0767456,01113131
704394437,Billtrans,Halskestraße 56a,,53.5181286,10.0873342,01113131
706970874,Marigold,,,53.5528407,9.9765246,01103106
706970882,Gibbon,,,53.5485855,9.9779123,01103106
713016838,Bistro Cà Phê Viet,Bäckerbreitergang 14,,53.5548356,9.9827949,01103108
715727529,Harmshof,Königreicher Straße 88,21635,53.5295885,9.7388057,0
718600762,Villani,,,53.555506,9.9853736,01103108
718613866,Junge,Gänsemarkt 44,20354,53.5556047,9.9882824,01103108
718622786,Espresso House,,,53.554833,9.9888072,01103108
719567303,Ottos Eiscafe,Heidlohstraße 2b,22459,53.6294363,9.9281939,03307319
727229440,Junge,,,53.6071719,10.1732544,05518526
728229430,Buttercrumbs Bakery,Bernhard-Nocht-Straße 95,20359,53.5470548,9.9625955,01104112
732078002,Bäckerei Nitt - ERLEN Café,Erlengang 5-7,22844,53.7274225,9.9964658,0
732874279,Moorbek Cafe,,,53.7072423,9.9889806,0
740412878,Coffee Fellows,Am Kaiserkai 60-62,20457,53.5414394,9.9855479,01102103
741321990,K. u. K. Kaffeehaus,,,53.5416437,9.9900413,01102103
743152028,Campus Suite,Am Strandkai 1,20457,53.5387931,9.9937924,01102103
794053006,Nobis,,,53.5550778,10.0083977,01105114
813205424,Cafe Tempo,Eppendorfer Weg 237,,53.5828549,9.9741661,04401401
829304806,Eis-Perle,,,53.6085106,10.0091598,04404407
840945908,Magnifico,,,53.6014973,9.8886512,02208220
842142410,Jaspers Café,Ernst-Mittelbach-Ring 80,22455,53.6410896,9.9479658,03306318
843250322,Eiscafé Höft,Burgwedel 67,22457,53.6421432,9.9158295,03307319
845378992,AK Kiosk,,,53.4594124,9.948836,07710711
880212272,Ponton Op’n Bulln,Strandweg 30,22587,53.5558708,9.8053592,02211223
880220784,Marmalade Café & Bar,,,53.557904,9.802672,02211223
880227742,Jayjays,,,53.5609008,9.8118866,02211223
881791865,Cafe May,Caspar-Voght-Straße 7,20535,53.5566586,10.0618091,01108123
884694518,Ribatejo,Bahrenfelder Straße 56,22765,53.5499616,9.9304158,02204214
884708041,Masal Café,Bahrenfelder Straße 98,22765,53.5512656,9.9303216,02204214
884724336,Vulcão,Bahrenfelder Straße 165,22765,53.5542862,9.9283737,02204213
891566678,La Paz,Heußweg 49,20255,53.5775121,9.9519586,03301302
892590376,Palmencafé,Kieler Straße 5,25474,53.6901886,9.9096048,0
894112711,Ahoi Strandkiosk,Övelgönne 57,,53.5445156,9.9058294,02207219
896866244,Frisierbar Ottensen,Friedensallee 32,22765,53.5550897,9.9267998,02204213
898954327,Cafe Bar Hamburg,Eißendorfer Straße 103,21073,53.4579265,9.9667118,07709710
905313642,Elbgold,Lagerstraße 34 C,20357,53.5631541,9.9669229,01104109
917978506,Delikate,Schubackstraße 4,20251,53.5965273,9.9873923,04402405
920655866,Eiscafé Jacobs,Schloßstraße 108,22041,53.5720803,10.0750019,05503510
942054400,Kappa Due,Alter Zollweg 199,22147,53.6030311,10.1301109,05518526
943991108,klatschmohn,Arnoldstraße 48,,53.5489856,9.9256823,02204214
961420146,Nur Hier,Niendorfer Straße 25,22529,53.6041669,9.9541727,03305317
962977425,Café Kofje,Walddörferstraße 12,22041,53.5792177,10.0666417,05502505
974454581,Emir,,,53.5165634,9.9872803,01116137
976703942,Seu Café,,,53.5160637,9.9876032,01116137
977466071,China Boy,,,53.6056797,10.1175696,05506514
977466083,Eiscafé Dante,,,53.6047749,10.117451,05506514
977807190,La Malême,,,53.5531229,10.02319,01105113
978789518,Blandona,,,53.6114429,10.0583982,05508516
981295143,Cems Backshop,,,53.5867476,10.0647803,04409425
982628597,Gleis 3,,,53.4729592,9.789122,0
982659444,Café Pianola,Vogelhüttendeich 62,21107,53.5170003,9.9884818,01116137
983452177,Eiscafé Geppetto,,,53.6822896,9.9983366,0
983495515,Cero Coffee,,,53.6616158,9.7948829,0
985216764,,,,53.5816443,9.75723,02214227
985216779,,,,53.5815928,9.7549756,02214227
990207483,Kaffeerösterei Coffee Unlimited,Borgweg 13,22303,53.5906675,10.0152615,04405410
993802429,Junge,,,53.490974,10.2075442,06601601
1050229093,Von der Motte,Mottenburger Twiete 20,22765,53.5507652,9.9292424,02204213
1078570334,Cafė Olė,Keplerstraße 2,22765,53.5495169,9.9271659,02204214
1078581478,el rojito,Große Brunnenstraße 68,22763,53.5510953,9.9258508,02204213
1078586454,Beys,Ottenser Hauptstraße 64,22765,53.5516737,9.9259973,02204213
1078587777,Laundrette,Ottenser Hauptstraße 56,22765,53.5517311,9.9265766,02204213
1078598535,Capos Coffee,,,53.5520223,9.9311542,02204213
1079079246,filón Tapas Bar,Am Kiekeberg 1a,22587,53.5592454,9.8110184,02211223
1081848075,Lühmanns Teestube,Blankeneser Landstraße 29,22587,53.563678,9.80817,02211223
1082025926,Riva,Blankeneser Bahnhofstraße 36,,53.5611098,9.8110979,02211223
1094041304,Schlee Café,,,53.5472208,9.9452609,02201202
1110705276,Weidenkantine,Weidenallee 61,20357,53.5683074,9.9640067,03301310
1148156646,Café Kirchenbank,Erdkampsweg 38,22335,53.62923,10.0234456,04412431
1149300132,Café Mutsch,Erdkampsweg 18,22335,53.6281232,10.0248755,04412431
1176890405,Adam Cafe City,Müggenkampstraße 45,20257,53.5798585,9.9424764,03301301
1189267069,Pancake Panda,Müggenkampstraße 34,,53.5799487,9.9435847,03301301
1191289186,Tetova,,,53.5176985,9.9869451,01116137
1193588001,Cafe Restaurant Harmonie,,,53.620003,10.0330009,04411430
1263239556,Emmas,Hofweg 63,22085,53.5737808,10.015241,04406414
1263360539,Avi,Zimmerstraße 52,22085,53.5748621,10.0195882,04406414
1269116631,Casareccio,,,53.4951061,10.2062591,06601601
1277163003,Eiscafé il Gelato,Alsterdorfer Markt 18,22297,53.6128383,10.0253977,04404407
1280483671,Eis Qgel,Dehnhaide 56,22081,53.5788525,10.0456225,04408423
1280644193,Hadleys,Beim Schlump 84a,20144,53.5703946,9.976892,03302311
1314106748,Dielen-Café,,,53.7180077,9.775556,0
1314106802,Hof-Café,,,53.7183045,9.7755458,0
1345539089,Cafe Centrale,Nöltingstraße 4,22765,53.5538339,9.9281386,02204213
1345874096,Naan,August-Krogmann-Straße 10,22159,53.6070794,10.1184253,05506514
1355395085,Coffee Fellows,Stephansplatz 2-8,20354,53.5579624,9.9892598,01103108
1375496844,Caligo Coffee,Rondeel 4,22926,53.6730382,10.2388561,0
1376676142,Eiscafe Il Giardino,,,53.6628759,10.2859324,0
1379951519,Heimfelder Café,,,53.4653637,9.9622508,07710711
1391523573,Cafe La Fleur,Grindelallee 132,20146,53.5687228,9.9801332,03302311
1391540151,Golden Temple Teehaus,,,53.5650629,9.9836992,03302312
1411408403,Café Uhrlaub,Lange Reihe 63,20099,53.5577818,10.0115021,01105113
1415799108,Kuchenfein,Altonaer Chaussee 1,22869,53.598183,9.853832,0
1416317139,Café klatsch,Glashüttenstraße 17,20357,53.5586335,9.9726892,01104109
1417823153,Junge,Rondeel 5,22926,53.6730194,10.2395617,0
1469287147,Café Kaltehofe,,,53.5243912,10.0523778,01114132
1482103376,Campus Suite,Steinstraße 5-7,20095,53.5499314,10.0047076,01101101
1483712606,Deike,Lutterothstraße 5,20255,53.5787848,9.956415,03301305
1492030996,Lespresso,,,53.5964903,9.9821141,04402405
1495815801,Marias Café,Carl-Petersen-Straße 122,20535,53.5572845,10.0523161,01108122
1500721369,Café Estrella,Weidenallee 63,20357,53.5684594,9.963921,03301310
1502029200,Espresso House,Grindelhof 15,20146,53.5679255,9.9817075,03302311
1502029219,Libresso,,,53.5632154,9.9878896,03302312
1502662573,nous,Klosterallee 67,20144,53.5802899,9.9794599,03303314
1504456972,Cafe Hagelstein,Bismarckstraße 98,20253,53.5774866,9.9706807,03304315
1504457061,Ufer,Bismarckstraße 151,,53.5784734,9.9745541,03304315
1509824160,Bäckerei Schlüter,Dockenhudener Chaussee 48,25469,53.6270319,9.8327363,0
1525291972,Pampá,Marktstraße 92,20357,53.558327,9.9693796,01104109
1550016988,Bäckerei Kamps,,,53.4746875,9.8762392,07713714
1554494080,Hansebäckerei Junge,,,53.5545894,10.0078021,01105114
1561371106,Starbucks,Neuer Jungfernstieg 5,20354,53.5550347,9.9909982,01103108
1561538988,Caravela St. Georg,Lange Reihe 13,20099,53.5560647,10.0091698,01105114
1561539057,Bistro Kleinod,,,53.5593239,10.012467,01105113
1562385962,Transmontana,Schulterblatt 86,20357,53.562453,9.9618184,02202207
1565935297,Kolls,Rudolf-Klug-Weg 7,22455,53.640484,9.9472378,03306318
1571347848,Café Münzburg,Münzplatz 11,20097,53.5493294,10.0129585,01106115
1571348539,Café Curiousa,,,53.5549298,10.0126222,01105114
1574464390,Mar y Sol,Ottenser Hauptstraße 36,22765,53.5520568,9.9290137,02204213
1574464503,Ivy,Mottenburger Straße 26,22765,53.5517092,9.9278259,02204213
1578704270,Bei Maria,Große Reichenstraße 14,20457,53.5483196,9.996491,01101102
1585709115,Cafe May,,,53.5505106,9.9623457,01104111
1590668931,MAY,Lappenbergsallee 30,20257,53.5765793,9.9433942,03301303
1607039269,Eiscafé Otto,Wandsbeker Chaussee 181,22089,53.5682444,10.0485117,05501502
1607039287,Würfel & Zucker,Eilbeker Weg 39,22089,53.5690026,10.0435255,05501501
1623244456,hugsandcoffee,Lange Reihe 102,20099,53.5587638,10.0136488,01105113
1623989349,Oh Its Fresh,,,53.5572065,10.0216292,01105113
1624222159,Eiscaffee Dino,Veddeler Brückenstraße 162,20539,53.5240325,10.0172302,01115134
1639023471,Das Eiswerk T&O,Markt 1,21509,53.5410851,10.2144181,0
1640543957,Oh Its Fresh,,,53.5455546,10.0231642,01106116
1642881548,braakermühle,,,53.6141401,10.1564433,05518526
1650221321,Monikas Café,Veddeler Brückenstraße 160,20539,53.5240584,10.0173184,01115134
1656096429,No Name Cafe,Kasernenstraße 12,21073,53.4625044,9.9693747,07701701
1656096464,Café insgrüne,,,53.4594875,9.9701711,07701701
1657857391,Waldhuuske,Rosengartenstraße 2,21224,53.4064112,9.8556908,0
1658785406,Café Stark,,,53.5533837,9.9616576,01104111
1667308127,New York Bagel Bar,Susannenstraße 18,20357,53.5626626,9.9646483,02202207
1759791300,Café Jungiusstraße,,,53.5586584,9.9815545,01103106
1768194498,Schlosscafé,,,53.4897406,10.2124942,06602602
1774105788,Trucys,,,53.578166,10.015707,04406414
1774111005,Campus Suite,Brandsende 2-4,20095,53.5536584,10.002529,01101101
1778895074,Cafe Galao,Alsterdorfer Straße 48,22299,53.5970591,9.9972136,04405409
1781081225,Amber Café,Schaarsteinwegsbrücke 2,20459,53.5459217,9.9815246,01103105
1785310133,Shabos Café & Bar,,,53.551925,10.053276,01108124
1799649592,Eisbüttel,Lutterothstraße 45,20255,53.5810262,9.9517368,03301302
1800638002,Konditorei Ulrich Münch,Weidestraße 26,22083,53.5804596,10.0374208,04408421
1806536680,Magic Weiher,,,53.5774292,9.9613829,03301305
1811412936,Winter,Möllner Landstraße 202,22117,53.5402051,10.1358582,01112130
1819871702,Eis-Cafe Arktis,Werner-Otto-Straße 42,,53.5969487,10.0717068,05507515
1823376856,Pastelaria Transmontana II,Lappenbergsallee 48,20257,53.5777749,9.9421403,03301303
1830719741,Kafaya’s Café & Spécialités,Semperstraße 64,22303,53.5869162,10.0187648,04405411
1848077244,Eiscafé Dante,Nienstedtener Straße 3c,22609,53.5542577,9.8444425,02210222
1851239296,Curcuma,,,53.5780438,9.9427501,03301303
1869742767,La Caffètteria,Abendrothsweg 54,20251,53.584423,9.9744972,04401402
1893863031,La Patate,,,53.7142179,10.0001416,0
1900276436,Cafe Lou,,,53.6224006,10.1652636,05518526
1909865366,Zimt & Zucker,,,53.5488607,9.9936352,01101102
1909894526,Cafe Paris,Rathausstraße 4,20095,53.5498937,9.994348,01101102
1909913517,Café Everyday,,,53.5501008,9.9950359,01101102
1912212944,noé,,,53.5541984,9.9858317,01103108
1912679813,Goose Coffee,,,53.5547652,9.9879321,01103108
1912723935,Stadtbistro,Große Bleichen 68,20354,53.5522231,9.9860858,01103108
1912857426,Starbucks,,,53.5513397,9.9934983,01101102
1918543518,Joe & The Juice,,,53.5579922,9.9884707,01103108
1935146342,OKI Street Cafe,,,53.5567899,9.9904241,01103108
1935146389,Brammibals Donuts,Jungfernstieg 47,20354,53.5550011,9.9892989,01103108
1935772558,Café Hamburg,,,53.5549655,9.9891871,01103108
1935772590,Dolce&Gelato,,,53.55451,9.9891199,01103108
1935772592,New York Bagel Bar,Gerhofstraße 25,20354,53.5547903,9.9890153,01103108
1937256939,Planten Coffee,Esplanade 23,20354,53.5578468,9.9900451,01103108
1937331813,Leos Café,Colonnaden 9,,53.5554103,9.9904595,01103108
1939337175,Elenas Backbistro,Geschwister-Scholl-Straße 155,20251,53.5942626,9.9758491,04402403
1939345220,IL piccolo CAFÈ,Geschwister-Scholl-Straße 29,20251,53.5943041,9.9851639,04402403
1941369003,Helms Lounge,Museumsplatz 2,21073,53.4589093,9.9770546,07701701
1942791855,Avanti Kiosk,,,53.5904934,10.0152916,04405410
1945767288,Hamers Cafe,Claus-Ferck-Straße 4,22359,53.6490234,10.1642035,05517525
1974128682,Comebuy,,,53.549898,9.9869464,01103108
1974983118,Café June,Bahrenfelder Steindamm 43,22761,53.5602554,9.9267927,02205215
1979150830,Remise Weinoase,Dingstätte 27,25421,53.661231,9.7955459,0
1983556540,Ruperti,,,53.5537278,9.9874489,01103108
2012113683,Eppendorfer Eiscafé,,,53.5928971,9.9893249,04402404
2026508683,marie luise,Poolstraße 32,20355,53.5542579,9.9797302,01103106
2085867786,Eclair au café,,,53.5754048,9.9454465,03301303
2086129019,Café Greco,Große Straße 42,,53.6735291,10.2390874,0
2089691179,Café Koppel,Koppel 66,20099,53.5583986,10.011469,01105113
2122541094,Mehrgenerations Haus e.V.,,,53.5654591,9.9617822,03301310
2131207500,MATCH - Billard-Cafe,,,53.6583908,10.0206078,04413432
2135383225,Rohlfs Bäckerei,Neusurenland 109,22159,53.6164964,10.1148477,05506514
2136515331,Cafe Meyns,,,53.5038899,10.2134266,06601601
2138180708,Surimex Cafe Bistro,,,53.5680648,10.023119,04406415
2145288709,May,Alsterdorfer Straße 84a,22299,53.5991188,9.9970829,04405408
2149567914,Das Frühstückszimmer,Bramfelder Drift 20,22175,53.6302525,10.0865158,05507515
2151782564,Lieblings Café Bar,Detlev-Bremer-Straße 50,20359,53.5503539,9.9646134,01104111
2156443820,Mit Herz & Zucker,Lübecker Straße 29,22087,53.5609276,10.0300268,04407417
2164565017,Freda Café & Bistro,Theodorstraße 48,22761,53.5695687,9.8985885,02205216
2183115064,Bäckerei Nitt - Café an der Ulzburger Straße 324,Ulzburger Straße 324,22846,53.7145646,10.0001415,0
2195611627,Espresso House,,,53.5548665,9.9887759,01103108
2249960236,Casa Portugal,,,53.5584999,10.012475,01105113
2264534402,Lieblings,Altstädter Straße 15,20095,53.5494464,10.0027453,01101101
2268137398,Cafeteria Studierendenwerk,,20099,53.554827,10.0176159,01105113
2268683530,Café im Herrenhaus,Wellingsbüttler Weg 71,22391,53.6429591,10.0715697,05509517
2270938681,Café Bouquet,,,53.4897181,10.2092261,06602602
2278248223,Café Bohne,Rugenbarg 8,22549,53.5736809,9.846956,02209221
2300972681,Café Paranoia,,,53.5675112,9.9833136,03302312
2301140869,,,,53.488379,10.209354,06602602
2301145969,Eiscafé Ciprian,,,53.488062,10.2123348,06602602
2301162520,Cafè la Petite Rue,,,53.4881811,10.2134095,06602602
2303472465,peaberries Kaffee,,,53.5575493,10.0105431,01105114
2306883446,Wildes Fräulein,Überseeboulevard 2,20457,53.5426902,9.9975756,01102103
2314320341,Café Sul Hafen,Ditmar-Koel-Straße 10,20459,53.5461875,9.9760896,01103105
2322408268,Tchibo,,,53.4882002,10.2087865,06602602
2322454983,Eiscafé Ciprian,,,53.4882289,10.2092049,06602602
2322461463,Kaya Salate Feinkostgeschäft Hüsna Karahan,,,53.4874984,10.2073208,06602602
2322462534,KUPA Saftbar,,,53.4886974,10.2072303,06602602
2322464333,Pane & Vino,,,53.4883981,10.2095858,06602602
2322470975,Ristorante Vero,,,53.48828,10.2086577,06602602
2340961457,Cafè & Bar Parthenope,Kleine Johannisstraße 17,20457,53.5491642,9.9939324,01101102
2341553441,Café Brooks,Hasselbrookstraße 37,22089,53.5635567,10.0418884,05501501
2380892775,alsterback,Alsterdorfer Straße 470,22337,53.6159474,10.0245044,04404407
2398686966,Winterhuder Kaffeehaus,,,53.5949917,9.9993638,04405409
2398743471,Ü great,Barmbeker Straße 177,22299,53.5926963,10.0010057,04405409
2415803982,Eiscafe Tropea,Osterstraße 116,20259,53.5764653,9.9522791,03301305
2428136298,Roomyz,Pestalozzistraße 20,22305,53.5872454,10.0471061,04410427
2442305537,Knusperstube,Wandsbeker Marktstraße 145,22041,53.5736057,10.0711371,05502507
2443312788,Palang good coffee,Fischertwiete 1,20095,53.5483844,10.0018725,01101101
2444898772,Delzepich Eis,Winterhuder Weg 67,22085,53.5774153,10.0181999,04406414
2450291764,Café am Park,,,53.4411015,9.9936226,07704705
2454225450,Speicherstadt Kaffeerösterei,,,53.543817,9.9880392,01102103
2476885583,Café Schmidt,Große Elbstraße 212,22767,53.5447605,9.9398457,02201202
2477492233,Das Elbcafe,Drennhäuser Elbdeich 19,21423,53.4190716,10.2704734,0
2477977760,HSV Kaffeepause,,,53.5499571,9.9621547,01104111
2487905864,The Special Connection,Fischmarkt 11,22767,53.5457119,9.9517933,02201201
2496074279,CampusCafé,Von-Melle-Park 5,20146,53.5656165,9.9840746,03302312
2502505697,Lovely Vintage Café,Billwerder Billdeich 480,21033,53.5045092,10.1688369,06610611
2503289159,Café Greco,,,53.4888176,10.2116202,06602602
2506867662,McCafé,,,53.6331151,10.0047581,04412431
2510276175,Café May,Fuhlsbüttler Straße 402,22309,53.6025743,10.0410609,04410429
2517436068,espresso,,,53.5934758,10.0521207,04410426
2517731413,Weltcafé ElbFaire,Shanghaiallee 12,20457,53.5428095,10.0022997,01102104
2526546538,vju im Energiebunker,Neuhöfer Straße 7,21107,53.5101461,9.9896185,01116137
2556853836,Calabrese Eiscafé,,21109,53.4978486,10.0089998,01116136
2562114483,Eiscafé Siebenhüner,,,53.6334886,9.9528697,03306318
2613076730,Chakra,Susannenstraße 11,20357,53.5621522,9.9632782,02202207
2619851503,Café Stenzel,Schulterblatt 61,20357,53.5614172,9.9622325,02202207
2648992041,Haciendo Cafe,Hummelsbütteler Landstraße 1,22335,53.6267198,10.0236179,04412431
2670469182,Cafe Crema,,,53.5397437,10.1059747,01112130
2683107676,Speicherstadt Kaffeerösterei,,,53.5845712,9.9823822,04402404
2714443747,Eclair au Café,Eppendorfer Weg 1,20259,53.5683626,9.9562121,03301307
2737288044,In der Zwischenzeit,Claus-Ferck-Straße 10,22359,53.6496046,10.1635042,05517525
2776307762,sofacafé,,,53.4632624,9.9702961,07701701
2833731899,Public Coffee Roasters,Wexstraße 28,20355,53.5513688,9.9826548,01103107
2847763104,Bax Café Crème,Alte Holstenstraße 30,21031,53.4920122,10.2074549,06601601
2878938194,Deichdiele,Veringstraße 156,21107,53.5053226,9.9862077,01116137
2885023887,Café par ici,Maria-Louisen-Straße 1,22301,53.5841705,9.996289,04405413
2901503667,Quo Vadis,Grindelallee 95,20146,53.5682546,9.9798028,03302311
2906917852,Formidable,Eppendorfer Landstraße 120,20251,53.5931015,9.9884523,04402404
2909009104,Hülsen Petit Fisch Bistro,,,53.5940013,9.9874279,04402403
2909009115,Hermitage Cafè,Martinistraße 6,20251,53.5926567,9.9878466,04402403
2909009147,Là Phin,Eppendorfer Landstraße 109,,53.59324,9.9881455,04402403
2919461599,Fofftein,Weidenallee 67,,53.5688979,9.9636687,03301310
2919467710,Juwelier Espressobar,Weidenallee 29,20357,53.5670605,9.9647301,03301310
2926146804,Junge,Eppendorfer Landstraße 29-31,20249,53.5877115,9.9845638,04402403
2929432319,Café Missingsch,,,53.5833972,10.0129619,04405412
2930983854,Café Ferdinand,,,53.5529644,9.9923497,01103108
2931952951,Lavinis Eiscafé Bistro,Bahnhofstraße 88,25451,53.730812,9.9038075,0
2940646845,Mia Mio,Hellkamp 70,20255,53.5806355,9.9495039,03301302
2952556848,Albatros Café,Wagnerstraße 5,,53.574867,10.0367753,04408422
2968518695,Nord Coast,Eppendorfer Weg 171,20253,53.5796197,9.9663154,03304316
2971954607,Wilhelms im Wälderhaus,,,53.4962161,10.0027988,01116137
2997326929,Student Affairs,,,53.493617,10.1999854,06601601
3008713082,Kleine Heimat,Hongkongstraße 2-4,20457,53.542293,10.0007724,01102104
3053154313,LiZ Libertäres Zentrum,Karolinenstraße 21,20357,53.5590588,9.9746437,01104109
3061275181,Funtasia 2.0,,,53.6893638,10.2581207,0
3076523672,Corner Café,,,53.5506798,10.0168518,01105114
3094677270,Leonardo,Achternfelde 1,22850,53.6821571,9.9804784,0
3108894229,Carroux Kaffeerösterei,Elbchaussee 583,22587,53.5585513,9.8121894,02211223
3123453887,Cafe Melt,Johannisbollwerk 19,20459,53.5454709,9.9735266,01103105
3123495668,Cafe am Hafen,,,53.5457055,9.9735229,01103105
3136102797,Back-Lava,,,53.5543849,10.01473,01105114
3138041041,MAATS Blankenese,Elbuferweg 133,22609,53.5542163,9.8239689,02210222
3161366542,Schön-Café,,,53.5773547,10.053903,04408423
3171187723,Panther cafébarkitchen,Marktstraße 3,20357,53.5583089,9.974516,01104109
3197186726,Pastelaria Carlos,Fuhlsbüttler Straße 412,22309,53.6029408,10.0409581,04410429
3217719874,Bobby Reich,Fernsicht 2,22301,53.5803678,10.0003727,04405413
3223703512,MOJO Jazz Café,,,53.5497575,9.9679283,01104112
3236951109,Bubble Tea,,,53.5513905,9.995057,01101101
3252612351,Carlos Coffee,Osterstraße 83,,53.5753522,9.9545636,03301306
3255110343,Eclair au cafe,Hebbelstraße 15,22085,53.5775981,10.017372,04406414
3265265483,Cafeteria Latina,Rathausallee 19,,53.7069209,9.9942929,0
3266554561,Die Rösterei Coffeum,Steinstraße 19a,20095,53.5498826,10.0015825,01101101
3267601462,Elbwarte Augustinum,Neumühlen 37,22763,53.5437705,9.9166007,02204214
3267845045,EisBar,Große Elbstraße 126,22767,53.5444614,9.9460599,02201202
3277905053,Cafe Liam,Wiesenhöfen 7,22359,53.648465,10.1681571,05517525
3295704197,Eis Pauli,Wohlwillstraße 37 (links),20359,53.5547225,9.9623544,01104110
3320679119,Ballintimes,,,53.554796,9.9999236,01101101
3327495788,Hamburg Bäckerei,,,53.5485175,9.9972344,01101101
3349207340,Vintage Café,Karnapp 5,21079,53.4638752,9.9831154,07701702
3357714647,Oh its fresh!,,,53.54535,10.0030396,01102103
3366923018,Starbucks,,,53.5710285,9.8620475,02209221
3370930314,Gretchens Villa,Marktstraße 142,20357,53.5585071,9.9741156,01104109
3387957397,gold im mund,,,53.5575138,9.9752402,01104109
3397354112,Nardos,Grimm 15,20457,53.5462642,9.9936648,01101102
3401837553,Berliner Prinz,Gutenbergstraße 13,21465,53.5237328,10.2345173,0
3404094140,Café CFEL,,,53.5790478,9.885067,02205217
3413804255,Das Cafe,,,53.5704003,9.8869963,02205217
3435568630,barca,An der Alster 67a,20099,53.5586338,10.0054208,01105114
3436722849,La Douce,,,53.5790249,9.9531532,03301302
3451080324,Steidl,,,53.6034814,10.1545314,05518526
3460178864,Café Johanna,Venusberg 26,20459,53.5470636,9.9750434,01103105
3461615592,Schmidtchen Cafehaus,Rahlstedter Straße 68,22149,53.5953658,10.150294,05518526
3462081561,Milch,Ditmar-Koel-Straße 22,20459,53.5459388,9.9747366,01103105
3462081565,Pasteleria Cristal,Reimarusstraße 4,,53.5459802,9.9749485,01103105
3462081566,DaliCafé,,,53.5452471,9.9751229,01103105
3474188163,Knusperkeks,,21107,53.5158575,9.9875529,01116137
3474793612,Luicellas Ice Cream,Mühlenkamp 21,22303,53.580919,10.011768,04405413
3491077934,Campus Suite,Eppendorfer Landstraße 102,20249,53.5920808,9.9886571,04402404
3503894271,Enjoy Coffee Bar,,,53.5529244,10.001512,01101101
3536740038,Espresso House,Vorsetzen 31,20459,53.5439874,9.9789813,01103105
3550761678,Café HCU,,,53.5401582,10.0042816,01102104
3560701384,Barrossa Eiscafé,,,53.6534595,9.8293051,0
3571556893,Alsterliebe,,,53.6515132,10.0960128,05511519
3588227830,Pasteleria Cafe Veloso,Friedensallee 9,22765,53.5545073,9.927292,02204213
3595917682,Eiscafé Il Salottino,Eilbeker Weg 39,22089,53.5688495,10.0436967,05501501
3603412583,Seasons,,,53.5683584,10.0920184,05503511
3603697381,Maya Kaffeehaus,Hammerbrookstraße 75,20097,53.5460691,10.0245601,01106117
3603697383,alegria,,,53.5447934,10.0249207,01106116
3603698298,Coffee Fellows,,,53.5455591,10.0181845,01106115
3613604044,Henkelmanncafe,,,53.5686478,9.9951662,03302312
3616123745,Cafe dellArte,,,53.563385,9.9878004,03302312
3632119818,Goldenblack,Karolinenstraße 16,20357,53.5587701,9.975196,01104109
3646425289,Caros Konditorei und Davids Café,,,53.7080882,10.1079457,05514522
3647000015,Bambusgarten,Eulenkrugstraße 190,22359,53.643188,10.1888729,05517525
3647828113,Beatles,,,53.5942866,10.1454062,05518526
3647842257,Cafe around the world,,,53.5931639,10.1386967,05518526
3653903852,Black Line,Eppendorfer Weg 67,20259,53.571715,9.9585119,03301306
3655970038,45’LIK,Überseering 15,22297,53.6029146,10.024532,04405408
3656847907,Caffino,,,53.5519351,9.9434089,02201204
3664754343,ima vegan,Lappenbergsallee 36,20257,53.5770749,9.9427228,03301303
3668931449,Langenfelder Frühstücksecke,,,53.5803364,9.9384751,03309321
3669227588,Happy Waffel,,,53.5502779,10.0018041,01101101
3670766225,Caffe Buondi,Jessenstraße 4,22767,53.551142,9.94529,02201203
3670889372,Alissa Eis,,,53.550193,10.001963,01101101
3671884998,Cafe Delice,,,53.5788932,9.9467923,03301303
3671923065,Café Estoril,Osterstraße 158,,53.5782277,9.9474205,03301303
3671923092,Chaiteria,,,53.5777523,9.9472945,03301303
3672359341,Mothers Fine Coffee,,,53.548461,9.9628258,01104112
3672507852,Copenhagen Coffee Lab,Mühlenkamp 39,22303,53.5819216,10.0108072,04405413
3676705748,Elbwein,Beselerstraße 27,22607,53.5648198,9.8802947,02206218
3680185789,Entenwerder1,Entenwerder 1,20539,53.5293462,10.037895,01114133
3686175204,Mosaic,Fuhlsbüttler Straße 176,22307,53.5932111,10.0446035,04410428
3687277816,Pauszeit,,,53.5541284,9.9196933,02204212
3688386316,Café estoril,Karl-Schneider-Passage 41a,,53.5771421,9.9512018,03301303
3688490997,Cafe Yapistir,,,53.5790425,9.9492774,03301303
3696097578,Café Tuana,,,53.5795441,9.9492387,03301302
3696100956,geen,Stellinger Weg 38a,20255,53.5802518,9.9481025,03301302
3696100958,meraki,Stellinger Weg 38f,,53.5804676,9.9477583,03301302
3697640374,Roncalli Grand Cafe,,,53.5512043,10.0028407,01101101
3710411784,Glück und Selig,,,53.579742,9.9559496,03301302
3710411823,Glück und Selig,,,53.5797284,9.9559153,03301302
3712584264,Erdapfel,,,53.5486363,10.0030381,01101101
3727886206,Coffee and more,,,53.545377,9.9660623,01104112
3733646095,Cafe Leonar,Grindelhof 59,20146,53.5697536,9.9840813,03302311
3740637266,Brotstube,,,53.5443668,9.9772343,01103105
3743921831,Café Schwesterherz,Alsterdorfer Straße 572,,53.6197571,10.033235,04411430
3750771258,Yildiz,,,53.5427175,10.0952816,01111128
3758950382,Café Belém,Veringstraße 157,21107,53.5053322,9.9858429,01116137
3758950384,Café Gegenüber,Weimarer Straße 81,21107,53.5072528,9.9875864,01116137
3759321077,The Bakerys,,,53.553201,10.0031997,01101101
3763070974,Chacha,,,53.5685083,9.9720444,03301309
3763238289,Health Kitchen,,,53.5918233,9.9731697,04402403
3769358709,Pera,Bundesstraße 96,20144,53.5726818,9.9673843,03301308
3770365661,Dream Cafe,Alsterdorfer Straße 90,22299,53.5998336,9.9969184,04405408
3770463611,Café 53,Weidenallee 53,20357,53.5677579,9.9643014,03301310
3785741354,Autogepäckträger am Michel,Englische Planke 6,20459,53.5486339,9.97787,01103106
3789649731,Mayfair coffee,,20099,53.5576055,10.0054647,01105114
3807461866,Nord Coast Coffee Roastery,Deichstraße 9,20459,53.5465554,9.9880626,01101102
3820771779,Mimosa,Clemens-Schultz-Straße 87,20359,53.5524729,9.9635997,01104111
3827732090,Jupibar,,,53.5550961,9.9839951,01103108
3827732091,Nasch,Caffamacherreihe 49,20355,53.5552852,9.9840289,01103108
3831508193,T-Stube,,,53.5670325,9.9822238,03302312
3863354065,Braaker Mühle,Braaker Bogen 33,22145,53.61806,10.239644,0
3871142075,Sera Quie,Veringstraße 27,,53.5161117,9.9872315,01116137
3874810066,GenussWelt,Max-Born-Straße 2-4,22761,53.5746461,9.8874675,02205217
3876487135,Almaz,Hoheluftchaussee 90,20253,53.5838124,9.9702027,04401402
3906458203,Café Freddo,Ulzburger Straße 5,22850,53.6832581,9.9979457,0
3914415519,friends,,,53.593376,10.0525234,04410426
3927801938,Stockholm Coffee Roasters,Peter-Marquard-Straße 10,22303,53.5828432,10.0120296,04405413
3941448853,Favoloso,,,53.5571956,9.9889288,01103108
3943681439,Pausenschön,,,53.5504537,9.9824699,01103107
3948209801,MAD about juice,Mühlenkamp 12,22303,53.5805735,10.0125147,04405412
3948209802,Public Coffee Roasters,Mühlenkamp 6a,22303,53.5801451,10.012892,04405412
3948209804,Cheesecake Heaven,Mühlenkamp 3,22303,53.5800864,10.0124431,04405413
3948984293,New York Bagel Bar,Mühlenkamp 1,22303,53.5799271,10.0125677,04405413
3948984301,Roman,,,53.5804597,10.0121565,04405413
3949959358,Petit Café,Hegestraße 29,20249,53.5845021,9.98356,04402404
3952565549,Campus Suite,Eißendorfer Pferdeweg 52,21075,53.4594541,9.9501356,07710711
3954373870,Cafe May,Am Gojenboom 46,22111,53.5538786,10.0819309,01111128
3957268435,Trucys,Gertigstraße 41,22303,53.5826442,10.016773,04405412
3958612897,Bistro Winzerhood,Zimmerstraße 44,22085,53.5748484,10.0191927,04406414
3988883686,Good One Café,Sternstraße 25,20357,53.5584653,9.9669189,02202207
3991068898,Tokas,,,53.5515837,9.9368465,02201203
4003094100,LAP Coffee,Schulterblatt 12,20357,53.5599037,9.9638274,02202207
4007423404,Crispi,Friedensallee 267,22763,53.558908,9.9116191,02204212
4007423406,Wallys Cafe,,,53.5598762,9.9106027,02204212
4043915244,Casa Piri Piri,Eppendorfer Weg 85,20259,53.5729738,9.9598586,03301306
4046034829,Speisekammer,Weidenstieg 5a,20259,53.5719726,9.9596006,03301308
4046592953,Orogelato,,,53.5435774,9.9978343,01102103
4051686202,Lattemacchiato,,,53.5682431,9.9952629,03302312
4054678589,kropkå,Eppendorfer Weg 174,20253,53.5801862,9.9683306,03304315
4057799723,"Schmidtchen Café, Barmbek",Friedrichsberger Straße 66,22081,53.5765015,10.0490146,04408423
4061856712,Mohltied,,,53.5539156,9.9789596,01103106
4065568172,Cafe Fele,Bismarckstraße 128,20253,53.5787994,9.9740883,03304315
4103667606,Manufact Coffee Roasters,Sternstraße 68,20357,53.5597755,9.9671286,01104109
4112409689,Cafè Del Rheyna,Tangstedter Landstraße 32,22415,53.6478995,10.0157692,04413432
4114640489,Graupi Bistro&Café,Wohlwillstraße 54,20359,53.556151,9.9630025,01104111
4127958123,kraweel,Paul-Roosen-Straße 6,22767,53.5529223,9.9602008,01104110
4137247040,Café Beerental,Beerentalweg 46,21077,53.4490736,9.952894,07709710
4142414924,Sein,Hospitalstraße 107,22767,53.5560892,9.9470539,02201204
4144366169,Bar Lisboa,,,53.4529954,9.9875986,07701702
4144382804,Lokumhan,Seevepassage 2,21073,53.4573197,9.9850268,07701702
4144383866,Enjoy Cafe & Cocktails,Wilstorfer Straße 78,21073,53.4549651,9.9871651,07701702
4144383870,Public Cafe,Wilstorfer Straße 84,21073,53.4544615,9.9873311,07701702
4144993060,von Allwörden,Seeveplatz 1,21073,53.4574995,9.9873475,07701702
4144993073,,Seeveplatz 1,21073,53.4575844,9.9870341,07701702
4153696180,Portugal,Rentzelstraße 11,20146,53.566357,9.9803209,03302311
4155915065,Tea Motion,Hannoversche Straße 86,21079,53.4563531,9.9872816,07701702
4158117691,Starbucks,,,53.6312351,10.0063164,04412431
4166910151,Köster-Café,,,53.5904631,10.0570524,04410426
4168104808,Segafredo,Hannoversche Straße 86,21079,53.4565168,9.9871863,07701702
4179244645,,,,53.4902502,10.008976,01116136
4192504378,Ristoretto,Himmelstraße 45,22299,53.596472,9.9977453,04405409
4213486595,Barmeiers Café & Biergarten,Eppendorfer Landstraße 180,20251,53.5971064,9.9897417,04402405
4222174589,Cafe Canale,Poelchaukamp 7,,53.5814615,10.0103754,04405413
4222420939,Favorita,Eppendorfer Weg 215,20253,53.5816339,9.9707649,03304316
4228968838,Elbgold,Eppendorfer Baum 26,20249,53.5839174,9.9839517,04402404
4229616467,Clubhaus TC Fleestedt,,,53.4115702,9.9760799,0
4234152588,OXEN Café,Ochsenzoller Straße 103,22848,53.6818405,9.979882,0
4234626095,Grindel Backhus,,,53.58153,10.0205818,04408419
4239152642,Zuckerschnute,Grindelberg 75,20144,53.5766884,9.9777227,03303313
4246883734,Alte Deichkate,,,53.5032832,10.1383715,06610611
4246883735,Dos Hermanos,,,53.577109,10.0674053,05502505
4250896289,Café Auszeit,Horner Weg 68,20535,53.5556281,10.0633857,01108123
4252311195,Café Seepavillon,,,53.5623794,9.9819302,01104109
4260142726,Dudes Coffee & Cake,Flotowstraße 22,22083,53.5796526,10.0265372,04408419
4261654909,Bartels Breakfastclub,Alter Teichweg 7a,,53.5828603,10.0475036,04408423
4269441389,Dorfcafe,Uetersener Weg 4,22869,53.6035412,9.8167262,0
4286361091,Rooster,,,53.5825548,10.019122,04405412
4294779434,Cafe Sol Portugal,Washingtonallee 56,22111,53.5486974,10.0905528,01111128
4318839941,Michis Bistro und Cafe,Ekenknick 7,22523,53.6075374,9.902279,03308320
4341946067,Café Pause,,,53.6546084,10.1098024,05510518
4347960698,Eight Corners,Jütlandring 12,22419,53.6701424,10.0062202,04413432
4373498908,"Vibes Coffee, Drinks & More",Goldbekplatz 1,,53.5837389,10.0089445,04405413
4399732315,Café & au Lait,,,53.6210211,10.0326544,04411430
4415553560,espressolution,,,53.5609299,9.9601175,02202207
4417417292,Public Coffee Roasters,Lappenbergsallee 43,20257,53.5775506,9.9416122,03301304
4421175088,Pape 2 Kaffeehaus,,,53.580603,9.9731008,03304315
4421243423,Gray,,,53.5831718,9.97911,04401401
4422758357,Fein & Mein,,,53.5903644,10.0153098,04405410
4424769124,Café Ein & Alles,Ulmenstraße 2,22299,53.5929784,10.0034867,04405409
4425715154,Café Fabric,,,53.5960449,9.9974712,04405409
4425722108,Sweeties,,,53.703947,10.0080667,0
4435624077,Brühwerk,Ferdinandstraße 40a,,53.5536308,9.9988732,01101101
4449708007,Codos,Bahrenfelder Straße 137-139,22765,53.5534192,9.9289484,02204213
4484992671,Störtebeker Beer & Dine,Platz der Deutschen Einheit 3,20457,53.5413559,9.9835858,01102103
4493188048,Cafe am Michel,,,53.5485084,9.9779059,01103106
4532414672,Falknershop,,,53.4459599,9.8866676,0
4548352647,Four Seasons,,,53.5694242,10.0613052,05503510
4569994593,Kandie Shop,Wohlwillstraße 16,20359,53.5532851,9.9615497,01104111
4585643484,Café König,,,53.547497,9.9373839,02201202
4591405016,Blanco Coffee,Poelchaukamp 4,,53.5818205,10.0104868,04405413
4594768452,Café InTakt,Sachsenwaldau 8,21465,53.5435707,10.2983884,0
4621959875,Lakum Café & Frühstück,Lornsenstraße 119,22869,53.6087615,9.8395339,0
4683465596,St. Pauli Nixe,Antonistraße 4,20359,53.5470618,9.9575376,01104112
4692945379,Little Amsterdam,Klosterallee 69,20251,53.5812094,9.97956,04401401
4693152989,TIDE Treibholz & Feinkost,Rothestraße 53,22765,53.5511853,9.9271056,02204213
4699910294,Goldherz,Hartwicusstraße 20,22087,53.5662578,10.0245181,04406415
4722588763,Café Stellar,August-Bebel-Straße 196,21029,53.4805864,10.2410413,06602603
4730584781,Café Obsthof Puurten Quast,,,53.5131387,9.815312,07716717
4755355321,Holsten Bäckerei,Hein-Saß-Weg 30,21129,53.5380288,9.8643551,01120141
4767132321,Leglers - Modern Bistro,Hohenesch 55,22765,53.5543267,9.9314072,02204213
4791588522,betahaus Café,,,53.5624615,9.9597262,02202207
4836459499,Caglar Bäckerei,Vierländer Damm 9,,53.5344303,10.0413994,01114133
4842555233,Ackerperlen Offener Garten,In der Weide 56,21037,53.4924067,10.0555977,06613614
4853794456,Nachhaltigkeitspavillon OSAKA9,Osakaallee 9,20457,53.5424113,9.9992377,01102103
4860479875,Zeit Café,,,53.5497019,9.9985081,01101101
4866949330,La Maison,Marktstraße 36,20357,53.5582209,9.9707514,01104109
4866957108,Capos Coffee,Yokohamastraße 10,20457,53.5421598,10.0044685,01102104
4890717198,Eis Eis Baby,,,53.599524,9.9964179,04405408
4909426984,Melkhus,Grauener Weg 3,21629,53.4299727,9.7618566,0
4933567609,elbgold,Schauenburgerstraße 50,20095,53.5496054,9.9930555,01101102
4938248008,Cafe Zeitlos,Große Straße 40,,53.6737953,10.2391777,0
4987943721,Cafe Josephins,,,53.5619261,10.0369147,04407417
5026683808,Tarterie Jolie,,,53.5414124,9.9901017,01102103
5026766021,Café du Port,,,53.5526512,9.9630251,01104111
5045482739,Mutterland Café,Kirchenallee 19,,53.5547934,10.0075424,01105114
5046354930,Elisa – Konditorei und Café,Conventstraße 21,22089,53.562515,10.0388084,05501501
5055863326,KaffeeKontor,,,53.559845,9.9648186,02202207
5062572337,Markt Café Stadtbäckerei Glinde,Markt 10,21509,53.5415821,10.2125972,0
5071036525,Muräne Café Bar Events,Wohlwillstraße 34,20359,53.5538652,9.9621264,01104111
5075345921,Weidenkantine,Spritzenplatz 5,22765,53.5512166,9.9309482,02204214
5092109524,Café Neumann,Brillkamp 8,,53.6439719,10.0479199,05512520
5113281072,,,,53.4423127,9.8855333,0
5122201882,No-Ne-Bistro,,,53.5712553,10.0160517,04406415
5167753173,Eis Café San Marco,,,53.608066,9.9043762,03308320
5172794550,Café Winklers,Winklers Platz 2,22767,53.5549909,9.9567445,02201205
5172812146,Maria Café,Kleine Freiheit 68,22767,53.5524912,9.9572504,01104110
5179967439,DÄMER Kaffeerösterei,,,53.5623112,9.9619796,02202207
5181331277,café panda,,,53.5574059,9.9709395,01104109
5186803225,Horner City Bistro Cafe,,,53.5540787,10.0854779,01111129
5233268938,Katers Köök,Kleiner Schäferkamp 24,20357,53.567073,9.9686023,03301309
5241156122,Luca Bistro e Vino,Stellinger Weg 11,20255,53.5778827,9.9511085,03301303
5244858906,Café Lia,Billstedter Platz 30,22111,53.5409587,10.1053883,01112130
5252885388,Wundervoll,Rappstraße 16,20146,53.5697683,9.9823053,03302311
5252935439,Café David,Grindelhof 63,20146,53.5699666,9.9842766,03302311
5252951827,Salon Wechsel Dich,Grindelhof 62,20146,53.5704306,9.9850458,03302312
5262038971,Café am Fleet,Deichstraße 45,20459,53.545374,9.9872044,01101102
5282343412,Café Carlos,,,53.6030024,10.0238428,04405408
5312104844,Coffee & Cakes,Ditmar-Koel-Straße 8,20459,53.5462629,9.976371,01103105
5319099422,Café Näscherei,,,53.5670944,10.0192818,04406415
5338792895,Leontes,Fuhlsbüttler Straße 116,22305,53.58943,10.0457472,04410427
5338792897,Copenhagen Coffee Lab,Fuhlsbüttler Straße 132,22305,53.5905063,10.0451827,04410427
5341006403,The No. 28,Schulterblatt 115,20357,53.5644003,9.9593057,03301310
5343555361,Cafe Reinhardt,,,53.640597,10.0823292,05509517
5428634821,The Basement,Beim Grünen Jäger 3,,53.5568172,9.9628002,01104110
5437911211,Café O Fado,,,53.5698525,10.0176187,04406415
5454666854,Brechtmanns Bistro,Erikastraße 43,20251,53.5930986,9.9870965,04402403
5469127222,Bistro Belpasso,Wartenau 12a,22089,53.5649324,10.033896,04407417
5487682717,Möwenblick,Tarpenbekstraße 51,20251,53.5942916,9.9836792,04402403
5517822497,P3,,,53.5510839,9.9933543,01101102
5522224922,Hofcafé Eggers,Kirchwerder Mühlendamm 5,,53.4102526,10.2194179,06606607
5537959624,Elbdeli,Friesenweg 4,22763,53.5577371,9.9093232,02207219
5557860221,Relax Café,Wendenstraße 375,20537,53.5510729,10.0456882,01108126
5567588682,La Dersimo,Schiffbeker Weg 4,22111,53.5406204,10.1013391,01112130
5582688327,Mili´s Cafe,Neustädter Neuer Weg 20,20459,53.5448984,9.9780522,01103105
5600363421,KinEz,Ifflandstraße 69,22087,53.5631268,10.0214846,04407416
5617834076,Kaffeepause bei Maren,Diekmoorweg 12a,22419,53.6600484,10.0159451,04413432
5640685672,Cafe Lowinskys,Lehmweg 36,20251,53.5833822,9.9800972,04401401
5667881837,Weinwirtschaft Kleines Jacob,Elbchaussee 404,22609,53.5507003,9.8437886,02210222
5670388162,Le Parisien,Lange Reihe 71,20099,53.5579924,10.0118252,01105113
5677186252,Linda,,,53.5830685,10.0182924,04405412
5679455044,Schmidt & Schmidtchen,Linnering 1,22299,53.5971192,10.0087444,04405409
5703584721,Futur III,,,53.5586978,9.9720809,01104109
5706272199,TRDLO Factory,Am Sandtorpark 14,20457,53.541655,9.9960746,01102103
5713580423,mimosas Brunch Club,,,53.5849325,9.9804723,04401401
5730442617,Café Einfach Rosa,Am Blöcken 4,,53.4468096,9.897287,0
5775366253,WonderWaffel,Lilienstraße 15,20095,53.5522492,10.001646,01101101
5795791520,Schmidt und Schmidtchen,,,53.5539308,9.8656189,02207219
5795793853,Museumscafé,Baron-Voght-Straße 50,22609,53.5528085,9.8657138,02207219
5841589725,Park Café Planten un Blomen,,,53.5531762,9.9746848,01103106
5851135336,Paradeis Café,,,53.647386,10.0117854,04413432
5858982221,Flowers Whisper,Mönckebergstraße 7,,53.551203,10.0031946,01101101
5873582251,Café Hosch,Poelchaukamp 19,22301,53.5810904,10.0085911,04405413
5888267885,Braakermühle,,,53.5745109,10.015271,04406414
5888498470,Cafe am Sand,,,53.4611467,9.9800684,07701702
5891806576,Wöbcke,,,53.464902,9.794005,0
5899750861,elbgold,Mühlenkamp 59,22303,53.5830582,10.0099007,04405413
5923960437,bistro fresh,,,53.5566249,10.025095,01105113
5936212833,Hanging Out Café,Bornstraße 18,20146,53.5681526,9.9815002,03302311
5939659453,Studio Gusto,Methfesselstraße 62,,53.5797402,9.9463871,03301303
5976254878,flamingo flower,Woldsenweg 1,20249,53.588144,9.9863719,04402404
6024281452,Café Mama Silvia,Winterhuder Weg 65,22085,53.5772815,10.0185072,04406414
6043548524,Frau Kowolik,Hanssensweg 3,,53.5869263,10.0200472,04405411
6090360962,Hamburg-Kaffeerösterei,Stormarnplatz 8,22393,53.6510446,10.0951799,05511519
6107008385,Playground Coffee St.Pauli,Detlev-Bremer-Straße 21,20359,53.5516292,9.9653787,01104111
6150429385,was wir wirklich LIEBEN - Deli,Hegestraße 28,20251,53.5829774,9.9817277,04401401
6172487917,Bistro,,,53.5662639,9.8219609,02212225
6271427821,Cafe May,Stormarner Straße 34,22049,53.5777222,10.0627107,05502505
6284629308,Eaton Place,Bahrenfelder Straße 80-82,22765,53.5506922,9.9302897,02204214
6304690454,Instinct Coffee,Rentzelstraße 48,20146,53.5652046,9.9777151,03302311
6328702787,AMOAHS,Poggenmühle 3,20457,53.5462089,10.0018003,01102103
6374378143,Café Rennkoppel,,,53.4649811,9.9585032,07710711
6388122997,Bake & Coffee,,,53.5642931,9.8260961,02211223
6389219687,Avenue 95,,,53.5821611,9.9701506,03304316
6418928324,Mühlencafé,Schönenfelder Straße 99,21109,53.4997779,10.0231585,01116136
6420600708,Ria de Aveiro,,,53.461006,9.9809525,07701702
6461083068,Café Refugio,,,53.4578752,9.9808759,07701702
6474383737,Seemannsgarn,,,53.4904754,10.20923,06602602
6482258085,Juicery by em,Neuer Pferdemarkt 12,20359,53.5593078,9.9644503,02202207
6493765275,Café Pharaonen,An der Verbindungsbahn 10,20146,53.5642834,9.9816878,03302311
6501251054,Café Pronto,Koppelstraße 49b,22529,53.593279,9.9448339,03305317
6508962809,Filia Café & Feinkost,Alte Holstenstraße 66,21029,53.4894253,10.2096255,06602602
6513077975,Café Schlick,Kaltehofe-Hinterdeich 9,20539,53.52755,10.0557135,01114132
6515215910,Café Alsterberg,Maienweg 145,22297,53.6171472,10.013538,04404407
6548502284,Mrs. Waffel,,,53.4586219,9.9842279,07701702
6551499152,Watergate,,,53.5454291,9.9652615,01104112
6553126885,Denkbar,,,53.5721232,9.9516979,03301306
6601169662,Schrødingers,,,53.5644807,9.9753079,03302311
6630974391,Cafe Schmidtchen,,22765,53.5491964,9.9339719,02204214
6638332942,Café Lounge Hamburg,,,53.5256273,10.0206493,01115134
6640328607,1407 Breakfast Club,Osterstraße 50,20259,53.5751657,9.9573596,03301305
6640459314,Copenhagen Coffee Lab,Osterstraße 80,,53.5757189,9.9545774,03301305
6640459316,Trucys,,,53.5757433,9.954458,03301305
6641611034,THIRDROOM,Emilienstraße 22-24,,53.5756187,9.955232,03301305
6658822248,Mikkels,Kleine Rainstraße 10,22765,53.5537327,9.9294476,02204213
6670057235,Hofladencafé Gut Wulfsdorf,Bornkampsweg 39,22926,53.6595985,10.1902808,0
6712189984,Das Café,Schreyerring 27,22309,53.611995,10.0585057,05508516
6747161708,Robben Café,Bornkampsweg 31l,22926,53.6588388,10.1979813,0
6814055709,City-Back-Shop,,,53.6028806,10.0241948,04405408
6870842061,Bistré,,,53.5537418,9.9824456,01103107
6939761366,Möwe,,,53.5558941,9.9047819,02207219
6952289096,Café & Bar Amarillo,,,53.5705483,10.0165997,04406415
6960492761,Café Dialog,Straßburger Platz 9,22049,53.5817848,10.0621288,04409424
6983536390,Café Flop,Wentorfer Straße 26,,53.4871698,10.2191902,06602603
7006629637,Café Nova,,,53.5253601,10.0175712,01115134
7009861485,eat. drink. love.,,,53.5848887,9.9803162,04401401
7033946193,Genuss Speicher,,,53.5447494,9.9966922,01102103
7080714209,Henk & Henri,,,53.5847541,9.9812749,04401401
7089578179,Campus Suite,Langenhorner Chaussee 560,22419,53.6732122,10.0076089,04413432
7101447049,Café NEON,Fuhlsbüttler Straße 163,22305,53.5925048,10.043976,04410427
7106754225,Eclair au Café,Kleine Rainstraße 1,22765,53.5538568,9.9291351,02204213
7121921386,Presscafé,Süderstraße 112a,20537,53.5451271,10.0329772,01106117
7126100825,Café Lorenz,Margaretenstraße 76,20357,53.5662236,9.9649784,03301310
7145705485,Kaffee Aramo Roasters,Hoheluftchaussee 112,20253,53.5847545,9.9695297,03304316
7191907401,Café E.N.A,,,53.5519557,10.0534313,01108124
7195649433,Espresso House,Krüsistraße 7,22305,53.5878226,10.0448923,04410427
7205657651,Copenhagen Coffee Lab,Kleiner Schäferkamp 58,20357,53.5659096,9.9662114,03301309
7235493120,Dallmeyers Backhus,,,53.513716,10.2114491,06601601
7237484519,Mc Queen,Grandweg 66,22529,53.5925974,9.9598853,03305317
7332940921,Caféwerk,,,53.4710359,9.9325579,07710711
7401274697,Los Amigos,Tarpenbekstraße 55,20251,53.594705,9.9836596,04402403
7434870526,Eiscafe Venezia,Möllner Landstraße 28,22113,53.5418999,10.165923,0
7502661477,Friedrich - Café-Bistro-Bar,Alsterdorfer Straße 283,22297,53.608471,10.0089647,04404407
7510227421,Cafè & Crème,Geschwister-Scholl-Straße 120,20251,53.5945011,9.9785343,04402403
7530815402,Coffee Fellows,,,53.6942672,10.3240934,0
7562168152,Noor Coffee,,,53.5830814,10.0145567,04405412
7599483931,Copenhagen Coffee Lab,,,53.5566919,9.9672957,01104111
7599714656,Honeybee Breakfast,Grindelallee 18,20146,53.5648304,9.9839826,03302312
7611580201,CAFE BY DOKUWA,Marktstraße 21,20357,53.5583608,9.9728572,01104109
7649438797,Cafè Priča,Cuxhavener Straße 482,21149,53.4709078,9.8237032,07714715
7680108985,Marshall Street Café,Schopenstehl 30,20095,53.548652,9.9981124,01101101
7711434956,,,,53.6259205,10.1378349,05506514
7804247047,blanco,,,53.5584628,10.0124399,01105113
7810939908,Joy&Tea,Mönckebergstraße 7,,53.5512113,10.0032445,01101101
7880920280,vis à vis snackbar,,,53.5590396,10.0126795,01105113
7899932320,homely,,,53.5572867,10.010823,01105114
8016363792,Toni,,,53.5429903,9.9982614,01102103
8120357764,foodlab café,,,53.5401527,10.0028007,01102104
8121848715,bonjour,,,53.5123121,10.0891064,01113131
8190647514,Café Lagos,Louise-Schroeder-Straße 26,22767,53.5508897,9.9490753,02201201
8245207240,Nan Café,,,53.5873576,10.0329539,04405411
8333699690,Matthies Gartencenter Cafe,,,53.4003135,9.975854,0
8361370753,alstersnack,Alsterdorfer Markt 10,,53.6126328,10.0244553,04404407
8365798311,Camping Coffee,Große Bleichen 31,20354,53.5521059,9.9885873,01103108
8414792654,Kapitel Drei,Hospitalstraße 69,22767,53.5544981,9.9469226,02201204
8418479194,Café Zwei Herz,Loki-Schmidt-Platz 7,22297,53.6044005,10.0300986,04405408
8433020917,Café Irma,,,53.5467952,10.0171644,01106115
8487338102,Dieters Cafe,Susanne-von-Paczensky-Straße 5,22765,53.5617448,9.9398043,02203210
8525030710,La Veneziana,,20146,53.5679416,9.9808149,03302311
8602022050,RöstereiCafé Koffietied,,,53.4385859,9.9048611,0
8663158815,Cantina 33,Oelkersallee 33,22769,53.5625282,9.9561087,02203208
8664313724,Coffee Crib,Schulterblatt 115,20357,53.5646248,9.9592386,03301310
8690484157,Park Café am Lutherpark,Holstenkamp 119,,53.5725378,9.9075262,02205216
8754150352,Small Coffee Lounge,Gärtnerstraße 10,20253,53.5842414,9.9690995,03304316
8780343407,Starbucks,,,53.7167664,9.9396765,0
8809434850,Fräulein von Elbe,Langenhorner Markt 12,22415,53.6500254,10.0131628,04413432
8826256756,Cafe King,Kieler Straße 69,25451,53.7293136,9.8973446,0
8827134637,Te Cadi,,,53.4586314,9.983789,07701702
8829216802,Eisfabrik,Bahrenfelder Straße 233,22765,53.5568415,9.9278935,02204211
8918435113,Lieberbrook,Schenefelder Landstraße 95,22589,53.5685644,9.8254332,02212225
8939935748,Gewächshaus-Hamburg,Holstenkamp 80,22525,53.5711195,9.9173979,02205215
8941397668,Eis Langner,Pflugacker 7,22523,53.6135135,9.8997705,03308320
8948085617,Caffè 57 ½,Eppendorfer Weg 57,20259,53.5713525,9.9582774,03301306
8952525143,Bistro & Cafe Seeterrassen,Stormarnstraße 55,22844,53.7128826,10.0200086,0
8976060497,Gözleme Café,,,53.515984,9.993613,01116137
8980800962,Qubism,,,53.5586568,9.9134562,02204212
9025843784,KÆF Rösterei & Café,Ochsenzoller Straße 120,22848,53.6817032,9.9828355,0
9029795693,Café GOLD,Lübecker Straße 6,22926,53.6808094,10.2431024,0
9063798204,Café Paari,Kleekamp 4,,53.6322812,10.0261661,04412431
9064021646,Frau Meis Eis · Café,Rothestraße 37,22765,53.5489561,9.9275319,02204214
9067212217,Café Eims,Hellkamp 52,,53.5795955,9.9491845,03301302
9076188084,Croque & Crêpes Bargteheide,Alte Landstraße 38,22941,53.7305533,10.2569392,0
9082364531,Isabella,,,53.5508139,9.9912211,01101102
9084506818,Mersin Café,,21147,53.4742588,9.8762231,07713714
9155278190,Café ZessP,,,53.4629968,9.9705177,07701701
9180068417,JusTea,,,53.5496673,10.0016001,01101101
9197170798,Eichen Café,Segeberger Chaussee 48,22850,53.6825425,10.0069427,0
9221058518,Le Dersimo,,,53.5493123,10.077296,01111128
9257975493,GegenVind,Holstenstraße 175,,53.5600917,9.9487937,02201206
9290782643,duCafé,,,53.6044536,9.8963203,03308320
9330210303,Dolce Vita,Dammtordamm 4,20354,53.5598456,9.9889058,01103108
9387843214,kiosque.,Beim Grünen Jäger 14,20359,53.5579136,9.9627825,01104110
9389394065,Refugium,Am Inselpark 20,21109,53.4943663,10.0030748,01116137
9403372161,MÄDCHEN*CAFÉ,,,53.5718719,9.9560935,03301306
9465210883,feels like,Hütten 54,20355,53.551318,9.9758885,01103106
9560634410,,Sonnenweg 17,22045,53.588651,10.1237551,05505513
9603525294,Gundermann,,,53.5708546,9.9781337,03302311
9631244752,ujote espresso,Bismarckstraße 88,20253,53.5768316,9.9697014,03304315
9633823596,Campus Suite,Valentinskamp 88-90,20355,53.5558559,9.9860236,01103108
9687018755,Cozymir,Bramfelder Dorfplatz 10,22179,53.6131538,10.0773208,05507515
9689682399,Ændré,Lehmweg 31a,20251,53.582421,9.979664,04401401
9705471826,Christines Café,Vorderdeich 275,21037,53.4760025,10.134926,06608609
9706610607,Café Bom Dia,,,53.4595567,9.9814943,07701702
9771303817,Copenhagen Coffee Lab,,,53.5547938,9.9284359,02204213
9779608370,Brücken Bäckerei,Estebrügger Straße 113,21635,53.5106993,9.7302371,0
9783951899,Golden Bean,Hellkamp 18,,53.5772214,9.9474164,03301303
9826188719,Himmlische Versuchung,Steenwisch 41,22527,53.5821957,9.940885,03309321
9846791718,Rosela,Sieker Landstraße 116,,53.6540977,10.2610809,0
9878437717,Café Wonne und Segen,Molkenbuhrstraße 8,22525,53.5908272,9.9251275,03309321
9918847328,MalinaStories Café,Hellbrookstraße 61,22305,53.5916133,10.0457006,04410427
9931402617,,Alexanderstraße 18,20099,53.5557996,10.0203474,01105113
9947271621,Liness,Frohmestraße 11,22457,53.6356152,9.9190115,03307319
9951632985,Café Nordwind,Friedrich-Ebert-Damm 79,,53.5864608,10.0856583,05502509
9954236317,Nonna Neta,,20251,53.5932223,9.9870968,04402403
9959602996,Anleger Hamburg,,22297,53.6009899,9.9910844,04404407
9959789143,Campus Suite,,,53.6746932,10.0294482,04413432
9980667217,Holsten Bäckerei,Shanghaiallee 15,20457,53.5424246,10.003165,01102104
9980687917,Kaispeicher B Cafe-Bar,,,53.5432914,10.0001043,01102104
9981708842,Kiosk,,,53.6018336,10.0701184,05507515
9988464254,Verlan Cafe,,,53.5583789,9.9703059,01104109
10075640520,The Vintage,Am Rosenplatz 8,21465,53.5122431,10.2519452,0
10086509589,Café Schneckenhaus,,,53.5585905,9.9571723,02201206
10127734294,Brotstube by Schanzenbäckerei,Neue Große Bergstraße 250,22767,53.5518097,9.9400032,02201203
10128031465,Café ROOTS,Eppendorfer Weg 193,,53.5806292,9.9685597,03304316
10152878101,Café am Glashütter Markt,Mittelstraße 62,22851,53.6876441,10.0397755,0
10173349106,Merdane Café Patisserie,,,53.5514321,9.9377431,02201203
10175979944,illy,,,53.5717732,10.0287346,04408420
10236750827,Kaffee Fleck,,,53.5527036,10.0034998,01101101
10259157000,LUA,Langenfelder Straße 75,,53.5655873,9.9527665,02203208
10268255288,Schmidtchen Bergedorf,Kupferhof 1,21029,53.4884793,10.2105368,06602602
10290900235,Eisige Liebe,,,53.4870214,10.2141235,06602602
10572561539,Black Hat Coffee,Eppendorfer Weg 66,,53.5730636,9.9605939,03301308
10575197082,Schmidtchen KörberHaus,Holzhude 1,21029,53.4872553,10.2085211,06602602
10749295722,Hygge the farm,Cordsstraße 5-9,22609,53.5579483,9.8485877,02210222
10778099091,Champions Coffee,,,53.5490621,9.9601083,01104112
10778432421,Jebena,,,53.5542444,10.0181445,01105113
10780391059,Info-Café,,,53.620062,9.9488689,03306318
10781134950,Café Svenssøn,Rathausstraße 23,22941,53.7300919,10.2672943,0
10784368347,The Gardens Table,Spaldingstraße 41,20097,53.548278,10.0124908,01106115
10786713845,Die Minibar,Am Veringhof 21,,53.5141806,9.9852519,01116137
10786713847,Café Elbfee,Veringstraße 47,,53.5139036,9.9869306,01116137
10786713850,Aroma,Veringstraße 69,,53.5123496,9.9867171,01116137
10801765828,SUL Portugal Café & Bistro,,,53.5078305,10.0005676,01116137
10823791822,Café Termoli,Kaskadenpark 2,22045,53.5808268,10.1324565,05504512
10875226405,Deathpresso,Beim Grünen Jäger 27,20359,53.5588799,9.9636133,02202207
10886807151,Sandcafé,Max-Brauer-Allee 84,,53.5550909,9.9422713,02201204
10891238470,Beamstop,,,53.5890406,9.8306689,0
10896060684,Das Eiswerk Florenz,Heegbarg 31,22391,53.6546617,10.0909224,05511519
10911715893,Donutman,,,53.5443507,9.9770379,01103105
10914496650,Mirel,Lehmweg 35,20251,53.5832201,9.9798869,04401401
10916444904,Freda,,,53.5645388,10.0347042,05501501
10920151523,MYNT,Lutterothstraße 8,20255,53.5791673,9.9565006,03301305
10946039384,Schmidts Bagel,Hudtwalckerstraße 31,22299,53.5945279,9.9976722,04405409
10946039385,Schmidts Bagel,Alter Steinweg 1,20459,53.550109,9.9839258,01103107
10948791474,Sicily,,,53.5585367,9.8114019,02211223
10949367988,CODOS,Mühlenkamp 7,22303,53.5802861,10.012287,04405413
10961541568,Café Molina,Kirchwerder Mühlendamm 75a,21037,53.4081506,10.2082007,06606607
10968644740,Kult Eis,Lienaustraße 3,22159,53.6271349,10.1224312,05506514
10979325148,alpha Coffee Bar & More,,,53.5523145,10.0412121,01108124
10992597598,Café Steeedt,,,53.6072669,9.9031438,03308320
11016459009,Café Gourmet,Elligersweg 5,22307,53.6055331,10.0403103,04410429
11016476066,The Roastery,,,53.5719737,9.892873,02205217
11022830900,Café Noem,Lindenallee 48,20259,53.5676849,9.9596834,03301310
11030241504,Istan Blue,Eißendorfer Straße 173,21073,53.4563256,9.9580683,07709710
11034000941,Good one,Eimsbütteler Chaussee 71,,53.5685662,9.9553009,03301307
11034062005,Boot e.V.,Osterbrookplatz 18,20537,53.5462678,10.0590222,01108127
11034086604,Sunsirius Bistro & Markt,Bahrenfelder Chaussee 70A,22761,53.5664052,9.909928,02205216
11079128456,engelke,,,53.5831322,9.9857124,03303314
11079139626,LAP Coffee,Eppendorfer Baum 9,,53.5824053,9.9864963,03303314
11081868396,Strandkind,Elbchaussee 585,22587,53.5585047,9.8120555,02211223
11091608964,Okzident,,,53.5685399,9.9895593,03302312
11096826007,Mozart,Katharinenstraße 12,20457,53.545823,9.9911823,01101102
11107709543,Steffs Wild Roots,Hofweg 13,22085,53.5696293,10.0171724,04406415
11110314245,Little Tiana,Brandstwiete 36,20457,53.5470316,9.996743,01101102
11151315602,Cinnamood,,20095,53.5514802,10.0021574,01101101
11162679623,Kaffeerösterei Deathpresso,Beim Grünen Jäger 24,20359,53.5588529,9.9635331,02202207
11164067874,Cafe Reinhardt - Cafe,Poppenbüttler Hauptstraße 37,22399,53.6650134,10.0896603,05511519
11164438990,Kaffee kernig,Dorotheenstraße 36,22301,53.5813345,10.0095869,04405413
11179074453,Boba Café & Bubble Tea,,,53.5939898,9.9964953,04405409
11179074554,Marie,,,53.5933495,9.9871031,04402403
11219409636,Campus Cafe,,,53.5676616,9.954896,03301307
11231060159,Café Konditorei Melodie,,,53.6116429,10.0746118,05507515
11267273069,Cafémilonga im el abrazo,Beerenweg 1d,22761,53.5649936,9.9215359,02205215
11279628064,Comebuy,Ottenser Hauptstraße 10b,22765,53.5523161,9.932075,02204213
11310189382,CODOS,Große Bergstraße 247,22767,53.5521938,9.9398748,02201204
11343177495,Trader,Bartelsstraße 37,20357,53.5621076,9.9643522,02202207
11358074584,blanco coffee,Bartelsstraße 2,20357,53.56168,9.9652621,02202207
11360226869,Rosalie’s,,,53.653092,10.0904177,05511519
11360382038,Copacabana Coffee,Emilienstraße 19,,53.5750385,9.9552206,03301306
11369447129,,Große Bergstraße 142,,53.5510683,9.9474723,02201203
11383243669,Café Grindel,Grindelallee 117,,53.5691308,9.9791869,03302311
11383246269,Café Carl,Von-Melle-Park 3,20146,53.5651088,9.9854385,03302312
11403900608,Çaglar,,,53.4597646,9.9823691,07701702
11438135740,The Coffee Shop,Poststraße 6,,53.5528651,9.9916631,01103108
11443818059,Ayasofya Café,,,53.5055038,9.9851822,01116137
11472969820,Klönsnack,,,53.5474551,10.0520761,01108127
11541236251,Heavens Gaarden,Eppendorfer Landstraße 96,20249,53.591629,9.9883336,04402404
11542557630,Ottos Eiscafé,Rütersbarg 2,22529,53.6013731,9.9554435,03305317
11583861293,belum.coffeebar,Geschwister-Scholl-Straße 32,20251,53.5945255,9.9845481,04402403
11616089502,Café Paari,Stübeheide 153,,53.6333111,10.0534575,04411430
11727085217,Bulgari,,,53.4544144,9.9873681,07701702
11730064550,Cafe Infinity,,,53.4562919,9.9862158,07701702
11739416205,Comptons,,,53.5546313,9.9810766,01103107
11750861792,Der Geheime Garten - Blumencafé,Grundstraße 16,20257,53.5769874,9.9429859,03301303
11799599697,Bean There,Forsmannstraße 27,,53.5846935,10.013285,04405412
11811064810,Teikei,Marktstraße 25,,53.5582871,9.9718808,01104109
11838409683,Kleines Bistro,,,53.5499256,9.8981972,02207219
11838823658,Lovaena Café,,,53.5127209,9.9866978,01116137
11872095184,Café yade,,,53.505944,9.9874881,01116137
11873915875,La Bête Noire,Bellealliancestraße 35,,53.5680317,9.959799,03301307
11881392748,Mutterland x Montblanc Haus,Hellgrundweg 98,22525,53.5934865,9.899027,02208220
11881514926,Ottos Eiscafé,Rudolf-Klug-Weg 7-9,22455,53.6405044,9.9473087,03306318
11947908822,Star Cafe,Ulzburger Straße 274,22846,53.7100611,9.9995877,0
11954671416,Café am Park,,,53.6190082,9.9017649,03308320
11955040982,OMEN Café,Mönckebergstraße 21,20095,53.5505369,9.9975543,01101101
12039957248,Bake & Soda,,,53.5399211,10.0101352,01102104
12054072831,Cafe und Hofladen Hof Bullerbü,Fritz-Flinte-Ring 41a,22309,53.6150767,10.0527558,05508516
12057667492,Espresso Bar,,,53.5257423,10.0199417,01115134
12057667494,AMARS,,,53.5240631,10.0167231,01115134
12057676265,Elbinsel Café & Bistro,,,53.52347,10.0152518,01115134
12065383280,Hein Hoyer Dreams,,,53.5501936,9.9620833,01104111
12080619597,Brittas Dielen-Café,Hauptstraße 1,22946,53.5933967,10.2669221,0
12082805325,Café Blomen,,,53.5596898,9.9870128,01103108
12084018972,Oma in Braak,,,53.6159605,10.2404313,0
12104415101,11:11,,,53.5763679,10.0239629,04408418
12118686031,Tonis Elbcafé,Rissener Ufer 23,22559,53.5648488,9.7564967,02214227
12123977445,Café Hübris,,,53.5673545,9.9854924,03302312
12143929901,Bistro Ahoi!,,,53.5294869,9.9607142,01118139
12149955504,Moin Karo - Café,Marktstraße 119,,53.5584527,9.9717558,01104109
12155577059,Butterbrot,,,53.5453837,9.9825758,01103105
12163125579,Kowalskis,,,53.5575128,9.970684,01104109
12188249201,Isioka,Poßmoorweg 9,22301,53.5857724,10.0081804,04405410
12188947414,CONSTANT GRIND,,,53.5561397,9.9700252,01104111
12190036127,Roederers Café,,,53.5610216,9.8110136,02211223
12204976574,Breakfastdream,Bundesstraße 42,20146,53.5663936,9.9788826,03302311
12207807539,Lille Kinder Buchhandel und Cafë,Lille Torv 3,22765,53.559305,9.9375907,02203210
12215063865,DOON,,,53.5148376,10.0009374,01116137
12221804046,Herr Max,,,53.5834317,9.9823665,04401401
12221804047,Gotcha Matcha,Hegestraße 48,,53.5835231,9.982527,04401401
12246387038,Dailycioso,Eppendorfer Weg 207,,53.5813264,9.9700156,03304316
12248397601,CULDT - Coffee Unlimited,,22299,53.594427,9.9968076,04405409
12292235069,Espresso House,,,53.5406678,9.9994435,01102103
12303966943,Café LEEV,,,53.582161,9.9730231,04401401
12306869211,ITALBROT,,,53.5492663,9.9448552,02201203
12327466399,TEA MOTION,,,53.4883275,10.2085208,06602602
12339499601,"Bäckerei Braaker Mühle, Mühlenladen & Café",Braaker Mühle 8,22145,53.6012523,10.2449115,0
12393892531,4 Walls,Deichstraße 47,,53.5453195,9.9871068,01101102
12433854502,La Lumière,Geschwister-Scholl-Straße 137,20251,53.5942778,9.9772921,04402403
12438844575,Madeira,,,53.501735,10.0099942,01116136
12438872791,Milchfee,,,53.5016197,10.0108224,01116136
12458826593,Café du Chocolatier,Alsterarkaden 12,20354,53.5519442,9.9923229,01103108
12476052932,Copenhagen Coffee Lab,Poßmoorweg 6,22301,53.5855202,10.0075288,04405410
12506310998,Bartesse,,,53.621432,9.9921864,04412431
12509819384,Mr. Coffee,Koreastraße 7,,53.5438032,10.0021685,01102104
12512520707,Atelier du par ici,Rothenbaumchaussee 189,20149,53.5778667,9.9884595,03303314
12570647050,Meet me in the morning,,,53.563735,9.9285208,02205215
12623984603,Die Ise - Die Chocolaterie,Waldweg 9,22393,53.6538111,10.1147591,05510518
12630796122,Café Yes,Schwentnerring 8b,,53.4949854,10.0097663,01116136
12633256913,M.i.P.,Schulterblatt 98,20357,53.563008,9.9611374,02202207
12636218001,Azatela Café & Backshop,Schlüterstraße 1,,53.5641016,9.9873905,03302312
12645834757,Caravela,Gertigstraße 37,22303,53.5826127,10.0166434,04405412
12673091859,MiMis Crêpes 2,Große Bleichen 35,20354,53.5518391,9.9864907,01103108
12679864516,New Yorck Bagel Bar,Kleiner Burstah 1,20457,53.5478596,9.9888959,01101102
12692497695,Maras Eis & Bäckerei,Eißendorfer Straße 181,21073,53.4560914,9.9568737,07709710
12692817869,Kjeks,Heidberg 47,,53.5883703,10.0119683,04405410
12696825895,Copenhagen Coffee Lab - Eppendorf,Eppendorfer Landstraße 4,20249,53.5851627,9.9822167,04402404
12726459834,Café Rosa,,,53.5542299,9.9267924,02204213
12731626172,Starbucks,,,53.5402206,9.9985995,01102103
12785455202,Salotto Café,Goetheallee 25,,53.5563606,9.9377726,02203210
12805710707,Torhauskantine,Wiesendamm 3,22305,53.5857756,10.0454187,04410427
12844533126,Teasphere,,,53.5392681,9.9992476,01102103
12872004890,Schanzenbäckerei,Schulterblatt 15,20357,53.5597151,9.9635507,02202207
12877124323,Nipote,,,53.5844736,9.9842908,04402404
12889701836,Renaissance,,,53.528105,10.1483712,01112130
12894467783,Sueño,,,53.5623478,9.9902035,03302312
12901965816,Nordi‘s Stehcafé,Hauptstraße 19,22941,53.7133163,10.321933,0
12947406021,Café-Kumpir & Waffeln,Eppendorfer Weg 160,,53.5805979,9.9693388,03304315
12961599409,Dorfschätzchen,,,53.5820101,9.7559891,02214227
12962100501,Mr. Coffee,Shanghaiallee 3c,,53.5438393,10.0021108,01102104
12967689066,GiutsDeli,,,53.7179656,10.1117174,0
12982741955,Little Petra,,,53.5705831,9.9973159,03302312
12999745866,Cosmic Coffee,Ophagen 1,20257,53.5695334,9.9488752,02203209
13003910990,Baggel Buddy,,,53.5976579,9.9775617,04402405
13017802263,Nobi Cafe,,,53.5153494,9.9871314,01116137
13021461344,Marshall Street Coffee,,,53.5669709,9.9566029,03301310
13030932970,Cat Café Hamburg,Wandsbeker Chaussee 27,22089,53.5656321,10.0370379,05501501
13032218901,LAvenir Eiscafé & Lounge,Lübecker Straße 101,,53.56214,10.0320806,04407417
13042778182,Moin Bohne,Lise-Meitner-Allee 15,25436,53.7153091,9.7625146,0
13073905403,Ufergold,,,53.5396839,10.010785,01102104
13084120034,Pamola,,,53.5450619,9.9826441,01103105
13085089101,Café Klein,Mönckebergstraße 7,,53.5511469,10.0028545,01101101
13085289501,Manos Vegan Cake,Hohenesch 43,22765,53.5544787,9.9307352,02204213
13089398925,Café BiBimBox,Hellkamp 70,20255,53.5806894,9.9495124,03301302
13110200857,Cafeto Rösterei und Café,Wiesendamm 24,22305,53.5876863,10.0380985,04410427
13112926736,Mitte,Holzdamm 61,20099,53.5550554,10.0064963,01105114
13124814795,Burgcafé,,,53.6580965,10.0877943,05511519
13165812383,Coffee Affair,,,53.5527514,9.9804631,01103107
13167008253,Brühwerk,,,53.5558404,9.9865678,01103108
13208295654,Golden Bean,Gertigstraße 12,,53.581416,10.0134822,04405412
13252466525,Black Delight,,,53.5550443,9.9268822,02204213
13260065717,Juicy Project,,,53.5582133,9.9679814,01104109
13263772491,Nooni Café,Große Brunnenstraße 55,,53.5518003,9.9254342,02204213
13272071688,Hochseil,,,53.7156265,10.0158743,0
13280680102,Café Landhaus Walter,Otto-Wels-Straße 2,,53.5940289,10.0151787,04405409
13290829238,Winat Fashion Café,,,53.7314628,9.8991202,0
13291159034,POP UP ART GALERIE,,,53.5615266,9.9820988,01104109
13291510513,Poldi,Warburgstraße 7,,53.5595914,9.9940139,03302312
13326342795,Frauen Café Hanimeli,,,53.5246129,10.0187656,01115134
13359647101,Hayals Café,Wandsbeker Marktstraße 164-166,,53.5736706,10.0725761,05502507
13361405501,mee-sa,Peterskampweg 69,,53.5623924,10.0511878,01108122
13363787301,Café Malina,,,53.4118495,9.9856045,0
13364031604,Mrs. Waffel,,,53.4585524,9.9840484,07701702
13384137192,New York Bagel Bar,,,53.5845364,9.9824499,04402404
