id,lat,lon,name,street,zip_code,city
21627414,53.5207517,10.2770653,Westsee Palast,,,
25745452,53.6080733,10.1164404,Schweinske,August-Krogmann-Straße 25,22159,Hamburg
29262146,53.3989587,10.1852546,Zollenspieker Fährhaus,Zollenspieker-Hauptdeich 141,21037,Hamburg
55104007,53.6067274,9.9030378,Block House,,,
69150516,53.6476044,10.1642128,Block House,Groten Hoff 12,22359,Hamburg
103602223,53.7058481,10.2517314,Glantz & Gloria,Hamburger Straße 2b,22941,Delingsdorf
170780405,53.5805153,9.9055684,Das Bauernhaus,Nansenstraße 82,,
244134270,53.463016,9.9815331,Oktober Harburg,Schloßmühlendamm 23,21073,Hamburg
245564414,53.4622481,9.9819453,Hünkar,,,
252537944,53.4861811,10.2134134,Casa Vecchia,,,
253398267,53.5394918,10.1040249,Schweinske,Möllner Landstraße 2,22111,Hamburg
253659932,53.5817607,10.0633549,Taverna Metaxa,Straßburger Straße 23,22049,Hamburg
254446740,53.6696493,10.1429076,La Rucola,Volksdorfer Damm 188,22359,Hamburg
256044321,53.5505024,9.9809707,Paulaners,Großneumarkt 1,20459,Hamburg
258521580,53.5636292,10.0333115,Spicy - Hotpot & Hunan cuisine 辣师傅,Lübecker Straße 133,22087,Hamburg
258521618,53.5610317,10.0312569,Schweinske Hohenfelde,Lübecker Straße 84,22087,Hamburg
258527808,53.5715814,10.0699098,BLOCK HOUSE,Schloßstraße 48,,
258962008,53.5857798,10.0449119,LüttLiv,Maurienstraße 19,22305,Hamburg
261041923,53.5850016,10.0450945,T.R.U.D.E.,Maurienstraße 13,22305,Hamburg
263906880,53.6952819,9.8509227,Zur Wulfsmühle,Mühlenstraße 95,25499,Tangstedt
266573365,53.5700194,10.0768267,Coopers Wirtshaus Wandsbek,,,
266671332,53.5749593,9.8472885,Olympiade,,,
267622930,53.549477,9.9274846,Ethio,Rothestraße 38,22765,Hamburg
267623160,53.5475906,9.9292942,Trattoria Toscana,Holländische Reihe 25,22765,Hamburg
267624203,53.5512302,9.9307274,marta,Spritzenplatz 4,22765,Hamburg
267626221,53.5609384,9.963111,Olympisches Feuer,Schulterblatt 36,20357,Hamburg
270901000,53.6603171,9.7385467,,,,
271393344,53.5351344,10.0415824,Blaue Adria,Marckmannstraße 74,20539,Hamburg
272717405,53.5439736,9.8415381,Casino,,,
272717465,53.5424727,9.8440744,Marché,,,
272719780,53.5447527,9.8383286,Kantine,,,
272723510,53.5418369,9.8374524,Bistro,,,
273425544,53.5815574,9.7635383,Messologi,,,
274262342,53.5028763,10.1930725,Rindocks,Lohbrügger Landstraße 119,21031,Hamburg
274349224,53.5557185,9.9916858,Haerlin,Neuer Jungfernstieg 9-14,20354,Hamburg
274490591,53.4717539,9.8631619,Merrano,Cuxhavener Straße 292,21149,Hamburg
274951874,53.469024,10.2778372,Najis Mittelmeer Bahnhof,,,
277050398,53.5514359,9.9809243,Picolo Paradiso,Brüderstraße 27,,
277504583,53.5447491,10.0895845,Restaurant Adria,Letzter Heller 21,22111,Hamburg
277790194,53.5966915,10.0435393,Orchideen Palast,Fuhlsbüttler Straße 236,22307,Hamburg
277800972,53.6496648,10.1176109,Maurizio,Berner Weg 31,22393,Hamburg
278487889,53.5977583,10.0428056,Kamiros,Fuhlsbüttler Straße 256,22307,Hamburg
280699564,53.5610678,9.9675684,Erikas Eck,Sternstraße 98,20357,Hamburg
280699565,53.5589306,9.9645671,La Sepia,Neuer Pferdemarkt 16,20359,Hamburg
280702772,53.5624282,9.9634528,Pamukkale Köz,Susannenstraße 35,20357,Hamburg
280702922,53.5617024,9.9648113,Souperia,Bartelsstraße 21,20357,Hamburg
280702925,53.5536802,9.9301419,Schanzenstern Bio-Restaurant,Kleine Rainstraße 24,22765,Hamburg
280709543,53.5593936,9.9645183,Hatari,Schanzenstraße 4,20357,Hamburg
280740265,53.5597713,9.9639605,Asia House,Schulterblatt 10,20357,Hamburg
280944537,53.6605511,9.8012087,Elena,Fahltskamp 11,25421,Pinneberg
282221637,53.6942525,10.3241986,Serways,,,
282506264,53.5013399,10.07993,Bamboo,,,
285129967,53.4870244,10.0163515,Sohre,,,
286289546,53.4580638,9.9676249,Schweinske Harburg-Eißendorf,Eißendorfer Straße 95,21073,Hamburg
286450954,53.4602015,9.9757022,Viet No1,,21073,
286660842,53.5728594,10.0635049,China-Restaurant Ming Dynastie,,,
288309550,53.5656295,9.9852309,Mensa Blattwerk,,,
288309624,53.565001,9.9869465,Gran Sasso,Schlüterstraße 12,,Hamburg
288513234,53.4179925,10.1986781,Schümanns Gasthaus,,,
288794107,53.437008,10.0042944,Rönneburger Park,,,
288858596,53.5734328,10.0705985,Jam Jam,Wandsbeker Marktstraße 141,22041,Hamburg
289296176,53.5752095,10.0744829,Ni Hao,Wandsbeker Zollstraße 25-29,22041,Hamburg
289296201,53.5754515,10.0751321,Rodizio Rio,Wandsbeker Zollstraße 25-29,22041,Hamburg
289296368,53.5753122,10.0747646,El Pulpo,Wandsbeker Zollstraße 25-29,22041,Hamburg
290079059,53.5585523,9.9751236,Das Peace,Marktstraße 14,20357,Hamburg
290079105,53.5591638,9.975182,Variable,Karolinenstraße 23,20357,Hamburg
290337463,53.4823142,9.9296654,Moorkathen,,,
290608315,53.5572346,10.0525774,Inos,Carl-Petersen-Straße 124,20535,Hamburg
290633829,53.5627701,9.9608184,Blattgold,Schulterblatt 83,20357,Hamburg
291167508,53.5579557,9.9674188,Feldstern,Sternstraße 2,20357,Hamburg
291167509,53.5575054,9.9676474,La Casita,Neuer Kamp 30,20357,Hamburg
291595910,53.5926808,9.7459264,KDW,Egenbüttelweg 123,22880,Wedel
292290707,53.5634018,9.9813691,Rosenhof,,,
292746412,53.6438377,9.8420294,Marathon Grill,Hallstraße 55,25462,Rellingen
292829392,53.5531624,9.931217,Tarifa,Große Rainstraße 23,22765,Hamburg
292856260,53.5801832,9.9615764,Mama Rosa,Heckscherstraße 1 A,20253,Hamburg
293728104,53.5729398,10.0443965,Taverna Lefkas,Von-Essen-Straße 36,22081,Hamburg
294325610,53.6380131,9.8424927,Attika,Bäckerstraße 3,25469,Halstenbek
295309730,53.4507444,9.9809799,Leuchtturm,,,
296087739,53.5595059,10.0136866,Peter Pane,Lange Reihe 107,20099,Hamburg
296936722,53.5545585,9.9861813,Casse-Croûte,ABC-Straße 44-46,20354,Hamburg
298515059,53.6247099,10.0991764,Hellas,Am Stühm-Süd 86,22175,Hamburg
298579408,53.6408795,10.0366726,Restaurant LAurora,Hummelsbüttler Hauptstraße 47,22339,Hamburg
298801385,53.6176611,10.0734614,Restaurant & Café Seehof,Fabriciusstraße 288,22177,Hamburg
300393858,53.5744652,9.9637627,Hardys,,,
300394130,53.5752192,9.9662217,Das Lokal,Bismarckstraße 60,20259,Hamburg
300394226,53.5739746,9.9618109,was wir wirklich LIEBEN - Herzstück,Osterstraße 10-12,20259,Hamburg
300395898,53.5657138,9.9792639,Ristorante Terzetto,Bundesstraße 31,20146,Hamburg
300548840,53.5789044,9.964622,Heemann,Eppendorfer Weg 159,20253,Hamburg
300560627,53.5967297,9.9326875,Chamant,Basselweg 102,22527,Hamburg
300562453,53.5994624,9.922237,Apollon bei Pano,,,
300595143,53.5675449,9.9812512,Cupn Go,Grindelhof 1,20146,Hamburg
300595271,53.5680394,9.9799383,Kinh Đô,Grindelallee 91,20146,Hamburg
300596010,53.5696033,9.9796248,Farsi,Grindelallee 148,20146,Hamburg
301573031,53.5444951,9.9358863,Fischereihafen Restaurant,Große Elbstraße 143,22767,Hamburg
301993961,53.5435215,9.9789345,Das Feuerschiff,,20459,Hamburg
302672421,53.567628,9.9818536,Abaton Bistro,Grindelhof 14 a,20146,Hamburg
302713199,53.5411869,9.992861,Sala Thai,Am Kaiserkai 1,20457,Hamburg
302714078,53.5411613,9.992955,Surfkitchen,,,
302716652,53.5414305,9.9908822,Vietnam Town,,,
302717401,53.5414885,9.9917193,Al Lido,Am Kaiserkai 13,20457,Hamburg
303345585,53.5886724,9.8754543,Kumkapi,,,
303380925,53.5685948,10.0179007,Akari,Papenhuder Straße 67,,Hamburg
303641731,53.5741894,9.9503409,Kimchi,Heußweg 10,20257,Hamburg
303734750,53.5962378,9.7461077,Kleine Waldschänke,Sandmoorweg 149,22559,Hamburg
304013749,53.6468514,10.0433631,Golden Gate,,,
304199120,53.4645438,9.9824658,Hornbachers Goldener Engel,,,
306272557,53.5479824,10.0308402,Betriebssportcasino,Wendenstraße 120,20537,Hamburg
306526200,53.4636244,9.9807444,Al Limone,,,
306526211,53.4634512,9.9814646,Shukria Restaurant,Lämmertwiete 2,21073,Hamburg
306526215,53.4633969,9.9816832,Bei Fernando,,,
307875902,53.5455304,9.9976168,Schönes Leben,Alter Wandrahm 15,20457,Hamburg
307966855,53.6620568,9.8986984,Montenegro bei Sabina,Ellerbeker Straße 27,25474,Bönningstedt
308016756,53.6662527,9.9041441,A Vila,Kieler Straße 108,25474,Bönningstedt
308260850,53.5502923,9.8428743,Dill sin Döns,,,
308608553,53.546044,9.9537841,El Tequito,,,
308906104,53.464057,9.9672483,Sushi for Friends,,,
308906495,53.4599698,9.978589,Golden City,,,
308906535,53.4602091,9.979819,Dubrovnik,,,
308907810,53.4650249,9.9859337,Silo 16,Schellerdamm 16,21079,Hamburg
308908629,53.4663175,9.9869637,momento di,Veritaskai 3,21079,Hamburg
309651671,53.4619433,9.9807446,Block House Harburg,,,
309652121,53.4640686,9.9825916,Restaurant Scharf,Harburger Schloßstraße 2,21079,Hamburg
309744457,53.5829187,9.9753311,Maihan,Eppendorfer Weg 240,20251,Hamburg
309755435,53.5252965,10.1683713,Gasthof Schwarzenbeck,,,
309757529,53.522741,10.1649774,Restaurant Elbrus,Dorfstraße 10,22113,Oststeinbek
309757838,53.5197144,10.1737023,Zur Havighorster Nesthenne,,,
309795393,53.5629788,9.9187575,Mangold,,,
309837584,53.4601374,9.9793485,Burger Lounge,Am Centrumshaus 2,21073,Hamburg
309839831,53.4528603,9.9822897,Meson Galicia,Maretstraße 60,,Hamburg
311931369,53.5578894,10.0116622,Vasco da Gama,Lange Reihe 67,20099,Hamburg
311932220,53.5621481,10.0171116,Deli Indo,,,
311932375,53.5553859,10.0088494,Casa Romana,Lange Reihe 12a,20099,Hamburg
312744075,53.5731964,9.8474922,Canton,Osdorfer Landstraße 218,22549,Hamburg
314879482,53.5558052,10.0152141,Iranisches Molana,Danziger Straße 14,20099,Hamburg
315107300,53.5459198,9.9729233,Beira Rio,,,
315107896,53.550945,9.9796445,Big Bull,Großneumarkt 24,20459,
315347446,53.5457182,9.97505,O Pescador,,,
315347450,53.5460212,9.9752488,Ola Lisboa,,,
315347506,53.5457976,9.97533,Porto,,,
315347574,53.5456541,9.9753488,Casa del Sabor,Reimarusstraße 9,20459,Hamburg
315348044,53.5459028,9.975904,D. Jose,Ditmar-Koel-Straße 11,20459,Hamburg
315348295,53.546143,9.975869,O Farol,,,
315348357,53.5460974,9.9756454,Casa Madeira,,,
315348809,53.5461603,9.9769651,Panthera Rodizio,Ditmar-Koel-Straße 3,20459,Hamburg
315349265,53.5458381,9.9742866,Nello,,,
315353424,53.5481753,9.9779081,Old Commercial Room,,,
315969882,53.5423093,10.168935,Peking Haus,,,
316506790,53.4394769,9.9828938,Taverna Korfu,,,
318099040,53.5550049,9.9802903,Il Siciliano,Johannes-Brahms-Platz 11,20355,Hamburg
318099227,53.5548491,9.9800543,Riads,Johannes-Brahms-Platz 7,20355,
318106353,53.5512754,9.9773362,Kleinhuis Cafe&Weinstube,,,
318355004,53.7055555,10.1066278,Taverna Petros & Marietta,,,
318364231,53.7078787,10.108119,Italia Ristorante,Duvenstedter Damm 45,22397,Hamburg
318374689,53.7099799,10.1319684,Zum Bäcker,Herrenhausallee 9,22397,Hamburg
319778015,53.556689,9.9748728,September,,,
319779633,53.5650457,9.9775912,Restaurant Békaa,Rentzelstraße 50,20146,Hamburg
321197866,53.584592,9.9806334,Mama Trattoria,Lehmweg 44,20251,Hamburg
322582203,53.562776,9.9614866,YONG korean,Schulterblatt 92,20357,Hamburg
325963600,53.4011878,10.1686925,Archilleon II,,,
326118622,53.5177754,9.9866895,Meşhur Adıyaman Çiğ Köftecisi,,,
327547147,53.5945771,9.9982416,Ristorante da Lui,Hudtwalckerstraße 37,22299,Hamburg
327636232,53.5952194,10.0000747,Irodion,Ohlsdorfer Straße 12,22299,Hamburg
328705065,53.5811053,9.9696468,Mama Leonne,,,
332366571,53.6349387,9.9191926,Gyo Sushi,,,
333695775,53.5618202,9.8200222,Rio Grande,Dockenhudener Straße 2,22587,Hamburg
336700300,53.563131,9.9489125,Il Cristallo,,,
336700307,53.5638543,9.9506977,Breitengrad,Gefionstraße 3,22769,Hamburg
337446644,53.5688397,9.9832316,Panjaab,Grindelhof 39,20146,Hamburg
341788134,53.5579898,10.0123232,Casa Di Roma,,,
344623992,53.5464189,9.9222532,Il Gambero,Elbchaussee 94,22763,Hamburg
347280334,53.5584999,9.9903117,Tarantella,Stephansplatz 10,20354,Hamburg
351360866,53.550202,9.926919,Nostalgia bei Sotiris,Eulenstraße 49,22765,Hamburg
351521856,53.5504244,9.9272788,Flying Market,Eulenstraße 38,22765,Hamburg
351578410,53.5520783,9.9332358,BOK,Ottenser Hauptstraße 1,22765,Hamburg
353310110,53.5591667,9.9249321,Farina meets Mehl,Gaußstraße 190,22765,Hamburg
355242188,53.549683,9.9303866,La Maison d´Avignon,Arnoldstraße 2,22765,Hamburg
355602130,53.5568042,9.9214916,Froindlichst,Daimlerstraße 12,22763,Hamburg
356744233,53.544623,9.9132769,Hoppe’s Restaurant,Övelgönne 6,22605,Hamburg
356744981,53.5445322,9.9140735,Café Elbterrassen,Övelgönne 1,22605,Hamburg
356750258,53.5449087,9.9120362,Zum alten Lotsenhaus,,,
356752501,53.5447329,9.9080592,Süßwasser,Övelgönne 38,22605,Hamburg
356809795,53.7040618,10.008724,China Restaurant Mongolei,Marktplatz 3-5,22844,Norderstedt
363390989,53.5982403,10.0379638,Kalliopea,Neue Wöhr 14,22307,Hamburg
363579305,53.5086287,10.2527291,Mr. Kebab House,Sophienstraße 7,21465,Reinbek
363658590,53.6424537,10.1295672,Leandros,Meiendorfer Mühlenweg 35,22393,Hamburg
364142790,53.5517302,9.9802985,Loving Hut,Markusstraße 2,20355,Hamburg
364428604,53.598338,9.8587833,Hellas,,,Hamburg
366731509,53.6026462,10.1546528,Asia Lam,Rahlstedter Bahnhofstraße 41,22143,Hamburg
366969210,53.5722971,9.9500405,Malik Pizza,Sandweg 1,20257,Hamburg
367004365,53.6004213,9.8736328,Grilltaverne Hellas,,,
367029080,53.7223433,9.9983999,China Restaurant Lee Hoo Fook,Ulzburger Straße 398,22846,Norderstedt
369815345,53.5685648,10.1745448,Dubrovnik,Buchenstraße 1,22885,Barsbüttel
369986450,53.5367134,10.033745,Der Kebap,Billhorner Röhrendamm 94,20539,Hamburg
370256242,53.6080983,9.8404348,Mr. Hoh,,,
371332085,53.5443638,10.025068,Pic-a-deli,Hammerbrookstraße 92,20097,Hamburg
371757818,53.5336461,9.8720851,Dionysos,,,
372530675,53.469629,9.854674,Taverna Korfu,Neugrabener Bahnhofstraße 27,21149,Hamburg
372733213,53.5442408,9.9392066,buddhas kitchen,Große Elbstraße 133,22767,Hamburg
372734691,53.5445569,9.9343431,am kai,Große Elbstraße 145b-d,22767,Hamburg
373241542,53.4491354,9.9836556,Entennest,,,
377987457,53.5657249,10.0191581,Anleger 1870,Hartwicusstraße 7,22087,Hamburg
378819328,53.4696254,10.2868486,Sachsenwald,,,
383594339,53.5514051,9.9489419,Maquis,Thedestraße 2,22767,Hamburg
384616603,53.5716706,9.8980627,Tunici,Luruper Chaussee 2,22761,Hamburg
384642088,53.5710198,9.8991944,Pandas Küche,Bahrenfelder Chaussee 178,,
385090860,53.5990664,9.8458704,Opposti,Altonaer Chaussee 61,22869,Schenefeld
385090862,53.5519122,9.9439957,Chez Sam,Große Bergstraße 199a,,
386177280,53.6252064,10.1404681,Asia-Küche,Hermann-Balk-Straße 120,22147,Hamburg
386574568,53.6000436,10.0119373,Schweinske,Jahnring 21,22297,Hamburg
386887151,53.4870798,10.2185451,Burger Lounge,Wentorfer Straße 20,21029,Hamburg
387134886,53.4723112,9.8520969,Lily,,,
387443219,53.5445995,9.9430573,Henssler & Henssler,Große Elbstraße 160,22767,Hamburg
387735453,53.5530951,9.9541919,Burger Lounge,,,
387843463,53.5822365,10.0434948,Schweinske Barmbek,Barmbeker Markt 19,22081,Hamburg
387846090,53.6753883,10.2403738,BLOCK HOUSE,,,
388299642,53.6226155,9.9510158,Taverna Santorini,Wendlohstraße 13,22459,Hamburg
388849684,53.530058,10.0410454,Entenwerder Fährhaus,Entenwerder Stieg 8,20539,Hamburg
389677413,53.5452292,9.9513983,,Große Elbstraße 14,22767,Hamburg
389793242,53.4243717,10.295403,Restaurant Stover Strand,Stover Strand 10,21423,Drage (Elbe)
390986310,53.5191381,9.7313864,Dammanns,Groß Hove 2,,
391538765,53.726423,9.9154333,Casa Mia Ristorante,Harksheider Weg 111,25451,Quickborn
391539679,53.7288543,9.8970965,La Famiglia,An der Retloh 1,25451,Quickborn
392678216,53.6020363,9.8367788,Rodeo,,,
393186761,53.6726163,9.7746312,Campana,,,
394086462,53.5548135,9.9623522,Kleine Pause,Wohlwillstraße 37,20359,Hamburg
403189763,53.5542591,9.9620853,Giovanni,Wohlwillstraße 29,20359,Hamburg
405838971,53.5800268,9.8858043,„c’est si bon“ der Bio-Kiosk am Dahliengarten,Luruper Chaussee 178,22761,Hamburg
409233536,53.5797247,10.008692,Shahi,,,
409233540,53.5791474,10.0138637,HENNYs,,,
409233542,53.5793228,10.0135953,Cotidiano,,,
409233545,53.5796848,10.0127571,Chingu,Körnerstraße 1,22301,Hamburg
409233547,53.5803758,10.0126782,"Pittarello, Ristorante • Bar",Mühlenkamp 8,22303,Hamburg
409233559,53.5812311,10.0083052,Sushi Yama,,,
409233561,53.5842424,9.9751408,Alkiony,Abendrothsweg 55,20251,Hamburg
409233564,53.5814749,10.0090701,La Bruschetta,Dorotheenstraße 35,22301,Hamburg
409233573,53.5810869,10.0076226,Gallo Nero,Sierichstraße 46,22301,Hamburg
409233576,53.5806824,10.0079497,Mangia e Bevi,,,
409382645,53.5813638,10.0114654,Pizza social club,Mühlenkamp 29,22303,Hamburg
409382647,53.5814729,10.0128148,VOUS,Gertigstraße 7,22303,Hamburg
410213288,53.5415951,10.0507529,Bahar,,,
410439009,53.5736574,9.9480258,Restaurant Piano,,,
410439699,53.5778716,9.9533956,Maybach,Heußweg 66,20255,Hamburg
410637871,53.4060943,9.7745337,Cafe Restaurant Ferien auf der Heid,,,
411016977,53.5700016,10.0279222,Baris,Lerchenfeld 48,22081,Hamburg
411016980,53.571335,10.0302686,Inos,Finkenau 1,22081,
411016988,53.5795062,10.0408825,Falafel Factory,Barmbeker Markt 40,22081,Hamburg
411017006,53.5904196,10.0546865,Daddy Pizza,,,
411017021,53.5780158,10.0385387,Goldener Drache,,,
411687630,53.5644251,9.7675313,Café Lüküs,Falkensteiner Ufer 101,22587,Hamburg
412469205,53.6746553,9.9867797,Olympia Grill,Ohechaussee 110,22848,Norderstedt
412741020,53.5722125,9.9891816,Bolero,Rothenbaumchaussee 78,20148,Hamburg
413504586,53.570799,9.9781736,Gopalam,Grindelallee 159,20146,Hamburg
414101691,53.5660056,9.9771067,Peking-Enten-Haus,Laufgraben 16,20146,Hamburg
415293531,53.5489956,9.9996401,Laufauf,Kattrepel 2,20095,Hamburg
419847310,53.661276,9.7870233,Lumberjack,,,
420393477,53.6511538,9.7913222,Kronos,,,
420393544,53.6473181,9.7925178,Bon Chi Chi,Richard-Köhn-Straße 48,,
422559749,53.5443686,10.0252249,Mickleys All Stars,Hammerbrookstraße 92,20097,Hamburg
425614429,53.471845,9.8372443,Restaurant Fesstos,Cuxhavener Straße 415,21149,Hamburg
428168826,53.6319471,10.2971687,Alte Schule,Hauptstraße 44,22962,Siek
428746597,53.6417069,10.2935727,Schullers Bistro und Bar im TC Siek,,,
430464427,53.5726609,10.0157023,La Fée,Hofweg 50,22085,Hamburg
430464429,53.5749295,10.0151288,Fardi,Hofweg 72,22085,Hamburg
431171384,53.5529768,9.9937604,Mio,Jungfernstieg 58,20354,
432429124,53.5609297,10.0147238,Da Caio,,,
433297059,53.5610676,10.0125022,Seehaus Hamburg,An der Alster 10a,20099,Hamburg
436345275,53.5772999,9.9884581,Palazzo,Rothenbaumchaussee 185,20149,Hamburg
436345617,53.5772082,9.9884582,toto,,,
439294599,53.5898565,9.9873511,Ristorante da Franco,,,
440624352,53.5789243,9.9786354,Die Brücke,Innocentiastraße 82,20144,Hamburg
440712135,53.58065,10.0068587,PATIO,,,
441058008,53.482874,10.2218996,Achilleon,,,
441066958,53.5808166,9.9782492,ono,Lehmweg 17,20251,Hamburg
441217141,53.5797242,9.9802155,Campus am Isemarkt,Klosterallee 80,20144,Hamburg
441266951,53.55532,10.0087479,An An,,,
441297257,53.7023403,9.9796812,KiMs Norderstedt,Friedrichsgaber Weg 290,22846,Norderstedt
441298293,53.7080142,9.9837719,Ionios,Rathausallee 83b,22846,Norderstedt
442137112,53.5517033,9.9941727,Jim Block,Jungfernstieg 1,20095,Hamburg
442443906,53.5566977,10.0084883,Leon,Koppel 1,20099,Hamburg
444215032,53.4482068,9.9813813,Bootshaus zur Außenmühle,,,
444714198,53.5551536,10.0507955,Der Grieche,Hammer Landstraße 70,20537,Hamburg
444841486,53.6499721,9.8305156,Rio Grande,Schmiedestraße 2,25462,Rellingen
446093164,53.5683952,10.0236822,Il Nonnino,Mundsburger Damm 45,22087,Hamburg
446934690,53.5708391,9.9608172,Thats Amore,Weidenstieg 24,20259,Hamburg
447449851,53.5680789,9.9820548,Citta Vegan Izakaya,Grindelhof 17,20146,Hamburg
448903885,53.5896806,9.9889997,Iô,,,
450198391,53.6632088,10.2863654,Tsubaki,Schaapkamp 5,22927,Großhansdorf
450198393,53.6624118,10.2839136,Due Fratelli,Eilbergweg 2,22927,Großhansdorf
450394271,53.5494865,9.9565241,Reeperbande,Reeperbahn 157,20359,Hamburg
450652000,53.5691191,9.9834408,Doris Diner,Grindelhof 43,20146,Hamburg
450652003,53.5698814,9.9841968,Brasserie mit.tag,,,
450652005,53.5701025,9.9843375,Casa Mia,Grindelhof 65,20146,Hamburg
452648710,53.4519584,9.9548577,Sahlings Gasthaus,,,
452908288,53.590633,9.907658,Namaste Hamburg,,,
454401970,53.4171597,10.035003,Zur Pulvermühle,,,
454587663,53.562414,9.963972,Lokmam,Susannenstraße 16,20357,Hamburg
455482288,53.7130759,10.0004796,Flame,,,
455566050,53.5930037,9.9875149,Lava Grill Döner,,,
456732791,53.5655488,9.9831922,Apple & Eve,Grindelallee 34,,
457008706,53.5706951,9.9953543,Mama Trattoria,,,
457009532,53.5718049,9.9949652,Block House Pöseldorf,,,
457329684,53.5597584,10.011158,Kouros,An der Alster 28,20099,Hamburg
458869717,53.6007842,10.2754094,Schützenverein Brunsbek,,,
463176847,53.7336482,10.1266617,Alte Rader Schule,Rader Weg 209,22889,Tangstedt
467064278,53.6550388,10.0934197,BLOCK HOUSE,Heegbarg 32,22391,Hamburg
471135383,53.5525912,9.9363141,Köz Urfa,Paul-Nevermann-Platz 2-4,22765,Hamburg
473850224,53.6748021,10.2402515,Berlin Milljöh,Große Straße 15a,,Ahrensburg
473850262,53.669827,10.236103,Rockefeller,,,
473850265,53.6727962,10.2397062,La Villa Rossa,,,
476565546,53.7081468,10.1055768,Lenz,Poppenbütteler Chaussee 3,22397,Hamburg
482087787,53.548447,10.0228225,Food court,Hammerbrookstraße 47,20097,Hamburg
482150317,53.5514623,9.9309799,Cosmos,Spritzenplatz 12,22765,Hamburg
482150318,53.5517299,9.9305686,Kypros,Spritzenplatz 18,22765,Hamburg
483330754,53.5848732,10.030565,Zur Gondel,,,
483342630,53.5871635,10.0381421,Pho Hanoi,,,
484262671,53.7069835,9.9899266,Lencis,Rathausallee 35,22846,Norderstedt
489656852,53.5559169,10.0083509,Bich Ngoc,Spadenteich 4-5,,
490185859,53.5478776,9.9830542,Thai Food,Herrengraben 22,20459,Hamburg
490185869,53.5492719,9.984733,Rialto,Michaelisbrücke 3,20459,Hamburg
490185874,53.5491812,9.9850662,Marinehof,,,
493873276,53.4349373,9.9343254,Rindocks Harburg,Bremer Straße 343,21077,Hamburg
495158599,53.5531752,9.9653235,Ashoka,Budapester Straße 25,20359,Hamburg
497828595,53.7340936,9.9890094,Mehfil Indian Food,,,
498846686,53.5194992,10.1743948,Wiwa,,,
505002935,53.5791065,9.9650353,Leibgericht,Eppendorfer Weg 161,20253,Hamburg
513876261,53.5490016,10.2184354,Opatija,,,
518525074,53.4287295,10.3034211,Zur Rennbahn,Stover Strand 4,21423,Drage (Elbe)
518587058,53.5693329,10.1460976,Tunicis Restaurant Zwölf Apostel,Holsteiner Tor 2,22043,Hamburg
525166100,53.6817912,9.7510077,Hoyers Gasthof,Hauptstraße 102,25497,Prisdorf
528775993,53.5489464,9.9923572,Dolcetto,,,
536391122,53.5557063,10.0164654,Café Türkis,Steindamm 71,20099,Hamburg
536391125,53.5569135,10.0190274,Pho Duc,Steindamm 103,,Hamburg
540131057,53.5652808,9.9418995,Hoang-Bistro,,,
540290067,53.6140169,10.135819,Kavikos,,,
541393167,53.5519341,10.0020998,Ahoi,Spitalerstraße 12,20095,Hamburg
544381445,53.5446559,9.9761012,The Greek,,,
556010409,53.663416,9.7937074,Frau Miller,Friedrich-Ebert-Straße 52,25421,Pinneberg
556372720,53.5401073,10.2100023,Remise,Möllner Landstraße 55,21509,Glinde
558754009,53.545244,9.9987752,HHLA Kantine,,,
559208899,53.5903187,10.0349437,Halle 13,Hellbrookstraße 2,22305,Hamburg
559953634,53.5558605,10.0015752,The Cube,,,
567010192,53.6829338,9.9984715,Farinellii,Ulzburger Straße 2a,22850,Norderstedt
568338174,53.6064199,10.1188999,Köz Adana,August-Krogmann-Straße 1a,22159,Hamburg
571446557,53.5604383,9.9386408,Blaue Blume,Harkortstraße 95,22765,Hamburg
574262595,53.5844659,10.0089599,Chapeau,,,
575909163,53.4103753,10.1438802,Gasthaus von Deyn,,,
576979766,53.5510423,9.9820722,La Locanda,,20355,
588086674,53.7089081,10.1061934,Rio Grande,,,
588969390,53.4083049,10.2084681,Achtern Diek,Kirchwerder Mühlendamm 75,21037,Hamburg
590885307,53.6182233,9.9507977,Ciao Bella,,,
590885317,53.6220267,9.9535976,Han Yang,Zum Markt 1,22459,Hamburg
596344091,53.5668488,9.9571226,Dulfs Burger,Eimsbütteler Chaussee 25,20259,Hamburg
598123154,53.6712922,10.1339805,Zum Bergstedter,Teekoppel 9,22395,Hamburg
598465494,53.566533,9.9675308,Eat The Film,,,
600025688,53.6956243,10.1384279,Landhaus Ohlstedt,,,
601012675,53.7133046,9.9996637,Tandoor,,,
601149869,53.6215337,9.9517212,Pilio,Tibarg 33a,22459,Hamburg
601149877,53.6207639,9.9527898,Humboldt,Tibarg 38-40,22459,Hamburg
602372007,53.6228374,9.9512428,Il Porcino,,,
603001309,53.5935317,9.9941805,Ciao Bella,Hudtwalckerstraße 13,22299,Hamburg
603106273,53.6321692,9.9558755,La Terrazza,Adlerhorst 18,22459,Hamburg
603106274,53.6346631,9.9531389,Naoussa,Paul-Sorge-Straße 142a,22455,Hamburg
606157808,53.5699887,10.1052844,Casino,,,
610574653,53.5829298,9.9804371,Ristorante Italiano,Lehmweg 58,20251,Hamburg
610574692,53.5870116,9.9847997,iL Cantuccio,Eppendorfer Landstraße 36,20249,Hamburg
610574718,53.5852401,9.9887114,Stüffel,Isekai 1,20249,Hamburg
611334615,53.4892827,10.1580851,S.A.X,,,
613106746,53.5921484,10.0029749,Hanami,Barmbeker Straße 165-167,22299,Hamburg
614135357,53.5499271,10.0025738,Daniel Wischer,Steinstraße 15a,20095,Hamburg
617018034,53.5446352,9.9727558,Rickmer Rickmers,,,
621101995,53.5661686,9.9792365,Belmondo,Bundesstraße 40,20146,Hamburg
621101998,53.5668351,9.9803061,Quan 19,Rentzelstraße 6,20146,Hamburg
621769334,53.5537592,10.0087824,Schifferbörse,Kirchenallee 46,20099,Hamburg
623573362,53.6152153,10.0759188,Vistro - Café - Pizzeria - Bar,Bramfelder Chaussee 265,22177,Hamburg
623573391,53.613333,10.0790298,Zum Bräustüberl am Dorfplatz,,,
626332461,53.5840288,9.983661,Aloha Poke,,,
627571046,53.6699056,10.2359941,Asia Haus,,,
627576767,53.5531444,10.0026926,Vapiano,Kurze Mühren 20,20095,Hamburg
628628797,53.5824304,10.1112833,Osteria Tarantino,,,
631645839,53.6491749,10.2777673,Kosch,,,
631831412,53.5685951,9.9951723,Goldherz,,,
631941968,53.5669365,10.0398434,Die Taverne,Wandsbeker Chaussee 47,22089,Hamburg
635376675,53.5123826,9.9867186,Don Mateo,Veringstraße 69,21107,
636058221,53.5519471,9.9332385,Schweinske,,,
642270054,53.5655042,10.0457975,Hellas Grill Eilbek,Papenstraße 65,22089,
642552204,53.544616,9.8219353,Elbblick,,,
644163401,53.4496881,9.9371847,Restaurant Dubrovnik,,,
650416268,53.545351,9.9936697,Brook,Bei den Mühren 91,20457,Hamburg
650416277,53.5464497,9.9967884,Bella Italia,Brandstwiete 58,20457,Hamburg
650416280,53.5471859,9.9966151,Brand ucello,Brandstwiete 36,20457,Hamburg
651386182,53.5829966,9.9342041,Schweinske Eimsbüttel,Kieler Straße 284,22525,Hamburg
654039908,53.5927674,9.871403,Schweinske Lurup,Luruper Hauptstraße 164,22547,Hamburg
654039911,53.5968232,9.8667251,Redox House,,,
659019629,53.5563314,10.0083274,Zur alten Flöte,Koppel 6,20099,Hamburg
661180910,53.460011,9.9351048,Taverna Olympiade,,,
662211468,53.4858528,10.2173189,Novo,,,
662891033,53.6442003,9.8111741,Kochlounge Pinneberg,,,
663428631,53.5436528,9.9146286,D.E.S. Bergedorf,,,
670500809,53.6948252,9.7869858,Casa Grande,Bornbarg 31,25495,Kummerfeld
671534388,53.4757261,10.0829642,Wein- und Friesenstube,,,
671764559,53.6782421,10.0004218,Köz Bingöl,Langenhorner Chaussee 655,22419,Hamburg
672844898,53.558369,10.0123169,O´Pote,,,
677043927,53.7104351,10.0989563,Eichenhof,,,
677298670,53.5674586,9.9692932,Peter Pane,Schäferkampsallee 1,20357,Hamburg
677298672,53.5684545,9.9880473,Palü,Rothenbaumchaussee 63,20148,Hamburg
677298674,53.5692918,9.9836429,Der Etrusker,Grindelhof 45,20146,Hamburg
677551990,53.4451753,10.1310044,Ristorante & Pizzeria Al Lago,Lauweg 4,21037,Hamburg
679671133,53.5619012,10.0483885,Ammos,Riesserstraße 11,20535,Hamburg
679897632,53.6096957,9.9581942,Bella Vita,Kollaustraße 125,22453,Hamburg
684220902,53.629644,9.942502,Alexandros,Wendlohstraße 90,22459,Hamburg
684237389,53.6157703,9.9323447,Waldcafé Corell,Niendorfer Gehege 50,22453,Hamburg
687060246,53.5629165,9.9645712,Südhang,Susannenstraße 29,20357,Hamburg
687710196,53.5836642,9.9855599,Tiefenthal,Isestraße 77,20149,Hamburg
687710203,53.5839529,9.9931645,Positano Osteria,Isestraße 147,20149,Hamburg
689097202,53.5662499,9.9800811,kaalia,,,
692085309,53.5889212,10.0460083,Burger Boss,,,
692085317,53.5942828,10.0437839,Lezzet,Fuhlsbüttler Straße 173,22307,Hamburg
693551432,53.584724,10.0233742,Teigfabrik,Jarrestraße 27,22303,Hamburg
695548952,53.60783,10.0094883,Cao,Heubergredder 30,22297,Hamburg
696719531,53.4783285,10.0629447,Marschländer Elblounge,Spadenländer Elbdeich 40,21037,Hamburg
697106463,53.5828466,10.0078871,BLOCK HOUSE,Andreasstraße 57,22301,Hamburg
697679073,53.5742558,10.048457,Thessaloniki,Gluckstraße 75,22081,Hamburg
698543476,53.5629329,10.0590091,Olympia Grill,,20535,Hamburg
699032204,53.6491374,9.8297705,Schleßelmann,Hauptstraße 31,25462,Rellingen
701741908,53.4951806,10.0836346,Fährhaus Tatenberg,,,
702453336,53.5569329,9.9900916,Hanoi deli,Colonnaden 39,20354,Hamburg
703704390,53.5200175,10.0830901,Andronaco,Halskestraße 48,22113,Hamburg
706251236,53.5546437,9.986851,Cast Iron Grill,,,
706970874,53.5528407,9.9765246,Michelangelo,,,
707708973,53.63585,9.9166077,Pheree-Thai,Oldesloer Straße 33,22457,Hamburg
708822142,53.6313431,9.9553238,Chalon,Adlerhorst 8,22459,Hamburg
708822155,53.632184,9.9589854,7days Restaurant,Krähenweg 31,22459,Hamburg
710338257,53.5572234,9.9912193,Kleinhuis,,,
710559339,53.4566148,9.9858324,As Urfa Harburg,Moorstraße 2,21073,Hamburg
710920177,53.5504351,9.8441854,Jacobs Restaurant,Elbchaussee 401,22609,Hamburg
711911678,53.5494206,9.9862078,Bistro am Fleet,,,
719260807,53.6334307,9.9148749,Hellas,Riekbornweg 16,22457,Hamburg
724276520,53.6077209,10.0077442,Alexandros,Alsterdorfer Straße 274,22297,Hamburg
725143189,53.4588013,10.013982,Eisvogel - Bar & Restaurant,Am Neuländer Baggerteich 3,21079,Hamburg
725591166,53.5446485,10.028973,Va Veloce,Süderstraße 30,20097,Hamburg
726304482,53.6487754,10.1670682,Jazz Cafè Volksdorf,Im Alten Dorfe 36,22359,Hamburg
728582384,53.4633165,9.9811755,di candele,,,
734685934,53.5793017,10.0722381,Vezos Greek Restaurant,Walddörferstraße 49,22041,Hamburg
735861737,53.6062435,10.0396309,Kalivrisi,Fuhlsbüttler Straße 466,22309,Hamburg
735861770,53.5642961,9.9163168,Mokka,Bahrenfelder Chaussee 29,22761,Hamburg
737968534,53.6109368,10.0944893,Zum Hufschlag,Fahrenkrön 56,22179,Hamburg
739423994,53.5508084,9.9271486,Kleine Brunnenstraße 1,Kleine Brunnenstraße 1,22765,Hamburg
740412870,53.5413564,9.9901019,Feinkost Hafencity,Am Kaiserkai 27,20457,Hamburg
740412877,53.5409386,9.9858875,CARLS Bistro,,,
740412879,53.5428322,9.9928879,Chili Club,Am Sandtorkai 54,20457,
740412882,53.5435409,9.9930579,Restaurant VLET,Am Sandtorkai 23,20457,Hamburg
741321892,53.5410737,9.9901133,Kaisers,Am Kaiserkai 23,20457,Hamburg
746580384,53.5429309,9.9853428,Ciao Mamma,Am Sandtorkai 40,20457,Hamburg
746580430,53.5429075,9.9849684,Oh its fresh,Am Sandtorkai 40,20457,Hamburg
746580446,53.5435361,9.9929491,Markthalle Speicherstadt,Am Sandtorkai 23,20457,Hamburg
747148870,53.6486918,9.8984313,Naxos,,,
747434495,53.6484534,10.0163129,Dialog,,,
748041896,53.6476915,9.8313235,Rhodos,Hauptstraße 22,25462,Rellingen
751148276,53.551976,9.9755153,am Holstenwall,Holstenwall 19,20355,Hamburg
752352124,53.6832478,10.2591271,DieFrischeKantine,Kornkamp 8,22926,Ahrensburg
761349782,53.562235,9.9677899,Ristorante Borsalino,Sternstraße 125,20357,Hamburg
761660908,53.5933661,9.9895103,Shukria Restaurant,Eppendorfer Marktplatz 8,20251,Hamburg
762658822,53.5622619,9.9620346,Il Cammino,Schulterblatt 82,20357,Hamburg
766832810,53.5775893,10.0327616,Samui Thai Cuisine,,,
767994755,53.5609811,9.9655547,Kkokki,Schanzenstraße 36,20357,Hamburg
768054941,53.5779958,10.0324453,Tunici Restaurants Barmbek-Süd,Adolph-Schönfelder-Straße 49,22083,Hamburg
768058095,53.5626218,9.9616245,Balutschistan,Schulterblatt 88,20357,Hamburg
768058096,53.5622026,9.9620896,Super Mercato Italiano,Schulterblatt 82,20357,Hamburg
768124916,53.5611357,9.9624992,Taverna Romana,Schulterblatt 53,20357,Hamburg
768996259,53.6489569,10.0514122,Ciccio e Franco,Rehagen 29,,
770919552,53.5812406,10.009239,Kleiner Speisesaal,Dorotheenstraße 33,22301,Hamburg
773371303,53.6089121,10.037961,Restaurant Athen,Fuhlsbüttler Straße 527,22337,Hamburg
775207570,53.4165354,10.0194401,Goldener Buddha,Glüsinger Straße 54,21217,Seevetal
775866015,53.4889372,10.2083485,Lavastein,,,
783189387,53.5527761,10.0089813,NAGEL - Restaurant Bodega Bierstube,Kirchenallee 57,20099,Hamburg
784485286,53.5553855,10.0123306,Il Buco,Zimmerpforte 5,20099,Hamburg
790290575,53.4879971,10.1047205,Zum Eichbaum,,,
794053006,53.5550844,10.00842,Karatren,,,
797563614,53.5520115,10.0177918,Trinity,,,
798573995,53.5673408,9.7799516,Zum Falkenstein - aktuell dauerhaft geschlossen,,,
800524504,53.576047,10.0302602,Mäxx,,,
800825210,53.6078911,10.122878,Clubhaus SC Condor,,,
802087826,53.4643535,9.8656118,Am Falkenberg,,,
811669705,53.5820867,9.972862,Mansaaf,Eppendorfer Weg 208,20251,Hamburg
822628836,53.6489658,10.1679318,La Hacienda,,,
822804677,53.5465414,9.9584369,Salt & Silver Levante,St. Pauli Hafenstraße 140,20359,Hamburg
827787263,53.6576635,10.2113298,Rio Grande,,,
831246045,53.5886637,10.0993792,Crazy Croque,Friedrich-Ebert-Damm 160a,22047,Hamburg
833340200,53.5768573,10.0189025,Piccobello,Schenkendorfstraße 30,22085,Hamburg
835986787,53.580884,9.9460693,Q-Bar,,,
839129743,53.6534748,10.168656,Zorbas,Ahrensburger Weg 1,,
840456430,53.6473563,10.1692649,Olive,,,
840723845,53.6492359,10.1678625,Villaggio,,,
841884238,53.5588137,9.9653269,Azeitona,Beckstraße 19,20357,Hamburg
843250364,53.6274963,9.9094496,Athina,Holsteiner Chaussee 211,22457,
843506743,53.6484829,10.1648809,Mittagsfisch,,,
845288060,53.4639742,9.9554794,Lindenhof,Heimfelder Straße 44,21075,Hamburg
848860163,53.5320007,9.7646303,Restaurant Hintze,Leeswig 106,21635,Jork
857477383,53.5387533,9.8736721,Restaurant Finkenwerder Elbblick,Focksweg 42,21129,Hamburg
865211028,53.5869647,10.0878756,Minas Restaurant,Friedrich-Ebert-Damm 91,22047,Hamburg
877754751,53.6533655,10.2812247,Il Grappolo,Barkholt 65,22927,Großhansdorf
880214026,53.5560524,9.8043614,Restaurant FISCHclub Blankenese,Strandweg 30a,22587,Hamburg
880222844,53.5570606,9.8046472,Restaurant Ahrberg,Strandweg 33,,Hamburg
880630983,53.5602734,10.025759,Sushi Company,,,
880806052,53.5827258,9.9358088,La Classe Capanna,Langenfelder Damm 86b,22525,Hamburg
880883828,53.7318005,9.8993932,Kleine Heimat,Am Freibad 4,25451,Quickborn
881795538,53.5616521,10.0554415,Gennos,Hammer Steindamm 102,20535,Hamburg
881841755,53.5629476,10.0566248,La Venezia,Hammer Steindamm 113,20535,Hamburg
882841521,53.5915797,9.9293399,Dubrovnik,Kieler Straße 407,22525,Hamburg
890170988,53.6203358,10.0976615,Pane e Vino,Pezolddamm 1,22175,Hamburg
891522830,53.5791426,9.949101,Old MacDonald,,,
891522831,53.579332,9.9486475,Corfu Grill,,,
896984224,53.5543826,9.9270487,Eisenstein,Friedensallee 9,22765,Hamburg
897042706,53.5506701,9.9252957,Hatari,Eulenstraße 77,22763,Hamburg
897237325,53.5500764,9.9918267,Pfeffersack,,,
903994258,53.6423441,10.0479448,Aretea,,,
905000737,53.5914384,10.0306364,Café Sommerterrassen,Südring 44,22303,Hamburg
913543724,53.5962332,9.9877006,Schuback am Park,Eppendorfer Landstraße 165,20251,Hamburg
913543729,53.5960368,9.9876657,Die Pizzeria,Eppendorfer Landstraße 163,20251,Hamburg
914202214,53.5540375,10.001775,Sala Thai,Brandsende 12,20095,Hamburg
914321867,53.5568359,9.8058108,Strandhof,,,
914414795,53.5837493,9.9847037,Maral,Eppendorfer Baum 22,20249,Hamburg
914427281,53.5680133,9.9597256,Bistro Tati,Bellealliancestraße 35,20259,Hamburg
914427292,53.566583,9.9636742,Bistrot Vienna,Fettstraße 2,,Hamburg
914806974,53.5880726,10.0520853,Restaurant Alexandros,Bramfelder Straße 87a,22305,Hamburg
923905048,53.6013608,9.8881082,Sushi für Hamburg,,,
930541684,53.5702421,10.0604304,mai-mai,Wandsbeker Chaussee 288,22089,Hamburg
936818228,53.5175782,9.9865397,güvens kebap haus,,,
939112332,53.5942632,9.9461214,Mendelssohns,,,
945252311,53.5217812,9.9003247,Kantine,,,
945479416,53.5793211,10.0728028,Sushi für Hamburg,Walddörferstraße 51,22041,Hamburg
947250420,53.5765397,10.0595206,Santorini Grill,Dithmarscher Straße 2,22049,Hamburg
954800297,53.5797049,10.0815877,Jannis,Walddörferstraße 115,22047,Hamburg
955311357,53.5838912,10.0764721,Steakhouse Cabana,Friedrich-Ebert-Damm 28,22049,Hamburg
960536350,53.606345,9.9560318,Papillon,Niendorfer Straße 55-59,22529,Hamburg
961719829,53.5783758,10.0940249,Schnitzelhus,Luetkensallee 1,22041,Hamburg
961728659,53.5783505,10.0884568,Restaurant Zum Eichtalpark,,,
961736636,53.5782094,10.0857629,China Restaurant Mongolei,,,
963480403,53.6030448,9.9747041,Le Marrakech,Gert-Marcus-Straße 10,22529,Hamburg
963617942,53.6005095,9.9565536,Il Tramonto,Grelckstraße 13,22529,Hamburg
965057885,53.5782217,10.0218963,Mozart Stuben,,,
966551395,53.5433397,9.9979206,Sencha,Osakaallee 2-4,20457,Hamburg
971078090,53.5482527,9.989393,The Klub Kitchen,Großer Burstah 29,20457,Hamburg
972782182,53.4485168,10.2215574,Zum alten Bahnhof,Odemanns Heck 5,21039,
973501659,53.5569952,10.0109792,Central,,,
973646519,53.4832306,10.1749787,Panorama,Grachtenplatz 11,,
974460417,53.5532644,9.9990854,Viet Bowl,Gertrudenstraße 13,20095,Hamburg
975918081,53.5486084,10.0134725,"Bei Hadjia, Afrikanisches Restaurant",Repsoldstraße 49,20097,
982620401,53.4887431,10.1948536,Pizza Time´s,Kurt-A.-Körber-Chaussee 53,21033,Hamburg
982639374,53.5260236,10.0209098,Pikasa,,,
983452213,53.6812776,9.9973165,Ristorante Romantica,Am Tarpenufer 8,,
984794819,53.4890015,10.2473639,Zur Alten 16,Hamburger Landstraße 28b,21465,Wentorf bei Hamburg
985216769,53.5815342,9.7584328,Sakana Sushi Lounge,,,
985216777,53.5815992,9.7546565,Orient Plaza Restaurant,,,
989367852,53.4583965,9.9492096,Achilion,,,
990127250,53.5507932,9.9302802,Luna Sel,Bahrenfelder Straße 86,22765,Hamburg
990145642,53.5516628,9.9274294,Goldene Gans,Rothestraße 70,22765,Hamburg
1004006274,53.5487815,9.9605831,Pizzeria Alt Hamburg,,,
1012079011,53.6050573,10.1590953,Schweinske,Schweriner Straße 8-12,22143,Hamburg
1014523279,53.5409278,10.2137026,Sirtaki,,,
1014523283,53.542398,10.2107522,Castello,Dorfstraße 8,21509,
1015892194,53.5841653,10.0118066,Der Goldbeker,Schinkelstraße 20,22303,Hamburg
1042794480,53.6649913,10.2205611,Ahrensburger Grill - zum Griechen,Ohlendamm 1,,
1067448108,53.5505659,9.965016,Mexiko Strasse,Detlev-Bremer-Straße 43,,Hamburg
1067456409,53.550711,9.9673121,Han-Mi,Kleine Seilerstraße 1,20359,Hamburg
1077489885,53.5554128,9.9264559,El Iberico,Friedensallee 34a,22765,Hamburg
1078579554,53.550376,9.9264178,Drei Sommer,Eulenstraße 57,22765,Hamburg
1079075362,53.55937,9.811272,Dal Fabbro,Blankeneser Bahnhofstraße 10,,
1081849609,53.5637718,9.8079767,Weinhaus Röhr,Blankeneser Landstraße 29,22587,
1081992009,53.5586282,9.8116265,Parsli,Blankeneser Bahnhofstraße 1,22587,Hamburg
1091273938,53.5496604,10.0032663,Mitri Saliba,Springeltwiete 7,,
1091293003,53.5488218,10.0038371,Ciao Bella,Burchardstraße 8-14,20095,Hamburg
1106737067,53.5951563,10.0434838,Kleines Glück,Fuhlsbüttler Straße 181,22307,Hamburg
1107515514,53.6865798,9.8087207,Alte Schmiede,Quickborner Straße 71,,
1123404629,53.5573516,9.9659058,Underdocks,Neuer Kamp 13,,
1130748962,53.5499926,10.0196072,New Spalding Restaurant,Spaldingstraße 130,20097,Hamburg
1148132685,53.6301057,10.0223799,Va Bene,Erdkampsweg 52,22335,Hamburg
1149418516,53.6282455,10.0240634,La Trattoria Italiana,Erdkampsweg 33,22335,Hamburg
1168740804,53.5851319,9.9808748,Poletto Winebar,Eppendorfer Weg 287,20251,Hamburg
1172077778,53.5807792,10.0240506,Supa Panda,Weidestraße 129,22083,Hamburg
1191289194,53.5177548,9.9858065,KÖZ LEZZET,,,
1199204622,53.5797884,9.9642755,China Restaurant Hong Kong,,,
1201130626,53.6570787,9.8081547,Canton,,,
1201130630,53.6623576,9.8054911,Rindocks,Hindenburgdamm 67-69,25421,Pinneberg
1204970516,53.6205536,10.0332188,Ribling,Fuhlsbüttler Straße 755-757,22337,Hamburg
1209170149,53.6657114,10.0785828,Trattoria Mondello,Kramer-Kray-Weg 1,22399,Hamburg
1239635818,53.4317029,9.9831504,,,,
1243684288,53.5205227,10.016069,Nach Amerika,Veddeler Bogen 2,20539,Hamburg
1258383079,53.5741794,10.015371,Farinelli da Franco,Hofweg 68,22085,Hamburg
1263360605,53.5748843,10.019924,La Sorpresa,,,
1269081658,53.4983425,10.2032956,Holstenhof,,,
1269081664,53.5024581,10.2058152,Alt Lohbrügger Hof,,,
1269116638,53.4976345,10.2039217,Kolossos zu Rhodos,,,
1269116654,53.4945588,10.206069,Taverna Nostos,Lohbrügger Landstraße 1,21031,Hamburg
1270976559,53.5594627,9.949321,Trattoria Lili,Holstenstraße 119,22765,Hamburg
1273317462,53.6087665,10.0811934,BSV-Treff,,,
1277163007,53.6129482,10.0246152,Alsterdorfer Kesselhaus,Alsterdorfer Markt 14,22297,Hamburg
1281745332,53.5594781,9.8866364,BLOCK HOUSE,,,
1282070023,53.5490995,10.2397527,Kronos,,,
1288267197,53.6280382,9.8679518,Phönix,Seemoorweg 3,25469,Halstenbek
1288267204,53.6596501,9.7699397,Lodge,,,
1291420821,53.5667111,10.0195345,Pappenheimer Wirtschaft,Papenhuder Straße 26,22087,Hamburg
1291423176,53.5649644,10.0183395,Speisewirtschaft Opitz,Mundsburger Damm 17,22087,Hamburg
1291501877,53.5460708,9.9887613,Nido,,,
1291656937,53.576919,10.0429151,Bascherie,,,
1294186369,53.5462429,9.9875731,Kartoffelkeller,Deichstraße 21,20459,Hamburg
1297301262,53.4990789,10.0246799,Taverna Knossos Palace,,,
1304347564,53.5535325,10.2432792,China Restaurant Zum Grenzkrug,Grenzweg 28,21465,Reinbek
1306984558,53.6010464,9.8220349,Lindos Grill,Hauptstraße 53,22869,Schenefeld
1313996186,53.6308439,9.8720732,asia corner,Heidestraße 94-96,25462,Rellingen
1314554080,53.5525362,10.2510521,Take Home,Möllner Landstraße 4,21465,Reinbek
1315967523,53.5634813,9.9153601,Via Cafélier,Paul-Dessau-Straße 4,22761,
1317462961,53.6402826,9.9479718,Trattoria Pirandello,Nordalbingerweg 17,,
1318030347,53.6363855,9.8408388,Dolce Vita,Poststraße 3,25469,Halstenbek
1323820936,53.6864752,10.104751,Gasthaus Offen,Lemsahler Dorfstraße 39,22397,Hamburg
1329447976,53.5628044,9.9203107,Scottys,Bahrenfelder Steindamm 101,22761,Hamburg
1357756659,53.5543343,9.9288115,Vilai Vegan House,Bahrenfelder Straße 170,22765,Hamburg
1359644851,53.5526877,9.930119,Urfa Tadi,Bahrenfelder Straße 120,22765,Hamburg
1362534994,53.5535231,9.8966374,Röperhof,Agathe-Lasch-Weg 2,22605,Hamburg
1376676140,53.6630436,10.2859082,Taverne Galini,Schaapkamp 3,22927,Großhansdorf
1379109990,53.5698418,10.0614889,Sepideh,Hammer Straße 5,22041,Hamburg
1384209628,53.5588675,10.0129005,le-su,,,
1384359328,53.6778117,10.0011212,Konfuzius,Langenhorner Chaussee 660,22419,Hamburg
1391523547,53.569374,9.9797857,Asia Lounge,Grindelallee 146,20146,Hamburg
1391523608,53.566133,9.9824131,Saito Sushi,Grindelallee 44,20146,Hamburg
1391540147,53.5649588,9.9838261,Mimis Crepes,Grindelallee 24,20146,Hamburg
1393721521,53.5119771,10.2508895,Helena,Am Rosenplatz 6,21465,Reinbek
1393721523,53.5111979,10.2511434,Great Asia House,Bergstraße 1-9,21465,Reinbek
1393721525,53.508753,10.251265,Raman,Bahnhofstraße 4,21465,Reinbek
1393721526,53.5160761,10.242379,Clubhaus der TSV Reinbek,Theodor-Storm-Straße 20,21465,Reinbek
1393721527,53.5216529,10.2432707,Sparks,Hermann-Körner-Straße 49,21465,Reinbek
1395100825,53.5499177,10.002049,Sitt&Satt,Steinstraße 19,20095,Hamburg
1400367311,53.6089427,9.903965,Pergola,Pinneberger Chaussee 4,22523,Hamburg
1413814418,53.4112077,9.9884863,Taverne Olympia,Marquardtsweg 3,21217,Seevetal
1415799081,53.598102,9.853854,Bei Thomas,Altonaer Chaussee 1,22869,Schenefeld
1418010406,53.5442413,9.9998019,DNV Kantine,,,
1425782430,53.5332599,9.8776356,Finkwarder Klönstuv,,,
1429100736,53.5462333,9.9166163,Landhaus Scherrer,Elbchaussee 130,22763,Hamburg
1430074786,53.5523106,10.0391956,4mosa,Eiffestraße 78,20537,Hamburg
1434959085,53.5510508,10.035921,Yafa,,,
1436396649,53.5526833,9.8584725,Quellental,Quellental 36,22609,Hamburg
1442007176,53.5934494,10.0007025,Arizona Steakhouse,Barmbeker Straße 150,22299,Hamburg
1445704139,53.5683274,9.9660811,Jimmy Elsass,Schäferstraße 26,20357,Hamburg
1446965715,53.5589249,10.012957,Hacker-Pschorr,Lange Reihe 97,20099,Hamburg
1451621594,53.585129,9.9821747,Tassajara,Eppendorfer Landstraße 4,20249,Hamburg
1451621596,53.5854226,9.9825459,Deseo,Eppendorfer Landstraße 10,20249,Hamburg
1454125747,53.4499807,9.9663981,Giros King,,,
1455182499,53.4590601,9.9846862,Brasserie,,,
1457137466,53.7162531,10.000048,Soul Sushi Norderstedt,Ulzburger Straße 332b,22846,Norderstedt
1469247247,53.6756894,10.2408563,da Barone,Große Straße 9C,22926,Ahrensburg
1482097663,53.5516082,9.9942517,BLOCK HOUSE,,,
1482101382,53.5489409,9.991526,U|F Pokè Bar,,,
1482103375,53.5485364,10.0020054,Sausalitos,Fischertwiete 2,20095,Hamburg
1482104700,53.5484676,9.999332,Primavera,Hopfensack 18,,
1482105472,53.5497382,10.0011985,Sugarfree,Mohlenhofstraße 4,20095,Hamburg
1484793708,53.6175364,10.0787288,GZeiten,Bramfelder Chaussee 302,22177,Hamburg
1491747983,53.6921322,10.1687085,China Ente,,,
1502029210,53.5634104,9.9900453,Brasserie Flum,Rothenbaumchaussee 10,20148,Hamburg
1502029220,53.5686847,9.9829468,Ottos Burger,Grindelhof 33,20146,Hamburg
1502662514,53.5791406,9.9757229,BLOCK HOUSE,,,
1502662571,53.5800419,9.9746441,Bravocado,Hoheluftchaussee 28,20253,Hamburg
1503301945,53.5736263,9.9631755,Mythos,,,
1503302190,53.5736796,9.9628575,Charm Thai Street Kitchen,Osterstraße 4,20259,Hamburg
1503302192,53.5742486,9.9641868,Zum Olymp,Bismarckstraße 40,20259,Hamburg
1504507573,53.5819717,9.9724428,Moto 59,Eppendorfer Weg 204,20251,Hamburg
1504507697,53.5809055,9.9645456,Trattoria Calabria,Gärtnerstraße 76,20253,Hamburg
1504507714,53.581246,9.964945,Sushi Up,,,
1505478475,53.5841375,9.9779055,Lotusblüte,Löwenstraße 22,20251,Hamburg
1508604273,53.5535128,10.0091867,Chinarestaurant Mei Moon,Bremer Reihe 10,20099,Hamburg
1508604420,53.5531704,10.008894,Ristorante Capri,Kirchenallee 53,20099,Hamburg
1513517639,53.5509922,10.053718,Der Chinese Am Fleet,Borstelmannsweg 77,20537,Hamburg
1524336596,53.5631311,9.9661488,Bullerei,Lagerstraße 34 B,20357,Hamburg
1525291969,53.5631223,9.9652728,Frank und Frei,Schanzenstraße 93,,
1525292000,53.5628854,9.9652949,Omas Apotheke,Schanzenstraße 87,20357,Hamburg
1528073301,53.5506654,9.965068,Maharaja,Detlev-Bremer-Straße 41,,
1554863776,53.5713863,10.0690131,Rondell,,,
1561370936,53.5575446,9.9920472,Hofbräuhaus,Esplanade 6,20354,Hamburg
1561370940,53.5575673,9.9901324,Matsumi,Colonnaden 96,20354,Hamburg
1561370944,53.55427,9.9839613,Stadtküche,,,
1561538987,53.5569964,10.0104417,Bottega Italia Restaurant,Lange Reihe 41,20099,Hamburg
1561538991,53.558786,10.0116047,San,,,
1562338715,53.5830502,9.9665248,S&S Grill & Döner,,,
1562338839,53.585081,9.9694307,Smileys Pizza,Hoheluftchaussee 118,20253,Hamburg
1562385901,53.5746782,9.9624342,Brüdigams,Eppendorfer Weg 98,20259,Hamburg
1562385902,53.5619695,9.9628656,Moraba,Susannenstraße 6,20357,Hamburg
1564055696,53.5451669,9.9754422,DaliBar,Reimarusstraße 17,20459,Hamburg
1564055769,53.549896,9.9956535,Picasso Hamburgo,Rathausstraße 14,20095,Hamburg
1564056620,53.5508928,9.9808026,Thämers,Großneumarkt 10,20459,Hamburg
1566016236,53.6434856,9.9609535,Adyton,Sachsenweg 78,22455,Hamburg
1566016315,53.6421423,9.95943,Lington,,,
1566302564,53.7272532,9.9138396,Die Pizza Profis,Harksheider Weg 99,25451,Quickborn
1567810326,53.5466196,9.9479016,El Brujito,Amundsenstraße 25,22767,Hamburg
1571194414,53.5469434,9.9605214,Kombüse,Bernhard-Nocht-Straße 51,,
1571347879,53.554705,10.0128463,XIV Heilige,,,
1572646381,53.5572468,9.9548469,Wohlers,Thadenstraße 148,22767,Hamburg
1574464372,53.5543619,9.9284589,Balutschistan,,,
1575382531,53.5983535,9.9657586,Rio Grande,Lokstedter Steindamm 7,22529,Hamburg
1575382532,53.585973,9.967264,Taverna Arhontiko,Troplowitzstraße 2,22529,Hamburg
1578708603,53.5134008,10.1746847,Das Treibhaus,Reinbeker Redder 53,,
1579342162,53.549312,10.0012204,Herr Kwong,Burchardstraße 16,20095,Hamburg
1579347994,53.5488615,10.003248,Quan Ngon,Springeltwiete 1,20095,Hamburg
1580788010,53.5509345,9.9122158,Ristorante Vito,Bleickenallee 43-45,22763,Hamburg
1580803988,53.593727,10.1449205,Darbari,,,
1583360236,53.5726412,10.1365786,Serres,Öjendorfer Damm 66,22043,Hamburg
1585944789,53.6648242,10.2202921,Ahrensburger Frühstücksstube,Waldemar-Bonsels-Weg 168,22926,
1588914337,53.5658714,9.894733,LEuropeo,,,
1589271240,53.5711374,9.9232268,Croque Master,,,
1592197715,53.5823149,10.0198574,TYO TYO,Barmbeker Straße 2,22303,Hamburg
1594677143,53.5445506,9.9466087,Oh its fresh,Carsten-Rehder-Straße 71,22767,Hamburg
1595376655,53.5441628,9.9467672,LOsteria,Große Elbstraße 49,22767,Hamburg
1595376656,53.5441286,9.9488079,Hamburger Elbspeicher,Große Elbstraße 39,22767,Hamburg
1597348924,53.5450606,9.9507017,Rado am Hafen,Große Elbstraße 38,22767,Hamburg
1597349442,53.5452778,9.951962,Elbperle,Große Elbstraße 6,,
1599630584,53.5924966,9.9463138,Taverna Omiros,,,
1600859210,53.5622399,9.8183119,Linde,Dockenhudener Straße 12,22587,Hamburg
1603797690,53.4651328,10.2016026,Porter House,,,
1604586006,53.5874415,10.0410794,Oktober,Wiesendamm 10,22305,Hamburg
1604921402,53.5495532,10.0016215,Seoul 1988,Mohlenhofstraße 7,,Hamburg
1606475928,53.6275644,10.0244383,Schweinske Fuhlsbüttel,Hummelsbütteler Landstraße 15,22335,Hamburg
1609562933,53.5736026,10.0711112,Schweinske Wandsbek,Wandsbeker Marktstraße 149-151,22041,Hamburg
1611785406,53.5161949,9.9876337,O Atlantico,Veringstraße 26,21107,Hamburg
1613188107,53.5593726,9.8861668,L italiano Bistro & Vinotec,,,
1616141930,53.5700428,10.0577499,Feuervogel,Wandsbeker Chaussee 303,22089,Hamburg
1616141935,53.5653957,10.0503504,Taverna Mykonos,Roßberg 35,22089,Hamburg
1618694831,53.6077121,9.9061471,Il Tesoro,Kieler Straße 702,22527,Hamburg
1631200361,53.5533019,9.977222,Remter,Holstenwall 12,20355,
1633400952,53.6581443,9.9577302,Kaminski,,,
1640165888,53.6525118,10.1860933,Aegeon,,,
1641501235,53.5747578,10.0182266,Zimmer,Zimmerstraße 34,22085,Hamburg
1642126679,53.553378,10.0671266,Schweinske Hamm,Hammer Landstraße 242-244,20537,Hamburg
1642977832,53.5925221,10.1373244,Chios Grill,Tonndorfer Hauptstraße 176,22045,Hamburg
1645228082,53.607168,10.1165409,Luisenhof & Dubrovnik,Am Luisenhof 1,22159,Hamburg
1650215042,53.523541,10.0154513,Pizzeria Piccola,Wilhelmsburger Platz 14,20539,Hamburg
1652155354,53.5737607,10.0729684,Ristorante Angelo,Wandsbeker Marktstraße 170,22041,Hamburg
1652155436,53.5625003,10.0949775,LEOS,,,
1652773482,53.5993157,9.848518,Bistro Fellini,Lornsenstraße 5-7,22869,Schenefeld
1652802962,53.512823,10.2532552,Il Posto,Schönningstedter Straße 2,21465,Reinbek
1657200835,53.4358767,9.9335165,Restaurant Eichenhof,Bremer Straße 320,21077,Hamburg
1667537396,53.575916,10.0993837,Mylos,Ziethenstraße 12,22041,Hamburg
1670132590,53.5621916,9.9662331,Tapas y Más,Schanzenstraße 72,20357,Hamburg
1670407184,53.5810264,10.0608916,Fisch Haus LOOP,,,
1673829870,53.6097794,9.9043455,Schweinske,Nebenbahnstraße 3,22523,Hamburg
1683751789,53.6187174,10.0291817,Khorshid,Alsterdorfer Straße 537,22337,Hamburg
1684518615,53.5976362,10.0382286,Erdgeschoss,Alte Wöhr 13a,22307,Hamburg
1696448174,53.553456,9.9492539,Gasthaus,Thedestraße 61,,
1696450480,53.554985,9.9420865,Taverna Priamos,Max-Brauer-Allee 80,,
1696704113,53.5577524,9.9669964,cHHurrinos,,,
1697687700,53.5582952,9.9751598,Trattoria Cento Lire,,,
1700274332,53.5458919,9.9557134,Restaurant Fischerhaus,St. Pauli Fischmarkt 14,20359,Hamburg
1700738403,53.5456447,9.9699067,Blockbräu,Bei den St. Pauli-Landungsbrücken 3,20359,Hamburg
1705687533,53.5832094,10.0209965,Peacetanbul auf Kampnagel,Jarrestraße 20,22303,Hamburg
1709289449,53.5546463,10.015315,Lades,,,
1714290451,53.4621235,9.9791381,Da Luigi,Neue Straße 29,21073,Hamburg
1719420560,53.55009,9.933,Trattoria Roma Sparita,Lobuschstraße 24,22765,Hamburg
1722375559,53.5660969,10.0392835,La Piazzetta,Wandsbeker Chaussee 64,22089,Hamburg
1722375562,53.5663449,10.0400517,Talento,Wandsbeker Chaussee 70,22089,Hamburg
1722375568,53.5653707,10.037545,Gute Stube,Wandsbeker Chaussee 40,22089,Hamburg
1724278716,53.5712482,9.986075,Ændrè,Schlüterstraße 86 86,20146,Hamburg
1724290059,53.567791,9.9801169,Ranas Royal,Grindelallee 89,20146,Hamburg
1724294433,53.5675362,9.9803193,Baborrito,Grindelallee 83,20146,Hamburg
1724295426,53.5676431,9.9802476,Akdeniz,Grindelallee 81,20146,Hamburg
1736375139,53.5480709,9.9566867,The Bird,,,
1744112679,53.6052528,10.1605163,Café Olé,,,
1748373630,53.6493346,10.1633173,La Plaza Tapas Bar Restaurant,Claus-Ferck-Straße 9-11,22359,Hamburg
1748697724,53.7099374,10.1301567,Wohldorfer Mühle,Mühlenredder 38,,
1749260390,53.5085141,9.9284301,CTA Kantine,,,
1752703636,53.730784,9.902076,Unico,,,
1757759034,53.5550372,10.0125132,Trattoria,Hansaplatz 12,20099,Hamburg
1759716928,53.5667532,10.0580026,BGW Kasino,Pappelallee 35,22089,Hamburg
1760334958,53.5498605,9.9603011,Asia Quick,,,
1761244782,53.5856174,10.1238861,Asian Fusion,,,
1761244783,53.5860421,10.1239182,New Vietnam,Tonndorfer Hauptstraße 61,22045,Hamburg
1761447528,53.5987132,10.1176193,Herakles,Berner Heerweg 90,22159,Hamburg
1762058228,53.5434249,9.9976735,dean&david,Osakaallee 2,20457,Hamburg
1762155853,53.5751095,9.9576811,Xenios bei Themi,Osterstraße 46,20259,
1762228827,53.5931869,10.0439294,BLOCK HOUSE,Fuhlsbüttler Straße 165,22307,Hamburg
1763478271,53.5387481,9.8637848,,,,
1774101764,53.5495464,9.9981874,Hofbräu Wirtshaus Speersort,,20095,
1776032122,53.4639845,9.80016,Asien Perle,Hauptstraße 35,21629,Neu Wulmstorf
1777821713,53.590291,9.9875056,Cornelia Poletto,Eppendorfer Landstraße 80,20249,Hamburg
1778895829,53.5976125,9.9963789,Ginya,Lattenkamp 8,22299,Hamburg
1778942821,53.5988898,9.9952157,Oniro,Lattenkamp 29,22299,Hamburg
1778947096,53.5969151,9.9972277,Ristorante Arabella,Alsterdorfer Straße 44-46,22299,Hamburg
1780361901,53.5609526,9.9479024,Anno 1905,Holstenplatz 17,,
1781081235,53.5447684,9.9826508,Westminster,Steinhöft 11,20459,Hamburg
1795244180,53.5738043,10.0696706,Annam,,,
1799506144,53.5001879,9.9958004,Kochburg,Mengestraße 20,21107,Hamburg
1800860261,53.5484489,9.9979521,O ren Ishi,Kleine Reichenstraße 4,20457,
1802002407,53.6301771,9.9276328,Asia Crown,Frohmestraße 91,22459,Hamburg
1802833262,53.5830824,9.9761018,Pizzamacher Trattoria,Eppendorfer Weg 244,20251,Hamburg
1804823036,53.6231316,10.0331224,Café Fritz,Fuhlsbüttler Straße 758,22337,Hamburg
1805656164,53.5435357,10.1273932,asiahub,Merkenstraße 41,22117,Hamburg
1806664789,53.5481099,9.9689086,Haus 5,Seewartenstraße 10,20459,
1809976763,53.6637794,10.0237353,Zum Wattkorn,Tangstedter Landstraße 230,,
1811012215,53.5052535,9.9858307,Der Grieche Pavlidis,Veringstraße 159,21107,Hamburg
1811412925,53.5399399,10.135084,Athina,Wegkoppel 1-3,22117,Hamburg
1812248865,53.6642192,10.0238579,Zum Krokodil,Tangstedter Landstraße 232,22417,Hamburg
1812258338,53.665156,10.024345,Happy Palace,Tangstedter Landstraße 244,,
1813245794,53.5696572,9.9676824,Santé!,Moorkamp 6,20357,Hamburg
1815055927,53.4230101,10.0297071,"Tavernaki ""i"" Akropolis",Am Felde 51,21217,
1815055928,53.422761,10.0153682,Poseidon,Bürgermeister-Heitmann-Straße 34c,,
1817385162,53.5437423,9.9891176,Miniatur Wunderland Restaurant,Kehrwieder 2,20457,Hamburg
1821312296,53.5749675,9.8766782,Kantine,,,
1836191802,53.5892394,10.0156075,Pasalo bien,Barmbeker Straße 70-72,22303,Hamburg
1843163059,53.556156,10.017445,Curry Lounge,Steindamm 79,20099,Hamburg
1846396590,53.4895172,10.2092711,Bergers am Serrahn,Serrahnstraße 2,21029,Hamburg
1855698285,53.6080257,10.0716782,Sushi Dreams,,,
1859844999,53.5894515,10.2350606,Stellauer Steak & Fischhaus,Stellauer Hauptstraße 22,22885,
1861252382,53.5672097,10.0455436,Palma,Wandsbeker Chaussee 112,22089,Hamburg
1861253705,53.5675472,10.0453047,Restaurant Cafe Rossio,Wandsbeker Chaussee 117,22089,Hamburg
1862085493,53.6405247,9.9473867,Simple Kitchen,Rudolf-Klug-Weg 9,22455,Hamburg
1863515993,53.53052,10.3120107,Italia Ristorante und Hotel,Am Mühlenteich 3,21521,Aumühle
1868318261,53.5793701,10.0318633,Pastaria,Adolph-Schönfelder-Straße 67,22083,Hamburg
1868653103,53.580843,10.0202133,Di An Di,Bachstraße 145,22083,Hamburg
1868739176,53.5683716,9.9608403,Asian Good Food,Bellealliancestraße 45,20259,Hamburg
1883774190,53.5568266,9.9878851,Ristorante Opera,,,
1883798368,53.5522531,9.9863202,Edelcurry,Große Bleichen 68,20354,Hamburg
1887413556,53.5477965,9.9629175,Copper House,,,
1891826639,53.5451713,10.025466,Alitalia,Hammerbrookstraße 93,20097,Hamburg
1893849853,53.7121051,9.9999726,Sushi Dreams,Ulzburger Straße 302,22846,Norderstedt
1900275268,53.6224996,10.1650078,Adria,,,
1903775612,53.4846961,10.218696,BeLaMi,Holtenklinker Straße 26,21029,Hamburg
1909864468,53.549053,9.993638,I Vigneri,Große Bäckerstraße 13,20095,Hamburg
1909865562,53.549079,9.994276,Le Plat du Jour,Dornbusch 4,20095,Hamburg
1909867251,53.5487448,9.9928621,China Feng,Neß 1,20457,Hamburg
1909868024,53.5487772,9.9926744,Pasta Authentica by Jill,,,
1909870857,53.5489305,9.9926267,o cafe central,Große Bäckerstraße 4,20095,Hamburg
1909870898,53.5489089,9.9930057,Hamburger Deel,,,
1909876428,53.5483262,9.9956544,estancia steaks,Große Reichenstraße 27,20457,Hamburg
1909881246,53.5493795,9.9939237,La Tavola Calda,Kleine Johannisstraße 15,20457,Hamburg
1909891466,53.5501738,9.9930938,Parlament,,,
1911101433,53.5308686,10.3108343,Fürst Bismarck Mühle,Mühlenweg 3,21521,Aumühle
1911101435,53.5311603,10.3133949,Waldesruh am See,Am Mühlenteich 2,21521,Aumühle
1911335503,53.551224,9.980417,Vineria Capriccio,Thielbek 12,20355,
1912131358,53.5523628,9.9805164,Pasteleria Mococo,,,
1912670942,53.555824,9.9881405,Beets & Roots,Gänsemarkt 43,20354,Hamburg
1912676461,53.556079,9.9881058,Mad about Juice,Dammtorstraße 29-32,,
1912682288,53.6523261,10.2602324,Da Lui,Ahrensfelder Weg 10,22927,Großhansdorf
1912718261,53.5534736,9.9870867,Edmondo,Hohe Bleichen 17,20354,Hamburg
1914040900,53.5432538,9.9999693,Alte Liebe,Koreastraße 1,20457,Hamburg
1914040901,53.539839,9.9931975,coast by east,Großer Grasbrook 14,20457,Hamburg
1918543534,53.5555729,9.9884402,Poké Bar,Gänsemarkt 44,20354,Hamburg
1918681280,53.5832859,9.9753622,Morellino,Falkenried 54,20251,Hamburg
1923585458,53.5456544,9.9871062,Ti Breizh,Deichstraße 39,20459,Hamburg
1925268202,53.5570241,9.9879749,LOsteria,Dammtorstraße 12,20354,Hamburg
1925268203,53.557805,9.9892275,Green Papaya,Stephansplatz 6,20354,Hamburg
1930588301,53.583329,9.9757899,Hellas Stube,Eppendorfer Weg 247,20251,Hamburg
1931973729,53.5559526,9.9282078,Cooko,Bahrenfelder Straße 211,22765,Hamburg
1934912946,53.5638325,9.8147721,China Stube,,,
1935146338,53.5549574,9.9905714,Ukitchen,Colonnaden 3,20354,Hamburg
1935146348,53.5563148,9.9906745,Franziskaner,Große Theaterstraße 9,20354,Hamburg
1935146380,53.556706,9.9900996,Tiffany,Colonnaden 37,20354,Hamburg
1937305183,53.5576193,9.9898038,Hamburger Fischerstube,,,
1937305233,53.5574202,9.989859,Il Ristorante Italiano,Colonnaden 47,20354,Hamburg
1937305263,53.5572293,9.9902715,La Pergola Due,,,
1937305289,53.5572896,9.9899153,Die Kartoffelstube,,,
1937305297,53.5576539,9.9900945,Helo do Brasil,,,
1937305302,53.5576835,9.9900812,Fischfeinkost Delikatessen des Meeres,,,
1939965545,53.5160137,10.2475336,Pierro Croque & Paste & Pizza Reinbek,Schulstraße 36,21465,Reinbek
1940123429,53.6264324,10.0295222,Zur Ratsmühle,Ratsmühlendamm 2,22335,Hamburg
1942718735,53.5502888,10.1664515,Die Leckermacher,Meessen 38,,
1942791858,53.5902669,10.0153236,Bodhi,Borgweg 11,22303,Hamburg
1945886223,53.5703985,9.9957157,Suzy Wong,,,
1956683753,53.5598319,9.9271149,Café Altamira,Thomasstraße 4,22761,Hamburg
1979037086,53.5488977,9.9931279,Chen,,20095,
1982847267,53.5898366,9.9861869,Mario,Robert-Koch-Straße 36,20249,Hamburg
1983158538,53.5500899,9.9866467,petite TORTUE,,,
1983595833,53.5461894,9.9813126,Marleys,Schaarsteinweg 4,20459,Hamburg
1987132947,53.5817462,10.0375198,Käthners 23,Käthnerort 23,22083,Hamburg
1987651462,53.5703079,10.0173018,Casa Nova,Hofweg 22,22085,Hamburg
1993355500,53.5562528,10.0094201,Farina di Nonna,Lange Reihe 19,20099,
1997009825,53.4699121,9.8536856,HD Asia Wok,,,
2009644356,53.6760907,10.2050917,Clubheim & Restaurant,,,
2015075186,53.5454707,10.0249283,DAILY,Hammerbrookstraße 89,20097,Hamburg
2021680850,53.5497029,9.9987798,Mr. Cherng,Speersort 1,20095,Hamburg
2026500257,53.5508433,9.9820964,ANAN Streetfood,,,
2026503502,53.553064,9.9832987,vin o vin,Kornträgergang 31,20355,Hamburg
2026506230,53.5501034,9.9805582,Noahs Taverna,,,
2027864541,53.6357304,9.9185545,China Restaurant Ho Schnelsen,Frohmestraße 7,22457,Hamburg
2028032424,53.6353741,9.9189155,Joks,Frohmestraße 11,22457,Hamburg
2028523411,53.6338754,9.9200277,Costa Smeralda,,,
2032408997,53.6317454,9.9200398,Restaurant Dubrovnik,Wählingsallee 8,22459,Hamburg
2035479573,53.5492688,9.9921415,Råbowls,,,
2035479576,53.5494061,9.9929437,Hanoi Deli,Schauenburgerstraße 49,20095,Hamburg
2035479579,53.5495872,9.9933726,mama,Schauenburgerstraße 44,20095,Hamburg
2035513664,53.5485061,9.9886218,Kazoku Sushi,Großer Burstah 42,20457,Hamburg
2046314973,53.5459799,10.1062593,Corfu Grill Imbiss,Schiffbeker Weg 66,22119,Hamburg
2058117420,53.571279,9.9806749,Karlsons,Rutschbahn 15a,20146,Hamburg
2058414039,53.5598218,10.1074792,Thai & Wok,Manshardtstraße 115k,22119,Hamburg
2060678955,53.5488986,10.1087362,Tunici,Schiffbeker Weg 96,22119,Hamburg
2061754475,53.5403343,10.0998299,Maza dOr,Billstedter Hauptstraße 34-36,22111,Hamburg
2063152881,53.676895,10.2402738,Söbentein,,,
2063612223,53.5441635,9.9765538,Galego,Vorsetzen 70,20459,Hamburg
2068108804,53.551946,9.9986344,Café de Artistes,Gerhart-Hauptmann-Platz 70,,
2070264168,53.5563628,9.9616672,Ume No Hana - Pho vs. Ramen Bar,Thadenstraße 15,22767,Hamburg
2070276519,53.5570831,9.9582799,Gekreuzte Möhrchen,,,
2070334067,53.5528205,9.9630827,Mahadosa,Hein-Hoyer-Straße 60,20359,Hamburg
2074417584,53.5789245,9.9551854,,Heußweg 90,20255,Hamburg
2084280778,53.6085472,10.0092943,six tables,Alsterdorfer Straße 285,22297,Hamburg
2087001844,53.5687245,9.9664511,AuthenTikka,Schäferkampsallee 41,20357,Hamburg
2087597778,53.6064689,10.0707749,Hollywood Canteen,Bramfelder Chaussee 165,22177,
2103221947,53.6499451,9.8294944,Taverna Nico,Hauptstraße 35-37,25462,Rellingen
2103962213,53.6757276,10.2479014,Elenas Santorini,,,
2117796143,53.5550746,10.0073719,BACCARA,Ernst-Merck-Straße 4,20099,Hamburg
2121648023,53.5924213,9.9865683,Mazé Mazé,Martinistraße 11,,
2121657208,53.5938955,9.9887352,Gandhi,Eppendorfer Marktplatz 21,20251,Hamburg
2124838272,53.7055712,9.9959691,Restaurant Naxos,Ulzburger Straße 279,22850,Norderstedt
2125700212,53.5501345,9.9806048,Katana Sushi,,,
2125700213,53.55027,9.9809356,Mezedes bei Alexandros,Großneumarkt 58,20459,Hamburg
2125700215,53.5498907,9.9795642,Sushi 153,Großneumarkt 38,20459,Hamburg
2127253818,53.4855907,10.2178021,Taverna Corfu,,,
2127574515,53.5681183,9.9952944,Twenty Six,Mittelweg 26,20148,Hamburg
2130803523,53.5649528,9.9775304,Thai Gourmet,Rentzelstraße 52,20146,Hamburg
2135142108,53.5553669,9.9103988,Achtzehn93,,,
2135382865,53.616537,10.1137989,L Amira,Neusurenland 101,22159,Hamburg
2137983081,53.5509392,9.9816821,La Chance,Wexstraße 33,20355,Hamburg
2137983090,53.5510045,9.9818502,Luna,Wexstraße 31,20355,Hamburg
2137983094,53.5509638,9.9817496,Zum Spätzle,,,
2137983098,53.5511264,9.9823409,Mimosas Brunch Club,Wexstraße 27,,
2138018959,53.551057,9.9815432,Trattoria da Enzo,,,
2145288687,53.5959459,9.9979191,Blumen Börse,,,
2145288742,53.5964589,9.9975247,Mala Kitchen,,,
2145647399,53.7051587,10.1152678,Krögers Kastanie,,,
2148879535,53.5170629,9.9877365,Port Island,Veringstraße 14,21107,Hamburg
2148881572,53.5490231,9.9253163,Dionysos,,,
2148881592,53.549923,9.9250729,il Locale,Große Brunnenstraße 41,22763,Hamburg
2148881594,53.5500691,9.9250475,Karls,Keplerstraße 17a,22763,Hamburg
2157224892,53.6292905,9.8354335,Trattoria Rocco,Dockenhudener Chaussee 20,25469,Halstenbek
2158647585,53.5016355,10.205903,Flavours Steakhouse Restaurant,Leuschnerstraße 72,21031,Hamburg
2171287613,53.6058637,10.1189474,Jacky Chang,,,
2185921330,53.5965,9.9971463,das BISTRO,Alsterdorfer Straße 37,22299,Hamburg
2185960319,53.551907,10.0536371,Hellas Pizza House,Eiffestraße 181,20537,Hamburg
2192467742,53.5853412,10.0275621,Caspars – Café & Bistro,Jarrestraße 60,22303,Hamburg
2200731784,53.5457162,10.0078593,Daruma,Stadtdeich 1,20097,Hamburg
2213582098,53.4884752,10.211586,La Puglia,,,
2225763182,53.6748764,10.2389444,New Long,,,
2244762521,53.4982312,10.0110424,Schweinske,Krieterstraße 18,21109,Hamburg
2251321879,53.5623554,9.9568643,Taj Mahal,Max-Brauer-Allee 248,22769,Hamburg
2251321880,53.5649878,9.9538387,Taverne Ägäis,,,
2264537253,53.5485248,10.0006508,Goot,,,
2270039477,53.7293464,10.2603032,Asia Snack,,,
2270039481,53.7286794,10.2593041,Pizzeria Bargteheide,,,
2272407301,53.4239458,9.9665434,Rasthof Harburger Berge,,,
2273082633,53.5819679,9.947911,Mata Hambre,,20255,
2275119397,53.5657047,9.9822495,Balutschi,Grindelallee 33,20146,Hamburg
2275620479,53.4913657,10.207831,Mersin Tantuni,Alte Holstenstraße 47,21031,Hamburg
2277940560,53.5642226,9.984039,Down Under,Grindelallee 1,20146,Hamburg
2280745470,53.5950949,10.0006901,WRAP sache,,,
2285426198,53.5843085,10.1348001,Zum goldenen Engel,Schöneberger Straße 10,22045,Hamburg
2290064747,53.5573368,10.0108864,Vagueira,Lange Reihe 51,20099,Hamburg
2291479672,53.5859361,10.1236688,Trattoria Amarone,,,
2293526943,53.5533771,10.0025431,Quán Đỏ,Georgsplatz 16,20099,Hamburg
2293912585,53.593521,9.98961,MO - Restaurant,Eppendorfer Marktplatz 12,20251,Hamburg
2295492914,53.5532393,10.0088968,BLOCK HOUSE,Kirchenallee 49-51,20099,
2297053562,53.7026156,9.8300748,Gaststätte Schützenhof,Quickborner Straße 122,25494,Borstel-Hohenraden
2297267349,53.6831251,10.0079815,Yamass,Segeberger Chaussee 51A,22850,Norderstedt
2301142981,53.4874712,10.2098632,Schweinske,Bergedorfer Straße 112,21029,Hamburg
2302165434,53.5529918,10.008928,Hee-Yang;Hee-Yang Sushi & Bar,Kirchenallee 55/56,,
2302166171,53.5568812,10.010275,Das Dorf,Lange Reihe 39,20099,Hamburg
2302169864,53.5531242,10.0089235,Baumanns Bier-Bar,,20099,
2305470286,53.4223291,10.011303,Taverne Antigone,,,
2306291185,53.5711122,9.9814419,Hala mignon,Rutschbahn 17,20146,Hamburg
2306837953,53.545737,9.9929265,Makuri,Steckelhörn 12,20457,Hamburg
2306851008,53.5429514,9.9938926,mama trattoria Hamburg Hafencity,,,
2306851014,53.5429351,9.99366,pan con tomate,,,
2309515919,53.6003994,10.15197,Tunici Restaurants Rahlstedt,Rahlstedter Bahnhofstraße 48,22143,Hamburg
2311068315,53.5985273,9.9970736,Restaurant Beiti,Alsterdorfer Straße 76,22299,Hamburg
2314314974,53.5450521,9.9761067,Lusitano,,,
2315881565,53.5529707,9.9998734,Mitri Saliba,Gertrudenstraße 2,20095,Hamburg
2317640377,53.5472855,10.0263456,Jawa,Wendenstraße 29,20097,Hamburg
2318172225,53.5563972,9.9626853,Mr. Kebab,,,
2319468517,53.5582133,9.962815,SlimJims Pizza,Bei der Schilleroper 1-3,22767,Hamburg
2322460447,53.4883602,10.2084829,HIKARI,,,
2324859657,53.5767686,9.9458189,Odysseus,Hellkamp 1,20255,Hamburg
2324866925,53.5786955,9.9450891,OSole Mio,Methfesselstraße 44,,
2326322190,53.5500587,9.9759761,Alto,Neuer Steinweg 26,20459,Hamburg
2326340591,53.5504192,9.9755853,Petit Bonheur,Hütten 85-86,20355,Hamburg
2327851369,53.5534179,9.9829216,Neu Hue,Kaiser-Wilhelm-Straße 51,20355,Hamburg
2330876452,53.5535198,9.9967375,Alster Lagune,,,
2335487478,53.5486817,9.9975987,Einstein,Schopenstehl 32,20095,Hamburg
2339746661,53.5554896,9.9824167,Saymai,,,
2341650865,53.5929338,10.0030774,Da Vincenzo,,,
2341650872,53.5922617,10.0025456,Froindlichst,Barmbeker Straße 169,22299,Hamburg
2341650873,53.5915618,10.0022374,Lupo,Dorotheenstraße 182a,22299,Hamburg
2341650874,53.5913111,10.0023496,Portomarin,Dorotheenstraße 180,22299,Hamburg
2341650879,53.5678933,9.9800472,Burger Vision,Grindelallee 91,20146,Hamburg
2351651755,53.6573,10.0870867,The Locks,Marienhof 6,22399,Hamburg
2368175804,53.5575866,10.0116507,Qrito,Lange Reihe 68 -70,20099,Hamburg
2376932676,53.6547773,10.0922317,Balducci,Heegbarg 31,,Hamburg
2377688551,53.4428308,10.0909379,Strandhalle,,,
2380479362,53.5781665,10.0153283,Amaranto Tapas & Vino,Winterhuder Weg 146,22085,Hamburg
2398721704,53.5942515,9.9980174,yorisa,,,
2398721726,53.5939324,9.9963759,Ham An,,,
2399713055,53.5376609,10.1117494,Kulinaria,Spökelbarg 20,22117,Hamburg
2399922951,53.5053519,10.0900052,Alberts Restaurant,,,
2410713702,53.5572968,10.011536,Casa Nostra,,,
2411750692,53.5591424,10.0130728,Neumann|s,Lange Reihe 101,20099,Hamburg
2414317847,53.5456604,9.9518581,Pizzamatrosen,Fischmarkt 11,,
2415328638,53.6064097,9.8741349,Taverna Naxos,Franzosenkoppel 104c,22547,
2415664792,53.5677438,9.9953895,La Bottega,Mittelweg 24,20148,Hamburg
2418969269,53.4728545,9.9255948,,,,
2430131292,53.5467278,9.9690756,Port,,,
2430769434,53.4690207,9.7978413,Restaurant Zum Dorfkrug,Grenzweg 1,21629,Neu Wulmstorf
2438733953,53.5455547,10.0000397,WASSERSCHLOSS,Dienerreihe 4,20457,Hamburg
2439119352,53.6670102,10.221695,La Casetta,Rantzaustraße 136,,
2439265402,53.6908152,10.0411775,Barolo,Segeberger Chaussee 241,22851,
2441784664,53.5449071,10.0027973,Rudolphs,Poggenmühle 5,20457,Hamburg
2453934562,53.5786414,9.9507549,Restaurant Zeus,Stellinger Weg 16,20255,Hamburg
2454221869,53.5462381,9.9762693,Ciao Ana,Ditmar-Koel-Straße 8,20459,Hamburg
2465058856,53.5494038,10.0016606,Pho Tinh,Altstädter Straße 23,20095,Hamburg
2471525477,53.544185,10.0141099,Imbiss,,,
2478824420,53.5969085,10.000609,Gallo Bianco,Himmelstraße 18,22299,Hamburg
2490900022,53.5557797,9.9218921,Taverna Elia,Friedensallee 57,22765,Hamburg
2496465166,53.5295686,10.1492406,Artemis,Mümmelmannsberg 80,22115,Hamburg
2497020543,53.5464004,9.8635655,Restaurant Engel,,22609,
2499750255,53.5779909,10.0213265,Curry Pirates,,,
2501587048,53.5458954,9.952972,Alt Helgoländer Fischerstube,Fischmarkt 4 a-c,20359,
2506214967,53.5890374,10.0980556,Mongolei,Friedrich-Ebert-Damm 143-145,22047,Hamburg
2517719355,53.5412506,9.9864432,green lovers / Hafencity,Am Kaiserkai 65,20457,Hamburg
2520339753,53.5960103,10.0431605,Taormina Barmbek,Fuhlsbüttler Straße 227,22307,Hamburg
2524030540,53.4082399,10.01629,La Boca - Steaks & More,Glüsinger Straße 123,21217,Seevetal
2524460088,53.6383778,10.0940186,Soul Sushi Sasel,Saseler Chaussee 63,22391,Hamburg
2531229922,53.4887999,10.2081193,Fortaleza Steak House,Serrahnstraße 9,21029,Hamburg
2531920521,53.5456347,9.9745558,Luigis,Ditmar-Koel-Straße 21,20459,Hamburg
2543781201,53.5488767,9.9686877,Haus 5 Bistro,,,
2544019164,53.5476111,9.9364612,San Lorenzo,,,
2544020916,53.5471769,9.9364862,Barcelona,,,
2550319322,53.5410897,9.9909836,Bootshaus,Am Kaiserkai 19,20457,Hamburg
2552237865,53.4582039,9.9669338,Croccizz,,,
2558473153,53.5927583,9.9868437,MẬU,Martinistraße 14,20251,Hamburg
2561134300,53.5607729,9.9475039,La Catalana,,,
2569402430,53.5841718,10.0224048,LOrient,Jarrestraße 22,22303,Hamburg
2569441696,53.5885033,10.0112791,BistroKitchen 53°Nord,Gottschedstraße 13,22301,Hamburg
2571598043,53.5623434,9.9619409,Piazza,Schulterblatt 84,20357,Hamburg
2571598053,53.5623802,9.9619026,Napoli,Schulterblatt 84,20357,Hamburg
2573624742,53.5519945,9.9645477,Tazzi Pizza,Rendsburger Straße 14,20359,Hamburg
2575312064,53.5654751,10.0191272,Spanische Treppe,Armgartstraße 7,,
2584251305,53.6529965,10.1034227,King of Sushi,Stadtbahnstraße 39d,22393,Hamburg
2587704912,53.5593778,9.8827232,Russanos,,,
2590257263,53.5418258,10.1109845,Palastküche,Öjendorfer Weg 30a,22119,Hamburg
2590568297,53.5402357,10.1018453,Meram,Billstedter Hauptstraße 47,22111,Hamburg
2597367050,53.5714085,9.9882259,Sushi Lô,Rothenbaumchaussee 105,20148,Hamburg
2599412838,53.5664954,9.9880382,Shalimar Gardens,Johnsallee 64,20146,Hamburg
2599412841,53.5711662,9.9882876,Cucina DElisa,Rothenbaumchaussee 101,20148,Hamburg
2608322478,53.5706634,9.9851567,Pinakas,Grindelhof 64,20146,Hamburg
2610882352,53.5593276,9.9637837,Sushi Lo,Schulterblatt 3,20357,Hamburg
2613336386,53.5972117,10.0708648,Home Sweet Home,Haldesdorfer Straße 36 b,,
2619705663,53.5614902,9.9621816,Piri Piri,Schulterblatt 63,20357,Hamburg
2621136414,53.5913862,10.1453659,Bacchus,Ellerneck 58,22149,Hamburg
2621306492,53.5820995,9.979474,Piment,Lehmweg 29,20251,Hamburg
2637058583,53.4724766,9.849819,Kaiser-Pavillon,,,
2638783730,53.510694,10.2510554,,,,
2644305058,53.5635549,9.9921098,HENRIKS Bar & Restaurant,Tesdorpfstraße 8,20148,Hamburg
2652355241,53.5522579,9.9392569,Klippkroog,,,
2657909235,53.561624,9.9540737,Brückenstern,,,
2660258868,53.4574188,9.9791258,Paros Grill,,,
2684081114,53.574456,9.9616295,Thai-Gourmet-Imbiss,,,
2684098214,53.6193509,10.0974517,Kim Chi,Fahrenkrön 146,22179,Hamburg
2697618614,53.5807372,9.7930466,Memory,Sülldorfer Landstraße 222,22589,Hamburg
2709275276,53.5814907,9.9704127,Pizzeria al Volo,Eppendorfer Weg 211,20253,Hamburg
2711784417,53.574542,10.0733116,Viet Quán,,,
2712484817,53.608645,9.8415361,Taverna Pegasus,Friedrich-Ebert-Allee 3-11,22869,
2712484819,53.6078266,9.8401686,Dubrovnik,Lornsenstraße 111 a,22869,Schenefeld
2713620703,53.5451374,9.9760789,Casa Franco Caramba,,20459,
2715894596,53.5361789,10.11795,Saloon,Kapellenstraße 22,22117,Hamburg
2721194223,53.6324759,9.9090683,Mi Pho,,,
2732927720,53.4376001,10.197401,Gasthof Hitscherberg,,,
2736146008,53.5531412,9.9227298,Nardos,Große Brunnenstraße 105-107,22763,Hamburg
2740989836,53.6338249,10.0225021,ARIA – ristorante italiano,Bergkoppelweg 70,22335,Hamburg
2745623307,53.4858969,10.2148072,HÀ DĂNG,Bergedorfer Straße 152,21029,Hamburg
2747521451,53.4414439,10.0034514,Momento Di Due Königsberg,Reeseberg 178,21079,Hamburg
2754546949,53.5807734,9.7920419,Tibet,Sülldorfer Landstraße 230,22589,Hamburg
2768538721,53.5350525,9.779133,Altes Fährhaus,,,
2768538722,53.5348368,9.7784998,Zur Post,,,
2772661832,53.5446029,9.9436057,Hummer Pedersen,Große Elbstraße 152,22767,Hamburg
2774660923,53.4873001,10.213375,Ma Maison Tapas Bar,,,
2779032057,53.4862333,10.2131557,Sushibar,Bergedorfer Straße 138,,
2790798388,53.5479178,9.9625365,Cuneo,Davidstraße 11,20359,Hamburg
2791433888,53.6416595,10.0806106,mama,Wellingsbüttler Weg 119,22391,Hamburg
2791494038,53.572357,9.9780037,Dai Nam,Beim Schlump 1,20144,Hamburg
2795329720,53.7313469,9.899068,Peperonico,Bahnhofstraße 11,25451,Quickborn
2820089466,53.5512059,9.9659906,east Restaurant,Simon-von-Utrecht-Straße 31,20359,Hamburg
2829541801,53.5599547,9.9637965,Jim Burritos Cantina,Schulterblatt 12,20357,Hamburg
2833526955,53.5104947,10.2511789,Tavola Calda,Hamburger Straße 2,21465,Reinbek
2836400406,53.5574736,9.9699334,Karofisch,Feldstraße 32,20357,Hamburg
2839302162,53.549239,9.9648019,Man Wah,Spielbudenplatz 18,20359,Hamburg
2839302163,53.5489619,9.9649012,Thai Town,Taubenstraße 23,20359,Hamburg
2839642074,53.5488236,9.9649205,Shikara,,,
2845607721,53.5499368,10.0027183,Huang,,,
2855485902,53.4681529,9.7912329,Kartoffelhaus Papas,Bahnhofstraße 39,21629,Neu Wulmstorf
2861525550,53.5928378,9.9921741,Trattoria Campo,Ludolfstraße 43,20249,Hamburg
2863208624,53.5829238,10.017927,mama trattoria,Gertigstraße 61,22303,Hamburg
2867190188,53.6035609,10.0395239,Gasthaus Q21,Fuhlsbüttler Straße 405,22309,Hamburg
2880453378,53.5853073,10.0261404,Lus Asian Food,,,
2897519348,53.5538898,9.963075,Trattoria Remo’s,,,
2901706591,53.5518174,10.0027038,Cafe Vivet,,,
2906123529,53.5939321,9.9883968,Morgenmuffel,Eppendorfer Landstraße 144,20251,Hamburg
2907499344,53.5115125,10.251587,La Stella,Am Rosenplatz 2,21465,Reinbek
2908869601,53.5505276,9.9619991,Trattoria Palermo,Hein-Hoyer-Straße 11,20359,Hamburg
2909009114,53.5941401,9.9874383,Dametto,Erikastraße 70-72,20251,Hamburg
2909009120,53.5943822,9.9875138,Taverna Symposion,Erikastraße 74,20251,Hamburg
2909042316,53.6472889,9.910053,Marathon,Roman-Zeller-Platz 2,22457,Hamburg
2912604662,53.5641421,9.8130439,asiahub,Sülldorfer Kirchenweg 2,22587,Hamburg
2918515629,53.5922537,9.9872161,Raw Like Sushi,Martinistraße 5,20251,Hamburg
2919467708,53.5667829,9.9648928,Ilncontro da Cosimo,Weidenallee 25,20357,Hamburg
2919467721,53.5678926,9.9642426,Trattoria da Leandro,,,
2923284581,53.4940787,10.2066606,Schweinske,Alte Holstenstraße 2,21031,Hamburg
2923482309,53.4915204,10.2074321,Huang,Alte Holstenstraße 42,21031,Hamburg
2923998473,53.5585304,9.9394787,Tibet,Harkortstieg 4,22765,
2928971748,53.5608016,9.9679653,Schlachterbörse,,,
2938763386,53.5457329,9.987144,Schönes Leben,Deichstraße 37,20459,Hamburg
2938809801,53.5708905,9.9848171,Neumanns,Grindelhof 77,20146,Hamburg
2939052495,53.583703,10.0106304,Madrigal,Semperstraße 4,22303,Hamburg
2939054203,53.5834835,10.0100221,[Stamm]tisch,,,
2944710607,53.5685663,9.972252,Pizzeria am Schlump,Beim Schlump 53,,Hamburg
2960060293,53.4850938,10.1990972,Ristorante Mamma Mia,Am Güterbahnhof 17e,21035,Hamburg
2989193822,53.5657091,9.9327866,Küchenfreunde Kraftwerk,Leverkusenstraße 54,22761,Hamburg
2997154298,53.483846,10.2111897,Imbiss Frascati Platz,Neuer Weg 64a,21029,Hamburg
3008724783,53.6579048,9.8067875,ROLIN,Fahltskamp 48,25421,Pinneberg
3008761183,53.5429328,10.0004819,STRAUCHS FALCO,Koreastraße 2,20457,Hamburg
3009954132,53.5818779,10.0139502,Authentikka,Schinkelstraße 2,22303,Hamburg
3032022520,53.5486529,10.0039123,Körri,Springeltwiete 2,20095,Hamburg
3032052910,53.5486202,10.0032809,Im Sprinkenhof,Burchardstraße 8,20095,Hamburg
3034379336,53.5498885,9.9954289,De Marco,,,
3034488739,53.5700831,9.8967993,Il Cortile,,,
3035314035,53.5842197,10.0225849,New Saigon,Jarrestraße 24,22303,Hamburg
3054397314,53.6938495,10.0277604,Bella Italia,,,
3059330834,53.630536,10.1105189,Hobenköök,Karlshöhe 60D,22175,Hamburg
3067939229,53.6382381,9.7871063,Lust auf Sizilien,Voßbarg 12,25421,Pinneberg
3077517874,53.5806951,9.9425507,Parea,,,
3088860065,53.5706734,9.9964923,Pluto,,,
3116289817,53.5527852,9.9306901,My Poké,Große Rainstraße 13,22765,Hamburg
3117553207,53.5500939,9.9624213,Mahajivan,Hein-Hoyer-Straße 10,,
3125094806,53.5453933,9.9759234,Ristorante L´Ancora,Karpfangerstraße 20,20459,Hamburg
3132045666,53.5461018,9.9749291,Mar Salgado,Reimarusstraße 4,20459,Hamburg
3139335723,53.5806517,9.9389875,Seoul 1988,Müggenkampstraße 86,20257,Hamburg
3140569514,53.5740167,10.0021864,AlsterCliff,,,
3142668476,53.5410144,9.9910382,Pasta Pasta,Am Kaiserkai 19,20457,Hamburg
3148220802,53.5544075,9.9288154,Lorient,Bahrenfelder Straße 172,22765,Hamburg
3161205462,53.55047,9.9821161,Karlsons,Alter Steinweg 10,20459,Hamburg
3163925859,53.5775082,10.0178817,Das Joy,Winterhuder Weg 69,22085,Hamburg
3164658617,53.6635597,10.0747345,San Daniele,Langenhorner Straße-Ost 7,22399,Hamburg
3176624396,53.5555409,9.9915198,Jahreszeiten Grill,Neuer Jungfernstieg 9-14,20354,Hamburg
3197246864,53.6019839,10.0411411,Tunici,Fuhlsbüttler Straße 388,22309,Hamburg
3198447641,53.5529069,9.9905334,Yoshi,,,
3204701130,53.5416555,9.9956111,Nissis Kunstkantine,Am Dalmannkai 6,20457,Hamburg
3206732066,53.5707379,9.9713255,Taverna Jota & Jorgos,Gustav-Falke-Straße 30,20144,Hamburg
3206749001,53.568443,10.0920078,Hong Kong Wok,Kielmannseggstraße 63a,22043,Hamburg
3208323809,53.5794577,9.8730171,Clubhaus,,,
3222189144,53.5437552,9.9954557,cantinetta ristorante,,,
3232092126,53.5756697,9.9552853,ănici,Emilienstraße 22-24,20259,Hamburg
3232092127,53.57733,9.9483165,L´Orient,Osterstraße 146,20255,Hamburg
3232112583,53.5804351,9.9571122,Hatari Pfälzer Stüble,Heußweg 113,,Hamburg
3232734266,53.6287006,9.9311966,Brimborium,Frohmestraße 110,22459,Hamburg
3248392178,53.682397,9.9872833,Restaurant Yang-Zi,Europaallee 21,22850,Norderstedt
3252612352,53.5754726,9.9541348,[ku’o:],Osterstraße 91,20259,Hamburg
3265265482,53.7067724,9.9961022,Fantasia bei Alberto,Rathausallee 10,22846,Norderstedt
3265265487,53.7074917,9.9935586,Hopfenliebe Brauhaus,Rathausallee 60,22846,Norderstedt
3265978813,53.5568782,9.9660757,Markt Koenig,,,
3266553360,53.5497036,9.9989738,Burgerlich,Speersort 1,20095,Hamburg
3267185486,53.4978283,10.0095916,Mina,,,
3267189781,53.5568986,9.9655155,kofookoo,,,
3267561311,53.5446758,9.9152103,Das weisse Haus,Neumühlen 50,22763,Hamburg
3267580879,53.5446861,9.9148128,övelgönner fährhaus,Neumühlen 53,22763,Hamburg
3268903192,53.6575144,9.8699059,"Speisenwirtschaft, Bed&Breakfast und Café",Hauptstraße 1,25474,Ellerbek
3276628438,53.5529526,9.9586228,Trattoria 500,Paul-Roosen-Straße 19,22767,Hamburg
3276691064,53.5543439,9.9894716,Eat Restaurant,,,
3280277161,53.5565298,9.9280171,Pizza Al Taglio,,,
3280992082,53.5472005,9.9631652,waterkant,Bernhard-Nocht-Straße 97,20359,Hamburg
3281180299,53.5589612,10.0253025,Novo2,,,
3282509813,53.5539294,10.0905101,BENTOSushi & Asian cuisine,Hermannstal 37,22119,Hamburg
3294909267,53.5431815,9.9996197,Catch of the Day,Koreastraße 1,20457,Hamburg
3295500274,53.6097719,10.0523635,Steils Hope,,,
3301111866,53.5105981,10.2347551,Dubrovnik,Am Ladenzentrum 4,21465,Reinbek
3308484661,53.5485248,9.9964557,Le Quán Hamburg City,Alter Fischmarkt 1,20457,Hamburg
3308509865,53.5486556,9.9964863,Brooklyn Burger Bar,,,
3319732476,53.549642,9.994757,Alexandros,,,
3319762847,53.5493857,9.9927848,Garduong,Schauenburgerstraße 55,20095,Hamburg
3334305818,53.4649541,9.7934796,Thanh Thanh,,,
3340558794,53.5483047,10.0000134,IVY,Hopfensack 8,20457,Hamburg
3358599864,53.5539757,9.9986067,Grill Royal Hamburg,Ballindamm 17,20095,Hamburg
3380243647,53.5524823,10.0013289,Cantina Centrale,,,
3381652357,53.4985791,9.9868335,Die Elbinsel,,,
3386527866,53.552283,10.0051795,Shudu,,,
3387957398,53.5575879,9.9752241,Wabisabi Ramen,Karolinenstraße 6,20357,Hamburg
3387957403,53.5586839,9.9752068,ai yêu ᴉɐ,Karolinenstraße 16,20357,Hamburg
3387957406,53.5593151,9.9752084,XeÔm Eatery,Karolinenstraße 25,20357,Hamburg
3389827578,53.5924109,10.043956,Indian Temple,Fuhlsbüttler Straße 159,22305,Hamburg
3396311416,53.5647698,9.9705152,Mövenpick,Sternschanze 6,20357,Hamburg
3397354112,53.5462642,9.9936648,Pure,Grimm 15,20457,Hamburg
3409011528,53.5705082,9.9851073,Küchenfreunde,Grindelhof 64,20146,Hamburg
3409018130,53.5822289,9.9795363,Küchenfreunde,Lehmweg 30,20251,Hamburg
3409690335,53.5452038,9.9912842,Weinrestaurant Schoppenhauer,,,
3414382744,53.4215118,10.287247,Zur Elbaussicht,Elbstorfer Straße 59,21423,Drage
3416303643,53.5151686,10.2277302,Meyrs Bistro,Glinder Weg 25,21465,Reinbek
3423593371,53.4667313,9.9708621,BLACK ROCK Bar&Grill Hamburg,,,
3427301039,53.5668825,9.968811,El Toro,,,
3431286435,53.5751885,9.8893799,Le Jardin,,,
3442741798,53.577555,9.9481174,Taverna Samos,Osterstraße 150,,Hamburg
3446416114,53.4176578,10.0267108,Eat Indisch,Appenstedter Weg 38c,21217,Seevetal
3446774039,53.5699194,9.9667635,MAZZA,Moorkamp 5,20357,Hamburg
3446783254,53.6581542,10.0854775,MAZZA,Poppenbütteler Weg 236,22399,Hamburg
3447352522,53.5816651,10.0108784,Salentino,Poelchaukamp 1,22301,Hamburg
3447369806,53.5808992,10.0122611,Liman Fischrestaurant,Mühlenkamp 16,22303,Hamburg
3448986380,53.5449213,9.9763762,Caramba Especial,,,
3448986387,53.5452204,9.976038,Casa Ricardo,,,
3449380611,53.6013284,10.1543305,NebenanNahDran,,,
3450642926,53.570632,9.99627,Osteria da Francesco,Milchstraße 3-4,20148,Hamburg
3450972376,53.6044854,10.1556479,Ciao Bella,,,
3451768810,53.573059,10.0184558,San Michele,Kanalstraße 22,22085,
3453728616,53.5655567,9.8566076,Hemming Way,Hemmingstedter Weg 140,22609,Hamburg
3460269184,53.6051602,10.1608667,Budai,,,
3461615693,53.5958651,10.151082,Karyatis,,,
3461615694,53.595628,10.1497668,Mr. Wu,,,
3462066541,53.5454016,9.9766785,A Varina,Karpfangerstraße 16,20459,Hamburg
3462081564,53.5456295,9.9750663,Pastalozzi,Reimarusstraße 10,20459,Hamburg
3470966059,53.5539718,10.0112904,Badshah Restaurant,Bremer Reihe 26,,
3471968813,53.562207,9.8124035,Mama Trattoria,,,
3475307581,53.5613215,9.9606332,Bistro Carmagnole,Juliusstraße 18,22769,Hamburg
3486403709,53.5932612,9.9894725,Shukria Quick,Heinickestraße 1,20249,Hamburg
3487675902,53.5770368,9.9522818,Hoång Deli,,,
3487675903,53.5760315,9.9531918,La Pergola,Osterstraße 100,20259,Hamburg
3487675904,53.576003,9.95333,Alpenkantine,Osterstraße 98,20259,Hamburg
3494420101,53.5664808,9.9655635,Café Mexico,Weidenallee 6,,Hamburg
3511002579,53.5919359,9.9733259,Mitarbeiterrestaurant UKE,,,
3517593395,53.557979,9.975836,Claudios,,,
3518176998,53.4933467,10.1979627,Deliberger Restaurants,,,
3523865993,53.5514099,9.9310617,Petit Amour,Spritzenplatz 11,22765,Hamburg
3528147948,53.6803225,10.2351347,Kroatien,,,
3530661294,53.5502836,9.968043,Texs Bar-b-q,,,
3544816798,53.5448087,9.9392334,Restaurant FUGU by Sushi Factory,Große Elbstraße 212,22767,Hamburg
3544912393,53.5448446,9.9386106,Poke Bar,,,
3544921594,53.5443387,9.9403667,The Big Balmy,Große Elbstraße 117-133,22767,Hamburg
3548251371,53.5875175,10.0471943,Morgenland,Pestalozzistraße 19,22305,
3556504881,53.5494518,9.8527069,Hanseatic,,,
3558110295,53.5546544,10.0084813,Dim Sum Haus Restaurant China,Kirchenallee 37,20099,Hamburg
3565698197,53.5800277,10.0360247,Caruso,Weidestraße 49,22083,Hamburg
3575403208,53.5467367,9.969359,Hafen Diner,Seewartenstraße 9,20459,Hamburg
3586836375,53.5925113,9.9922167,Kyodai,,,
3586836381,53.5929673,9.9918318,Yoko Sushi,Ludolfstraße 41,20249,Hamburg
3588227827,53.5544677,9.9284699,Carlos Coffee,Bahrenfelder Straße 169,22765,Hamburg
3590832805,53.5415042,9.9876131,Mavi,Am Kaiserkai 46,20457,Hamburg
3590832812,53.5441443,9.994497,Cantinetta Ristorante & Bar,Pickhuben 3,20457,Hamburg
3597178529,53.557494,9.9692103,Marend,,,
3616139231,53.5672862,9.9690142,lam vegan,,,
3616139233,53.5671891,9.9688372,Williamine,,,
3618318680,53.5496614,10.0253789,Stulle Plus,,,
3656262830,53.5543487,10.0124453,Masala Lounge,,,
3656582501,53.5442542,9.9388303,Lust auf Italien,Große Elbstraße 133,22767,Hamburg
3656732790,53.5444227,9.9388857,Yin Seafood,Große Elbstraße 133,22767,Hamburg
3656732791,53.5445848,9.9424234,Marseille,Große Elbstraße 164,22767,Hamburg
3656847901,53.5520257,9.9404884,Köz Sultan,Große Bergstraße 243,22767,Hamburg
3656956598,53.5525971,9.9370138,Alem do Tejo,Max-Brauer-Allee 53,22765,Hamburg
3656956602,53.5524893,9.9376838,The Saloon Steakhouse,,,
3662142433,53.5544245,10.008576,Theaterkeller,,,
3662142434,53.5547941,10.0084204,Stadt Restaurant,,,
3662352854,53.545224,9.976325,A Casa Do Benfica,,,
3663057935,53.5772495,9.9467667,Little Buddha,,,
3663771373,53.5791665,9.9464729,Azeitona,,,
3663810717,53.578654,9.9438966,Dos Amigos,Sillemstraße 74,20257,Hamburg
3664754339,53.5574472,9.9703757,Happenpappen,Feldstraße 36,20357,Hamburg
3664989234,53.5463351,9.9893898,Chango,,,
3665902020,53.582387,9.9773818,La Quesadilla,Falkenried 30,20251,Hamburg
3668975488,53.5751582,9.944164,Lehmitz,,,
3670810380,53.5525124,9.9844226,Thiemanns,,,
3670861244,53.5483132,9.9966584,beets&roots,,,
3670861245,53.5485037,9.9988435,Perle,,,
3671923088,53.5778507,9.9471841,Thang Long One,,,
3671923090,53.5779709,9.9470659,Tokio Sushi,Osterstraße 167,20255,Hamburg
3672195544,53.543672,9.9972082,Andronaco HafenContor,,,
3672330500,53.5567561,9.9750604,Seoul 1988,Karolinenstraße 1,20357,Hamburg
3672359336,53.548472,9.9629465,Holy Kitchen,,,
3672359339,53.5487603,9.9634226,Gassenhauer,,,
3673293489,53.5502465,9.9620664,Freudenhaus,Hein-Hoyer-Straße 7-9,20359,Hamburg
3673299756,53.5562983,9.9633511,Nil,Neuer Pferdemarkt 5,20359,Hamburg
3675478218,53.5525312,9.9998507,Sakura Udon,Rosenstraße 8,20095,Hamburg
3675478219,53.5533184,9.9989951,Smietana,,,
3676373841,53.5642087,9.9163201,Ashirwad,Bahrenfelder Chaussee 27,22761,
3679386456,53.5479704,9.9804079,Restaurant Krameramtsstuben,,,
3686116363,53.5878452,10.0457672,Soulkebab,Fuhlsbüttler Straße 97,22305,Hamburg
3686157709,53.5918552,10.0438712,Beyoğlu,Fuhlsbüttler Straße 151,22305,Hamburg
3693852642,53.6757549,10.2402208,New Mongolei,,,
3695929853,53.5426486,10.0029903,The Table,Shanghaiallee 15,20457,Hamburg
3700035433,53.5679294,10.0470447,Nordmeer,Wandsbeker Chaussee 155,22089,Hamburg
3710972195,53.6321746,10.0255833,Shanghai,Kleekamp 1,22339,Hamburg
3710974981,53.6325286,10.0256085,Meine Pizzaliebe,Kleekamp 5,22339,Hamburg
3711775640,53.6303768,10.0145664,Asia-Wok,,,
3712609521,53.5517883,10.0009813,Prego,Lilienstraße 36,,
3715827359,53.5808711,10.0118709,AN Vegan House,Mühlenkamp 19,22303,Hamburg
3715979925,53.5459743,9.9852117,Mai Asia,Rödingsmarkt 43,20459,Hamburg
3718968876,53.5824981,10.0173252,Santa Fe,Geibelstraße 12,22303,Hamburg
3719045851,53.5913837,10.0023395,W die Weinbar,,,
3719069074,53.5918797,10.0021879,Ky Lan,,,
3722036276,53.5629893,10.0328441,Qasr,Lübecker Straße 119,22087,Hamburg
3726158393,53.5453139,9.9673737,Fischpfanne,,,
3726158394,53.5453837,9.965967,"Steak, Fish und Schnitzelhouse",,,
3726686319,53.5451817,9.9695011,Captains Dinner,,,
3726686320,53.5449946,9.9708451,Dockline,Bei den St. Pauli-Landungsbrücken 1-2,20359,
3727886210,53.54525,9.9679289,Fischkajüte,,,
3727886212,53.5454275,9.9643528,Hafenwirtschaft Hamburg,,,
3730326116,53.6335688,9.9068673,Zensai,Pinneberger Straße 28,22457,Hamburg
3733653407,53.5445503,9.9440426,Mash,Große Elbstraße 148-150,22767,Hamburg
3737034810,53.5498676,10.035543,Delhicious,,,
3744020247,53.5490537,9.9575912,Pizza Bande,Lincolnstraße 10,20359,Hamburg
3749718615,53.5494844,10.0224216,La Rosa,,,
3758950381,53.5054566,9.9858564,Wat Dat Pho,Veringstraße 157,21107,Hamburg
3759350407,53.546294,9.9961373,Gröninger Brauhaus,,,
3763070974,53.5685083,9.9720444,Schacht Deli,,,
3763238296,53.5920139,9.9730668,Pizza Pasta Bar,,,
3764329457,53.5837845,9.9702443,Tam Quan,Hoheluftchaussee 90,20253,Hamburg
3767320892,53.5499894,9.9624496,Piceno,Hein-Hoyer-Straße 8,,
3769323219,53.5690723,9.9640527,SomeDimSum,Weidenallee 60,20357,Hamburg
3770365683,53.5999266,9.996378,echt asien,Alsterdorfer Straße 85,22299,Hamburg
3770912909,53.5965086,10.0308475,Espinal,Saarlandstraße 69,,Hamburg
3773174497,53.5483395,9.9628296,Taverna Hellas,,,
3773225575,53.5488442,9.9623088,Com Nieu 21,Davidstraße 21,20359,
3774659813,53.546624,9.9967666,Kornhauskeller,Brandstwiete 50,20457,Hamburg
3779745344,53.5499141,9.9621512,Chingu,Hein-Hoyer-Straße 3,20359,
3789622002,53.5539169,9.9993897,La Cosecha,,,
3796041108,53.5766178,10.0597443,Papaye,,,
3797279631,53.5570838,10.1207913,adam&sophie Hornungs Gastronomie,,,
3801101790,53.5892933,10.045147,Amadeus,Fuhlsbüttler Straße 113,22305,Hamburg
3802077761,53.5487474,10.0013066,boname,Burchardstraße 17,20095,Hamburg
3802085801,53.5471794,10.0063896,Berliner Bahnhof,Deichtorstraße 1-2,,
3807431316,53.5486008,9.9924708,Hans im Glück,Börsenbrücke 10,20457,
3807461868,53.5463634,9.9877807,Trattoria Tropea,Deichstraße 17,20459,Hamburg
3807461871,53.5460965,9.9874395,Zum Brandanfang,Deichstraße 25,20459,Hamburg
3807461872,53.5461625,9.9874967,Deichgraf,Deichstraße 23,20459,Hamburg
3807484085,53.5454782,9.9870194,Alt Hamburger Aalspeicher,Deichstraße 43,20459,Hamburg
3807484086,53.5455529,9.9870646,Fisch&Co,,,Hamburg
3815608036,53.5876287,10.0467373,Sira,,,
3819807681,53.5516056,9.9464108,Pizzeria Zamazingo,Große Bergstraße 171,22767,Hamburg
3819807686,53.5515424,9.9468466,Sait Köz,,,
3852136297,53.5923402,10.0445222,New Balochistan Barmbek,Fuhlsbüttler Straße 172a,22305,Hamburg
3857054606,53.5521051,10.0137315,Teheran,,,
3865924058,53.5797749,10.0126867,Kazu Ramen Bar,Mühlenkamp 1,22303,Hamburg
3874810065,53.5759951,9.8862283,Saalbach,,,
3877293950,53.5575561,9.9144226,Pizzaservice Mundfein,Grünebergstraße 85,22763,Hamburg
3878858457,53.6777281,10.0011467,Schweinske,Langenhorner Chaussee 660,22419,Hamburg
3889592084,53.551034,10.0029376,Restaurant Tschebull,Mönckebergstraße 7,,Hamburg
3906158845,53.5547116,9.9882678,Vapiano,Gänsemarkt 24,20354,Hamburg
3909974671,53.640703,9.8328581,Restaurant TennisTreff der SVHR,Thesdorfer Weg 20,,
3911390239,53.5516545,9.9910537,Melange,Neuer Wall 31,20354,Hamburg
3912413670,53.5687907,9.9950017,Gurke,,,
3914015224,53.5806456,10.0124541,Hensel was sonst,,,
3914036027,53.5803019,10.0127373,Edelsatt,Mühlenkamp 8,22303,Hamburg
3914036028,53.5798356,10.0126392,Paledo,Mühlenkamp 1,22303,Hamburg
3914269011,53.567729,9.9953947,Suliko,Mittelweg 24,20148,Hamburg
3928787885,53.6310087,10.0050044,Marché Airport Hamburg,,,
3928787886,53.6311811,10.0049721,Mövenpick Hamburg Airport,,,
3932389503,53.583129,9.9670407,ACE Pizza,Gärtnerstraße 32,20253,Hamburg
3940139963,53.5148011,10.1683473,AKROPOLIS Restaurant,Heidhorst 4,21031,Hamburg
3942090519,53.6804063,10.0001904,Arpis Trattoria,Schmuggelstieg 41,22419,Hamburg
3942205976,53.6392208,9.9102031,pintxos y mas,Holsteiner Chaussee 321,22457,Hamburg
3946845784,53.5705684,9.9973633,Butchers Steakhouse,Milchstraße 19,20148,Hamburg
3946856129,53.5566282,9.9869171,(m)eatery GmbH,Drehbahn 49,20354,Hamburg
3948209806,53.5792341,10.0136462,Mizu,,,
3951528937,53.5822329,10.0151628,Quan Do,,,
3958612896,53.5748588,10.0193768,Sung Tuc Quan,Zimmerstraße 52,22085,Hamburg
3962616474,53.4853833,10.1998161,Sushi für Hamburg,,,
3984018370,53.5518331,9.9945042,Wlokas,,,
3991544657,53.5399256,10.0270478,Erfrischungsraum Oldtimertankstelle Brandshof,Billhorner Röhrendamm 4,20539,Hamburg
3992043931,53.5542447,10.0144957,LAmira,,,
3992043932,53.5542995,10.0146145,Öz Karides,,,
3999624989,53.5533335,10.0030054,Chingu,,,
4000472371,53.607421,10.0065204,Yuzu,Alsterdorfer Straße 262,22297,Hamburg
4003070683,53.5602351,9.9646816,Taverna Plaka,,,
4003190605,53.5598361,9.9638514,mam - eat greek,,,
4007423407,53.5594022,9.9103067,Most Wanted Burger,,,
4009771313,53.5500321,10.1570886,Kinh Do,Gewerbering 12,22113,Oststeinbek
4027939673,53.5525392,9.9367774,Hatsukoi Hamburg - japanese grill & sushi,Paul-Nevermann-Platz 1,,
4043814615,53.5726273,9.9599757,CYN CYN,Eppendorfer Weg 62,20259,Hamburg
4043814616,53.5724298,9.9597558,arc,Eppendorfer Weg 58,20259,Hamburg
4044330157,53.5811881,10.0081293,Die Boutique,,,
4046587550,53.5416918,9.9938317,Goa,Großer Grasbrook 9,20457,Hamburg
4047817302,53.5730078,9.9403996,Bistro Aux Délices,Holstenkamp 1,22525,Hamburg
4051320739,53.5421976,9.9821611,Strickers Kehr Wieder Spitze,,,
4053511799,53.558557,9.9634037,Baba Azeitona,Beim Grünen Jäger 21,20359,Hamburg
4060139490,53.6801409,9.8515063,Sellhorns Gasthof,,,
4065574752,53.5721877,9.9603,Marend,Von-der-Tann-Straße 5,,
4067258546,53.6818893,9.9808665,Mendoza,Ochsenzoller Straße 110,22848,Norderstedt
4068560389,53.5527378,9.9300401,Andiamo,Bahrenfelder Straße 122,22765,Hamburg
4069988586,53.5638495,9.9136319,Vina-Haus,Mendelssohnstraße 28,22761,Hamburg
4079598282,53.5967498,10.1531266,Laurent,Rahlstedter Straße 78,22149,Hamburg
4081976998,53.5540249,10.0192791,AnTee Vegan,Ferdinand-Beit-Straße 7,20099,Hamburg
4083030722,53.5827791,10.0085587,Surf n Turf,,,
4083212904,53.5707091,10.1432562,Zum Österreicher,Barsbütteler Straße 43,22043,Hamburg
4090428638,53.5467495,9.9967509,Heldenplatz,Brandstwiete 46,20457,Hamburg
4099054568,53.5616442,9.9868869,filini,,,
4099057692,53.672432,10.2411732,Mendoza,Neue Straße 9,,
4111226289,53.6524974,9.8081696,Quanto Basta,Fahltsweide 10,25421,Pinneberg
4114879269,53.5594201,9.8837003,Osaka Sushi,Waitzstraße 19,22607,Hamburg
4124289536,53.5498122,9.9930699,Daniel Wischer,Große Johannisstraße 3,20457,Hamburg
4124662958,53.6154122,9.8653066,Akropolis,Siebentunnelweg 2,25469,Halstenbek
4128133277,53.5818841,10.0661077,Sabai Jai,Straßburger Straße 46,22049,Hamburg
4131299937,53.5465324,9.9606111,HafenVokü - staatlich anerkannter Unruheherd,St. Pauli Hafenstraße 116,,Hamburg
4144383868,53.4548065,9.9871934,Four Seasons,Wilstorfer Straße 80,21073,Hamburg
4144447595,53.4561764,9.9856524,Köz Patara,Wilstorfer Straße 56,21073,Hamburg
4165030207,53.6278728,10.0057778,FHG Kantine,,,
4166330328,53.5726267,9.8432936,Servus,Osdorfer Landstraße 239,22549,Hamburg
4172276189,53.5445155,9.9822165,Gasthaus Heimathafen,Baumwall 5-7,20459,Hamburg
4174285989,53.7288795,10.2632346,Ristorante Leonardo,Mittelweg 17,22941,Bargteheide
4177275454,53.7085871,10.2114569,il Grappolo,Weg zu den Tannen 5,22949,Ammersbek
4177517271,53.677424,9.968358,Porta Venezia,Niendorfer Straße 12,22848,Norderstedt
4192504378,53.596472,9.9977453,Kailua Poké,Himmelstraße 45,22299,Hamburg
4200442590,53.6321112,10.0053359,Cindys Diner,,,
4200494589,53.6319756,10.0053549,Gosch,,,
4217619978,53.5783591,9.9467545,Green Papaya,,,
4223714783,53.3952919,9.955136,Hamburger Land- und Golfclub Hittfeld Clubhaus,,,
4229592775,53.4117455,9.9768731,Vereinsheim,,,
4233697793,53.5479779,9.9575978,Maa´Deyo,Silbersacktwiete 6,20359,Hamburg
4238886507,53.5728581,9.979058,Maharani,Hallerstraße 1,20146,Hamburg
4238897186,53.5729544,9.9790608,Baku,Hallerstraße 1a,20146,Hamburg
4241768151,53.5466225,9.9626669,Störtebeker Fischrestaurant,,,
4245008019,53.6750511,10.2402665,Taj Mahal,,,Ahrensburg
4247392548,53.6332653,10.0551473,Ristorante Vivere,Tornberg 40,22337,Hamburg
4247420017,53.5499483,9.9649955,Steak & Fish Palast,Reeperbahn 42,20359,Hamburg
4247420021,53.5501045,9.9665448,Sausalitos,Reeperbahn 19-21,20359,Hamburg
4247420024,53.5528516,9.9982332,Gasthaus an der Alster,Ferdinandstraße 65-67,20095,Hamburg
4247428290,53.5427849,10.0004223,Surfkitchen,Hongkongstraße 2-4,20457,Hamburg
4257468112,53.552988,10.0980465,Sushi für Hamburg,,,
4270097990,53.6616742,10.0225107,La Cucina,,,
4278017904,53.5555723,9.9287072,Lily of the Valley,Bahrenfelder Straße 212,22765,Hamburg
4278444394,53.5488722,9.9919733,Spaccaforno,Börsenbrücke 4,20457,Hamburg
4283311054,53.557544,10.0115945,Cox,,,
4288759615,53.4979108,10.0099517,Sofra,,,
4288872646,53.5616223,9.9658749,Ottos Burger,Schanzenstraße 58,20357,Hamburg
4289468594,53.5703582,9.9960944,Ristorante Da Mario,Milchstraße 28,20148,Hamburg
4298188958,53.506498,9.9866101,Köz Kapadokya,Veringstraße 126,21107,Hamburg
4303406591,53.5658446,9.8976764,Taste of Tandoori,,,
4314447491,53.6150223,10.0356466,Rio Fuhle,Fuhlsbüttler Straße 666,,
4315058761,53.5573054,10.0113784,was wir wirklich LIEBEN - FEINKOST,Lange Reihe 60,20099,Hamburg
4329139592,53.5810266,9.9702302,Bless,Eppendorfer Weg 186,20253,Hamburg
4341171078,53.6710101,10.1245892,Tapiro DOro,Bergstedter Markt 1,22395,Hamburg
4345397020,53.7292749,10.2657062,Philoxenia,,,
4346590375,53.6721309,10.006835,Villari,Henny-Schütz-Allee 7,22419,Hamburg
4352205920,53.5801025,9.7962865,San Marco,,,
4352205924,53.579807,9.8015118,Spiros & Spiros,,,
4367761536,53.5421311,10.2129835,ANHU Asia,Markt 16,21509,Glinde
4373498907,53.5836365,10.0089493,Peter Pane,Goldbekplatz 1,22303,Hamburg
4375846057,53.660655,9.7988722,Raj Mahal,Lindenstraße 35,25421,Pinneberg
4379753538,53.5080528,10.001773,Hansekai,Jaffestraße 12,21109,
4389100394,53.5505897,9.9809357,Trattoria Due da Enzo,,20459,Hamburg
4394214291,53.5499303,10.0021625,Ai Bánh Mì,Steinstraße 17a,20095,Hamburg
4396606055,53.6357715,10.0154258,Taj Mahal,,,
4401622814,53.5755471,10.0150949,Quan 19,Hofweg 77,22085,Hamburg
4403405903,53.5597042,9.8877871,Hala,Beselerplatz 11,22607,Hamburg
4415561822,53.5615668,9.9625554,dDavid,,,
4415561824,53.561344,9.9627376,Barrio Alto,Schulterblatt 58a,20357,Hamburg
4415696197,53.5620492,9.964882,Jill,Bartelsstraße 12,20357,Hamburg
4417687692,53.5801271,9.9477006,Heimatjuwel,,,
4420226590,53.5472458,10.0217911,Mediterrano,Hammerbrookstraße 44,20097,Hamburg
4421177889,53.5805494,9.9732163,Pizza Puro,Hoheluftchaussee 49,20253,Hamburg
4424841288,53.5486218,10.0030275,Erdapfel,Burchardstraße 10,,
4427753593,53.5008313,10.1987089,Aldos Pizza & More,Lohbrügger Landstraße 80,21031,Hamburg
4434662505,53.572322,9.9880609,GO by Steffen Henssler,Rothenbaumchaussee 115,20148,Hamburg
4436431493,53.5524161,9.9619788,Jolie,Clemens-Schultz-Straße 42,20359,Hamburg
4441188186,53.5671856,9.9328022,Vietnam-Quan,,,
4451765890,53.5571252,10.0217484,Schlemmerschule - Eventlocation,Lübeckertordamm 4,20099,Hamburg
4451897782,53.5957825,9.8680359,Grill-Kate,,,
4453280521,53.5591493,9.994299,NOMAD,,,
4453282092,53.55929,9.9954361,Der erdbeerfressende Drache,Alsterufer 3,20354,Hamburg
4455344748,53.5089454,10.2505716,Lino,Bahnhofstraße 11,21465,Reinbek
4468004794,53.5854773,9.9813581,Cafe & Bar Celona,Lenhartzstraße 1-5,20249,Hamburg
4471578094,53.5549735,10.0125707,Arepa Café,,,
4473574205,53.5699074,9.9848955,Eat Thai,Grindelhof 58,20146,Hamburg
4482541363,53.5528764,10.0023984,Barefood Deli,Lilienstraße 5-9,20095,Hamburg
4482825582,53.5529624,10.003574,Quan36too,Kurze Mühren 6,20095,Hamburg
4484424275,53.4715497,10.3158142,,,,
4509434072,53.5550844,10.0152007,Kabul,Steindamm 53,20099,Hamburg
4516172295,53.6308513,10.0214371,Good Morning Vietnam,Erdkampsweg 68,22335,Hamburg
4523026492,53.5949924,9.999156,LOsteria,Winterhuder Marktplatz 17,22299,Hamburg
4524595371,53.594521,9.9832491,Da Elena,,,
4535253792,53.5827917,10.0478468,Vi Foods,Alter Teichweg 9c,,
4540201421,53.5532645,9.9815305,Le Golden Igel,Neustädter Straße 49,20355,Hamburg
4548320354,53.5494486,9.9679954,clouds – Heaven’s Bar & Kitchen,Reeperbahn 1,20359,Hamburg
4549220463,53.5519874,9.9418735,Ali Baba Döner & Grill,Große Bergstraße 227,,
4555570756,53.5708975,9.9879333,pro linguis,Rothenbaumchaussee 97,20148,Hamburg
4556960541,53.5658638,10.0575785,Padideh Persisches Restaurant,,,
4565299704,53.5404034,10.1012177,Orkinus,Billstedter Hauptstraße 43,22111,Hamburg
4597193045,53.6065466,10.0881249,Hamburger Küche & Heimkost,Haldesdorfer Straße 161,22179,Hamburg
4623355545,53.5631458,9.8157326,Peter Pane,Witts Allee 1a,22587,Hamburg
4632090880,53.6413767,10.2838697,Bistro Meyer menü,Jacobsrade 4b,22962,Siek
4699569905,53.5843584,9.9786909,La Bottega Lentini,Eppendorfer Weg 267,20251,Hamburg
4699579898,53.6922949,9.9775419,Taverna Kavala,Friedrichsgaber Weg 174,22846,Norderstedt
4699840504,53.5674883,10.0443771,Trattoria Italiana,Ritterstraße 16,22089,Hamburg
4727565873,53.5642228,9.9217442,Navarra,,,
4728880514,53.6837802,9.9874535,Fisch-Kate,,,
4756650074,53.5163528,9.9876566,La Patina,,,
4756650075,53.5160099,9.9876158,SuChi,,,
4770095822,53.5638398,9.9594874,BATU Noodle Society,Eimsbütteler Straße 1,22769,Hamburg
4773154523,53.6771374,9.7982299,Happy Wok,Flensburger Straße 20,25421,Pinneberg
4774925623,53.550152,9.925467,Teufels Küche,Keplerstraße 18,,
4789031721,53.4618505,9.9789577,Zur Altstadt,,,
4825679221,53.6091283,9.9026166,Salatparadies,Pinneberger Chaussee 11,,
4838352440,53.5562979,9.9326561,Tigre,Nernstweg 32-34,22765,Hamburg
4845186946,53.7084547,10.2514772,Restaurant Fotiou,Lübecker Straße 15,22941,Delingsdorf
4858274339,53.5965793,10.0018723,Tafelspitz,Himmelstraße 5a,22299,Hamburg
4871590490,53.5112258,10.0207363,Kupferkrug,,,
4873937621,53.5507337,9.9953495,Sushi Supply,,,
4873937623,53.5436268,9.9930947,FlammHus,Am Sandtorkai 23,,
4890719975,53.5994667,9.9970235,Osteria Fellini,Alsterdorfer Straße 86,22299,Hamburg
4896834077,53.521044,9.8119271,Taverna Elina,Hasselwerder Straße 94,21129,Hamburg
4902619706,53.558065,9.9708612,philipps restaurant,Turnerstraße 9,20357,Hamburg
4904022161,53.5494261,10.0021005,Altstädter Stube,,,
4907611923,53.5615186,9.9621052,Jesus Center,,,
4909540006,53.559933,9.9752038,Edelsatt,Karolinenstraße 32,20357,Hamburg
4912961212,53.5543638,9.8448358,Da Enzo,,,
4913710967,53.676154,10.2392245,Villa Romana,,,
4920766100,53.5470722,9.9364721,Burger Village,,,
4922770874,53.6813818,9.9939568,Sushi-Restaurant Jade,Ochsenzoller Straße 194,22848,Norderstedt
4925165519,53.5473692,9.9626227,Piccolo Mondo,,,
4935591862,53.4253601,9.7878214,Zum Florian,Lindenstraße 14-16,21629,Neu Wulmstorf
4942965340,53.5412076,9.9858838,CARLS Brasserie,,,
4944566879,53.5556338,9.8431046,Félix,Rupertistraße 26,22609,Hamburg
4944773537,53.5621285,9.9621615,Petisco,Schulterblatt 78,20357,Hamburg
4946931282,53.5635782,9.9902687,Piazza Romana,Rothenbaumchaussee 10,20148,Hamburg
4947005723,53.5596299,9.8835521,NEWPORT - CAFFEE & WEIN,,,
4961888166,53.5562078,9.9626183,Da Mario,Thadenstraße 1,22767,Hamburg
4963464185,53.5423139,9.998357,Neni,Osakaallee 12,20457,Hamburg
4968853590,53.5582543,9.9438539,Cantina Fux & Ganz,Bodenstedtstraße 16,22765,
4976134759,53.4865141,10.2137851,Food Lounge Bergedorf,,,
4985421039,53.5523859,9.9622491,Grilly Idol Burger,Clemens-Schultz-Straße 40,20359,Hamburg
4986436422,53.7319713,9.996982,Mr. Gyros,Ulzburger Straße 472,22844,Norderstedt
4987059878,53.5707232,9.9971911,Portonovo,Milchstraße 7,20148,Hamburg
4990118152,53.5549135,9.9271726,Cressole feine Suppen & Currys,Friedensallee 28,22765,Hamburg
4992590622,53.5570164,9.9751479,Dulfs Burger,,,
4994502163,53.5488621,9.9938682,Kaiyō,Brodschrangen 1-5,20457,Hamburg
5002940625,53.6319779,10.0059439,,,,
5015196302,53.5459112,10.0309497,Pier 81 - Eggers,Heidenkampsweg 81,20097,Hamburg
5032321923,53.5503316,9.9616178,Mimo,,,
5036381756,53.424617,9.7894321,Akropolis,Schwarzenberg 1,21629,Neu Wulmstorf
5040712041,53.557242,9.9646708,Ustam,Neuer Pferdemarkt 33,20359,Hamburg
5045038820,53.5490832,9.9752082,Nom,,,
5054072110,53.504469,10.2044692,Brügge,,,
5055849821,53.5544249,9.9622194,Giovanni 2,,,
5056117584,53.4901632,10.2086017,Pamukkale,,,
5056117588,53.4892799,10.2075409,Tung Asia,,,
5056117590,53.4909024,10.2073954,Truva,,,
5064249649,53.554459,10.0136303,Singh Indian Restaurant,Steindamm 35,20099,Hamburg
5071072521,53.5537357,9.9619838,Mr. Dam,,,
5113816389,53.5700534,10.0261886,Flickenschildt,Mundsburger Damm 63,22087,Hamburg
5118306645,53.5494365,9.9830142,Buon Giorno,,,
5139615321,53.6024409,10.0397347,Simply Food,Fuhlsbüttler Straße 397,22309,Hamburg
5140556421,53.5620004,9.9629886,nosh,,,
5166445257,53.6871728,9.9910702,Restaurant Hellas,Lütjenmoor 44,22850,Norderstedt
5172787779,53.5444362,9.9470766,Tai Tan,Große Elbstraße 100,22767,Hamburg
5204621001,53.5653182,9.8709291,Country Kitchen,Hemmingstedter Weg 2,22607,Hamburg
5208050735,53.5565352,9.9284834,Il Vagabondo,Bahrenfelder Straße 242,22765,Hamburg
5220145308,53.5553729,10.0153627,Yummies Deli & Bar Restaurant,Steindamm 55,20099,Hamburg
5233553014,53.4935408,10.207367,Smileys Pizza,,,
5244829497,53.6746911,9.9874535,Sushi für Hamburg,Ohechaussee 113,22848,Norderstedt
5245788696,53.4891282,10.2079701,Der Suhrhof,,,
5248696550,53.5552553,10.0140672,Pabla,,,
5273604381,53.6053671,10.2201846,Stapelfelder Hof Christos,,,
5293872623,53.5455049,9.9867847,Ristorante Vincenzo,Deichstraße 48-50,20459,Hamburg
5293873973,53.5447887,9.9492315,Ristorante Vincenzo,Große Elbstraße 68,22767,Hamburg
5308702321,53.5563181,10.0103122,Ottos Burger,Lange Reihe 40,20099,Hamburg
5308712867,53.5880108,10.0440465,Balducci,Massaquoipassage 1,22305,Hamburg
5318382611,53.586406,10.0058733,Restaurant Marbella,,,
5318404029,53.5538458,10.0163966,La Famiglia,,,
5324747108,53.5487052,9.9634871,Gassenhaur,Kastanienallee 32,20359,Hamburg
5338792899,53.5902105,10.0453222,Saigon Café,Fuhlsbüttler Straße 128,22305,Hamburg
5338792903,53.5870841,10.0387426,Kentauros,Wiesendamm 41,22305,Hamburg
5351764647,53.5889417,10.0016891,Zeik,Sierichstraße 112,22299,Hamburg
5353439996,53.5750831,9.8763801,Kantine,,,
5366282088,53.5554563,9.991448,Nikkei Nine,Neuer Jungfernstieg 9,20354,Hamburg
5382782121,53.728718,10.2615062,Nino,Theodor-Storm-Straße 1b+c,22941,Bargteheide
5395931966,53.5877626,9.9000844,Die Raute,,,
5404390362,53.5671193,9.9651856,Witwenball,Weidenallee 20,20357,Hamburg
5405240321,53.5807003,10.1270972,Aivy Cà Phê,,,
5407707958,53.5411591,10.2145086,Restaurant Yamas,,,
5409415941,53.6609223,9.7966836,Meusels Landdrostei,Dingstätte 23,25421,Pinneberg
5418179331,53.5650108,9.9837626,el falafel,Grindelallee 26,20146,Hamburg
5418179332,53.5649086,9.9838872,Yumi streetkitchen,Grindelallee 22,20146,Hamburg
5425774973,53.5398568,10.1037776,Sekandar,,,
5431140921,53.5531259,9.9578667,haebel,Paul-Roosen-Straße 31,22767,Hamburg
5440523948,53.4576534,9.9840606,"Marina, Hallo Restaurant & Café",Lüneburger Straße 2,21073,Hamburg
5440539453,53.4596128,9.982183,Asia Tung,Deichhausweg 3,21073,Hamburg
5470917807,53.4858331,10.2103515,Sushi & Asia Lounge,,,
5475843927,53.5652386,9.8746615,Hygge,,,
5506461503,53.6436191,10.0125562,Wong Restaurant,,,
5528597150,53.579545,9.9301044,El Paisa,Nieland 10,22525,Hamburg
5554899601,53.547119,9.9952724,NAKAMA,Willy-Brandt-Straße 51,20457,Hamburg
5554916621,53.5525909,9.9308492,Takumi Ramen-Station Hamburg,Große Rainstraße 20,22765,Hamburg
5559382458,53.6647122,9.9058517,Massimo,Am Markt 6,25474,Bönningstedt
5567408449,53.5531918,9.957523,Krug Weinstube,Paul-Roosen-Straße 35,22767,Hamburg
5569308198,53.5103689,9.9864325,Vollmundig,,,
5578093722,53.58246,9.970901,Peter Pane,Hoheluftchaussee 99-101,20253,Hamburg
5595231111,53.653509,9.9833617,Blue,Südportal 2,22848,Norderstedt
5600473521,53.5434555,9.9421932,Rive,Van-der-Smissen-Straße 1,22767,Hamburg
5603344422,53.5553809,9.9913765,Condi Lounge,Neuer Jungfernstieg 9,20354,Hamburg
5612884712,53.7068221,9.9932977,Cantina Americana,Rathausallee 29a,22846,Norderstedt
5633335035,53.4617105,9.7934199,Mangia Bene,Hauptstraße 75,21629,Neu Wulmstorf
5641091342,53.5531745,9.8443017,Marktplatz,,,
5643472572,53.660436,9.7928354,Ristorante Rigoletto,Rübekamp 25,25421,Pinneberg
5655447946,53.5454809,9.9850957,Porticello,,,
5664286722,53.5662408,9.9633778,Momo Ramen,Margaretenstraße 58,20357,Hamburg
5670298167,53.5581917,10.0121092,GAO Kitchen,,,
5677735390,53.5709446,10.1321275,Grill Athen Palast,Rodigallee 294,22043,Hamburg
5694869521,53.553877,9.9293,Il Garage,,,
5715629423,53.5538224,10.0021668,Hans im Glück,,,
5722480522,53.4499338,9.9871302,Golden Garden,Winsener Straße 14,21077,Hamburg
5732554007,53.5934922,10.0439758,Fisch Grill Haus Halikarnas,Fuhlsbüttler Straße 167,22307,Hamburg
5733161675,53.5558115,10.0073375,Phở & Rice,,,
5743590576,53.5502807,9.9300586,Teigfabrik Ottensen,Bahrenfelder Straße 53,22765,Hamburg
5744302240,53.584769,10.0797082,Mahadev Restaurant,Friedrich-Ebert-Damm 48,22047,Hamburg
5747037912,53.4566675,9.9859936,Eminönü Fischrestaurant,,,
5752091362,53.5513745,9.9945241,Frittenwerk,,,
5756750127,53.4586329,9.9828021,Alt Damaskus,,,
5758385442,53.5876283,10.0203534,Bei Uns,Semperstraße 78,,
5759441742,53.5595282,9.801049,Seven Seas,,,
5761928457,53.6031941,10.0408909,Pizza Jungs,Fuhlsbüttler Straße 414,,
5778515315,53.563622,9.8085574,Bistro Elbwein,,,
5785203298,53.4612975,9.984377,Diora,,,
5802943986,53.6686145,9.7653364,Goldschätzchen,Peiner Hag 7,25497,Prisdorf
5813412150,53.5203078,9.8137072,Bundts Gartenrestaurant,Hasselwerder Straße 85,21129,Hamburg
5823774406,53.6155715,10.0767958,Hanoi Quan,,,
5839477996,53.5528309,10.0010669,Ariana,Rosenstraße 25,20095,Hamburg
5844386294,53.5498945,9.9935207,Goldbach,,,
5844401412,53.5433336,10.0078169,Hobenköök,Stockmeyerstraße 43,20457,Hamburg
5850899411,53.6718907,10.2407532,Mundfein Pizzawerkstatt,Manhagener Allee 13,,
5851047772,53.537433,10.0284841,100/200,Brandshofer Deich 68,20539,Hamburg
5852294481,53.5057044,9.985887,Aomame Ramen,Veringstraße 155,21107,Hamburg
5853579985,53.545554,9.9875612,,,,
5853676599,53.5593479,9.9280711,Ottensener,Bahrenfelder Straße 332,22765,Hamburg
5861166023,53.6024254,10.0395022,Dàm,Fuhlsbüttler Straße 397,22309,Hamburg
5868883885,53.4604358,10.063879,Bunthaus Gaststätte,Moorwerder Hauptdeich 33,21109,
5871106603,53.5746961,10.0177706,Wolfs Junge,Zimmerstraße 30,22085,Hamburg
5882699550,53.5452579,9.9518334,Lütt & Lecker Fischbrötchen,Große Elbstraße 12,,
5894141589,53.5809686,10.0122317,Sensei Master Of Sushi,Mühlenkamp 18,22303,Hamburg
5904361735,53.5791292,10.0417983,Asia Imbiss,,,
5909902491,53.559446,9.9731523,CÀI Kitchen,,,
5909924974,53.5849377,10.0238585,Pani Smak,Hölderlinsallee 1,22303,Hamburg
5911048367,53.5785233,10.0645788,Due Amici,,,
5913415140,53.4907102,10.2110015,Oro,Ernst-Mantius-Straße 10,21029,Hamburg
5920371442,53.5554719,9.9826627,Lucky Friends,,,
5922438332,53.5797084,9.9663106,Zipang,Eppendorfer Weg 171,20253,Hamburg
5937567631,53.5605517,9.9630229,Rice Brothers,Schulterblatt 35,20357,Hamburg
5961919179,53.5925987,10.0445488,Soul Sushi Barmbek,Fuhlsbüttler Straße 174,22305,Hamburg
5969181067,53.6464241,10.0119849,Soul Sushi,Langenhorner Chaussee 163,22415,Hamburg
5974613416,53.550739,9.9326145,La Crème de la Crêpe,Erzbergerstraße 14,22765,Hamburg
5995645636,53.5523991,9.9621292,Kokomo Noodle Club,Clemens-Schultz-Straße 40,20359,Hamburg
6005737885,53.5548805,9.9277091,Zweipunktnull,Friedensallee 20,,
6024281452,53.5772815,10.0185072,Focacceria Apulia,Winterhuder Weg 65,22085,Hamburg
6032699027,53.6060502,10.0397023,Al Granada,Fuhlsbüttler Straße 464,22309,Hamburg
6036536817,53.5508307,9.9299926,gin koi,,,
6071708637,53.6207098,10.0816193,Bramfelder Wirtshaus,Bramfelder Chaussee 361,22175,Hamburg
6090949458,53.551375,9.9864351,JIN GUI,Stadthausbrücke 10,20355,Hamburg
6105139535,53.6596301,9.7506928,28 - bar&kitchen,,,
6106885787,53.558861,9.9752018,Izakaya by Dokuwa,Karolinenstraße 18,,
6112600923,53.551167,9.9302849,Pizzeria König,Bahrenfelder Straße 98,22765,Hamburg
6113674775,53.5577031,9.8284239,el local,,,
6113815874,53.5557449,9.9881597,Burgerlich,Gänsemarkt 43,,
6131339763,53.5546997,9.9291287,Yoko Sushi Altona,Hohenesch 1,22765,Hamburg
6140861547,53.6373391,9.7590968,Zum Heidekrug,,,
6169670002,53.5965209,10.1170163,Chinarestaurant Bihu,Kupferdamm 1,22159,Hamburg
6171616949,53.7357094,10.0812086,Neue Hofküche,,,
6174514886,53.5704204,9.9963582,Brian’s Steak and Lobster,,,
6176900785,53.5665784,9.9654911,Jellyfish,Weidenallee 12,20357,Hamburg
6190566887,53.5827757,10.0172024,Dulfs Burger,,,
6225697422,53.658021,9.7943688,Restaurant Korfu,Schauenburgerstraße 3,25421,Pinneberg
6225697429,53.6603476,9.799094,Da Franco,Lindenstraße 26,25421,Pinneberg
6252423643,53.5473421,9.9986549,Storehouse,,,
6254399681,53.559522,10.0119106,CARINO,Schmilinskystraße 11,20099,Hamburg
6255931188,53.5957403,9.9870165,Alexandros,Erikastraße 81a,20251,Hamburg
6284365835,53.5429789,9.9944479,bianc,Am Sandtorkai 50,20457,Hamburg
6293208604,53.6361631,10.0920403,Il Sorriso,Classenweg 59,22391,Hamburg
6295409378,53.4738461,9.9365611,Freistil,,,
6342828841,53.5398068,10.1054636,ciao bella,,,
6346764306,53.4721481,9.8882271,Asia Din Hau,,,
6358091000,53.7282572,10.2615106,Orfeo Greco,Am Markt 6a,22941,
6371961633,53.5990564,10.041814,Spezzagrano,Fuhlsbüttler Straße 300,22307,Hamburg
6372728317,53.6677786,9.9877524,Trattoria da Michele,Rugenbarg 74 h,22848,Norderstedt
6388709432,53.3985543,10.0453623,Meyers Gasthaus,Alte Bahnhofstraße 19,21220,Seevetal
6389556147,53.5501523,9.9562566,ASTRA Brauerei St. Pauli,Nobistor 16,,
6396062953,53.5528603,9.990598,Billy the Butcher,Poststraße 8,20354,Hamburg
6414516667,53.5599084,9.9752022,Lesser Panda Ramen,Karolinenstraße 32,20357,Hamburg
6415774106,53.6732075,10.2401197,Bangkok,,,
6415797785,53.5414446,9.9992017,Heimat,Überseeallee 5,20457,Hamburg
6421559254,53.5707978,9.9858723,YaKu,Schlüterstraße 79,20146,Hamburg
6426712937,53.4856947,10.2870092,Rump´s Bistro,,,
6426846239,53.5651267,9.9020179,Schweinske Bahrenfeld,Silcherstraße 1,22761,Hamburg
6428982058,53.5844965,9.9802995,Sazza-Bar,Eppendorfer Weg 280,20251,Hamburg
6440158467,53.5443049,9.9755584,ALEX,Vorsetzen 72,20459,Hamburg
6440190186,53.5456807,9.9931091,Panaelme,Steckelhörn 12,20457,Hamburg
6458437527,53.5523946,9.9601043,Kuchnia,Talstraße 87,20359,Hamburg
6460976285,53.5531969,9.9583697,XO Seafoodbar,,,
6461166287,53.565438,9.980331,Lauras Küche,Bundesstraße 30,20146,Hamburg
6468641488,53.5558182,10.0087957,Mafia Bites,,,
6500441095,53.5526396,9.9875502,Broscheks,,,
6501863798,53.5554212,9.9336929,Shari e.V.,Gaußstraße 10,22765,Hamburg
6504556185,53.5610916,9.9629327,Quan36,Schulterblatt 36,20357,Hamburg
6504678218,53.7344127,9.8930377,Ambrosia,Kieler Straße 117,25451,Quickborn
6515389786,53.5844017,9.9800408,Le Cochinchine,Eppendorfer Weg 278,20251,Hamburg
6515465959,53.5834668,9.9793621,Kitsch,Löwenstraße 12,20251,Hamburg
6516771585,53.5723365,9.9596383,Hatari,Eppendorfer Weg 58,,
6516938354,53.4937267,10.2537339,Luce,Hauptstraße 18 b,21465,Wentorf bei Hamburg
6516970006,53.4899251,10.2535425,Mister Ti,Am Casinopark 14,21465,Wentorf bei Hamburg
6532459743,53.674809,9.9651563,Da Sinito,,,
6535430158,53.5632433,9.99008,Theo´s,Rothenbaumchaussee 10,20148,Hamburg
6564661053,53.5494702,9.9571706,Hooters,Reeperbahn 157,20359,Hamburg
6577264715,53.6069334,9.9047971,Quan 19,,,
6580256546,53.5399285,9.9931014,coast enoteca,,,
6605159485,53.5824003,10.019162,Very Very Veggie Vegan Sushi,Barmbeker Straße 3,22303,Hamburg
6640328605,53.5751308,9.9575374,Khao San,Osterstraße 48,20259,Hamburg
6640328610,53.5752214,9.9570595,Trattoria Salento,Osterstraße 52,20259,Hamburg
6641611031,53.5753991,9.9544277,Crêperie Monsieur Rémi,Osterstraße 83,20259,Hamburg
6641611033,53.5759823,9.9534303,citta,Osterstraße 98,20259,Hamburg
6660185187,53.5800952,9.9745321,My Kebaps,,,
6677793763,53.7180723,10.1117951,Gutsküche,Wulksfelder Damm 15,22889,Tangstedt
6682558296,53.550906,9.9942854,Pizza Hut,,,
6683232805,53.5382273,10.0832874,Johanns,,,
6699395802,53.6253146,10.0058937,Vorfeldkantine,,,
6710473932,53.4659264,9.9871165,Hoi An,,,
6711980578,53.6182374,9.9507097,Ponzu,Tibarg 16,22459,Hamburg
6718411210,53.5550665,10.0124634,Traumzeit,,20099,Hamburg
6727067629,53.5898057,9.9757609,Health Kitchen,,,
6734839851,53.5533014,10.0022625,The Ramen Hamburg,Rosenstraße 5,20095,Hamburg
6749618785,53.5899952,9.9195315,Makalu Kitchen,Randstraße 111,22525,
6753328607,53.5667359,10.0189681,Uhlenhorster Weinstube,,,
6762348686,53.5483724,9.9628223,Bum Pho Hong,,,
6771979424,53.5576156,10.0104858,Café Gitane,Gurlittstraße 44,,
6773936444,53.5477991,9.9417128,El Pikosito,Behnstraße 23,22767,Hamburg
6780711985,53.5831174,10.0185599,Smileys Pizza,,,
6790468317,53.5107222,10.0933822,IKEA Restaurant,Unterer Landweg 77,22113,Hamburg
6814018173,53.602868,10.0232389,Mehndi,,,
6835484301,53.5693816,10.0261906,Bodega Sesenta,Mundsburger Damm 60,22087,Hamburg
6838045428,53.5793954,10.019308,Ollita Peruana,Humboldtstraße 142,22083,Hamburg
6848326909,53.5627593,9.9206201,Elsas Restaurant & Bar,Bahrenfelder Steindamm 99,22761,Hamburg
6850236836,53.5671323,10.0187146,Rexrodt,,,
6893114515,53.5531333,9.9921298,GALERIA Restaurant,,,
6895015889,53.5604795,10.0839987,Minigolf Sportanlage,,,
6900636568,53.5685921,9.9559364,Pizzamacherei,Eimsbütteler Chaussee 84,20259,Hamburg
6905168055,53.4608013,9.9696744,Pizzabar Harburg,,,
6935705740,53.6254184,9.8764113,Krupunder Park,,,
6945123098,53.4569155,9.9853746,Hans im Glück,Moorstraße 1,21073,Hamburg
6950896687,53.4979168,10.0031444,Kantine Wilhelmsburg,Neuenfelder Straße 19,21109,Hamburg
6952796887,53.6726307,10.0166935,Thessaloniki,,,
6975642227,53.64987,10.0122497,Bear Claw,Langenhorner Markt 18,22415,Hamburg
7004517699,53.5657319,10.0372867,Shawarma Marina,Wandsbeker Chaussee 29,22089,Hamburg
7009861485,53.5848887,9.9803162,ZWEIPUNKTEINS,,,
7044637582,53.5773576,9.9769424,Restaurant Klinker,Schlankreye 73,20144,Hamburg
7061310389,53.660447,10.0022162,Kaibo,Langenhorner Chaussee 397,22419,Hamburg
7080714207,53.5849299,9.9814121,Hanoi Deli,Eppendorfer Baum 47,20249,Hamburg
7082488207,53.6409061,10.1510519,amalieBISTRO,,,
7088252677,53.5487235,9.9752756,nomi,Zeughausmarkt 21,20459,Hamburg
7108043118,53.5519181,9.9921992,Saliba,Neuer Wall 13,20354,Hamburg
7114431808,53.607327,9.978932,Grillhaus Der Grieche,Borsteler Chaussee 120,22453,Hamburg
7114451503,53.6070383,9.9794277,Shanghai House,Borsteler Chaussee 110,22453,Hamburg
7118222038,53.7286328,10.2591598,Due Fratelli,,,
7118222061,53.7304957,10.2689686,Dani,,,
7124036825,53.4707379,9.9377313,Cafeteria Krankenhaus Mariahilf,,,
7138919307,53.5797493,10.0244888,Pamboli Tapas Bar,Imstedt 36,22083,Hamburg
7178228249,53.73375,10.0858274,Tangstedter Mühle,,,
7179577617,53.5507821,9.9614471,Kampai,Hamburger Berg 25,20359,Hamburg
7258416526,53.5585292,9.9383166,Half the Sky,,,
7264788687,53.486475,10.2137625,Trattoria Ciao Bella,Bergedorfer Straße 131-135,21029,Hamburg
7264788688,53.4865002,10.2136732,Ruffs Burger Restaurant,Bergedorfer Straße 131-135,21029,Hamburg
7282163399,53.5587078,10.0127162,Bodhi Vegan Living,Lange Reihe 93,20099,Hamburg
7282578434,53.6163833,10.0774246,Schweinske,Bramfelder Chaussee 280,22177,Hamburg
7301711679,53.5655671,9.9294357,Gepellos,,,
7313896105,53.4441335,10.128839,Mamma Maria,,,
7369129356,53.6506501,10.0530918,Osteria Aurora,Rehagen 20,22339,Hamburg
7369381440,53.4565418,9.9320073,Sportpark Jahnhöhe,,,
7528835379,53.5820507,9.9336599,Highway Burger,,,
7531535077,53.4598585,9.97393,Curry Naan,Eißendorfer Straße 31,21073,Hamburg
7549938963,53.5712788,9.9849204,Mission Pizza,Grindelhof 87,20146,Hamburg
7551952981,53.6176116,10.0792592,La Fortuna,Bramfelder Chaussee 306,22177,Hamburg
7574496085,53.5695295,9.9796748,Diggi Smalls,Grindelallee 148,20146,Hamburg
7577160685,53.545683,9.967964,Hard Rock Cafe,Bei den St. Pauli-Landungsbrücken 5,20359,
7596129837,53.5623067,9.9637299,Kini,Susannenstraße 15,20357,Hamburg
7599893726,53.5609958,9.9678387,Berta Emil Richard Schneider,Kampstraße 25-27,20357,Hamburg
7633262290,53.5668568,9.9648498,Quan 27,Weidenallee 27,20357,Hamburg
7637791146,53.4726386,9.8545907,Pizzeria Atoll,,,
7669391867,53.4370166,9.9663149,Nova,,,
7681241809,53.5458005,9.9741127,Via Toselli,Ditmar-Koel-Straße 28,20459,Hamburg
7684714146,53.568583,9.9901031,YU GARDEN,Feldbrunnenstraße 67,20148,Hamburg
7686991414,53.5586326,9.9209941,why not Café,Daimlerstraße 38,,
7733487345,53.5916429,9.9816076,köpke essen + trinken,Martinistraße 44a,,
7733487351,53.5912991,9.9822755,Restaurant Martini,Martinistraße 45,,
7741577647,53.4296829,9.9823055,Horse in Pub,,,
7749779924,53.5431177,9.9960411,Off Kitchens,,,
7756487574,53.7297213,9.9967353,"Athena ""Mediterrane Küche""",Ulzburger Straße 567,22844,Norderstedt
7757281961,53.7323932,9.9964307,Rio Grande,Ulzburger Straße 593,22844,Norderstedt
7797083968,53.5060153,9.9927787,Ada Döner,,,
7818173004,53.4430264,9.9039213,Roadrunner,Appelbütteler Straße 1,21224,Rosengarten
7835688003,53.5512639,10.0034464,wagu wagu,Mönckebergstraße 7,,
7845476526,53.5960387,10.0629894,Spiess Taverne,Bramfelder Chaussee 48,22177,Hamburg
7845613050,53.559352,9.8823859,Moraba,Waitzstraße 25,22607,Hamburg
7845989844,53.5469313,9.9318077,JA AN,Klopstockplatz 3,22765,Hamburg
7847647913,53.5505682,10.0019327,Shiso Burger,Bugenhagenstraße 23,20095,Hamburg
7856735220,53.5647323,9.9598903,Octopus Fisch Haus,,,
7890802785,53.5550146,10.0115272,Marias,,,
7902484919,53.5569607,9.9892481,stadtsalat,Große Theaterstraße 31-35,20354,Hamburg
7905893271,53.5583849,9.9498595,Peter Pane,Holstenstraße 111,22767,Hamburg
7922241439,53.5493418,9.9586648,Teatro Lounge,Reeperbahn 147,20359,Hamburg
7925145259,53.5417285,10.0982825,Donja Restaurant,Billstedter Hauptstraße 17,22111,Hamburg
7929468198,53.5573687,9.9002088,Phönix,,,
7948114713,53.6701808,10.0980938,Kleinhuis,Mellingburgredder 1,22395,Hamburg
7954501632,53.6264338,10.0138497,Fibo im Scala,Niedernstegen 21,22335,Hamburg
7963089141,53.650687,9.9074565,Restaurant Ausspann,Holsteiner Chaussee 428,22457,Hamburg
7968900238,53.6293398,10.1629612,Gaststätte Nebenan,Deepenhorn 5,22145,Hamburg
8016363793,53.5431275,9.9977765,Katzentempel,Osakaallee 6,20457,Hamburg
8032806775,53.5475777,10.010824,Pizza Prinz,,,
8042541569,53.4870509,10.1801665,China Restaurant Allermöhe,Edith-Stein-Platz 4,21035,Hamburg
8042833285,53.5810911,9.9703851,"Taquería ""Mexiko Strasse""",Eppendorfer Weg 188,20253,Hamburg
8069201041,53.5667318,9.7958402,Athen Pallas,Rissener Landstraße 1,22587,Hamburg
8069298226,53.6087661,9.8393681,Baris Grill-Haus,Lindenallee 8,22869,Schenefeld
8069300906,53.6086722,9.8401426,Coppers Bar & Kitchen,Friedrich-Ebert-Allee 1,22869,Schenefeld
8071220917,53.6064882,10.1187424,Zenthai,,,
8081940919,53.5490424,9.9638992,Reep,Spielbudenplatz 24-25,20359,Hamburg
8120357765,53.5401676,10.0025099,foodlab Popup Fenster,,,
8143539356,53.5509312,9.9910422,Wallters Wine Beef Kontor,Alter Wall 12,20457,Hamburg
8213628406,53.6077834,10.0065039,Moji Sushi Delivery,Alsterdorfer Straße 263,22297,Hamburg
8227959858,53.5415396,9.9847452,Fang & Feld,Platz der Deutschen Einheit 2,20457,Hamburg
8267085293,53.5789856,10.0133791,Kailua Poké,,,
8267085294,53.5789449,10.0133915,Monkey Beach,,,
8275901724,53.5747562,9.9572705,Eckstein,Osterstraße 45,20259,Hamburg
8286685883,53.5930392,9.9671892,3 Käsehoch,Lokstedter Steindamm 55b,22529,Hamburg
8289118222,53.5717079,9.9562309,Das Café im Hamburg-Haus,Doormannsweg 12,,
8289227931,53.5730692,9.9599582,Mercato Venezia da Nico,Eppendorfer Weg 87,,
8292524826,53.5725711,9.9594155,Zimt und Koriander,Eppendorfer Weg 79,,
8314749328,53.6641867,10.2207846,Soul Sushi Ahrensburg,Hamburger Straße 158,22926,Ahrensburg
8331804839,53.4530504,9.9246776,Pegasos,,,
8361370752,53.6126868,10.0243983,Co Do,Alsterdorfer Markt 12,,
8375015243,53.5676926,9.9877236,Tuana Hamburg,Binderstraße 13,20146,Hamburg
8385392610,53.5514305,9.9878008,LOsteria,,,
8432015675,53.5837684,9.9702647,Tam Quan,Hoheluftchaussee 90,20253,Hamburg
8503091919,53.6073306,9.9789416,Grill - Haus - Der Grieche,Borsteler Chaussee 120,,
8545043982,53.5458922,9.9538653,rotan caribbean rest.,,,
8560767374,53.7307511,9.9006906,Kaizen,Bahnhofstraße 26,,
8600109201,53.4913904,10.25713,Athena Grill,,,
8629398059,53.7305304,9.8961729,Der Grieche,,,
8664452497,53.4581795,9.9668063,Sushi for Friends,Eißendorfer Straße 68,,
8757549244,53.5815764,9.9714876,Garduong,Eppendorfer Weg 200,20253,Hamburg
8767923933,53.5631699,9.9165486,Mission Pizza,Beim Alten Gaswerk 3i,22761,Hamburg
8791794202,53.6049793,10.1593127,Kaya Feinkost,,,
8816702957,53.5538321,10.0136392,Saray Köz,,,
8824019402,53.5732015,10.0665649,LQuan,,,
8824359296,53.5716084,10.0646965,Venice,,,
8824407664,53.57153,10.0643738,LEMON GRASS,,,
8824433001,53.5710193,10.0618915,Back-LAVA,,,
8824433160,53.5709623,10.0617738,PINK BAMBUS,,,
8824436171,53.570932,10.061494,Köz Adana,,,
8826314238,53.7285053,9.8978806,Dreams,Kieler Straße 61,25451,Quickborn
8837061184,53.5454025,9.9754014,Ta Vegan House,Reimarusstraße 13,20459,Hamburg
8857654905,53.586115,10.0469665,The Public pub & bar,Fuhlsbüttler Straße 32,22305,Hamburg
8882274976,53.6700904,9.987486,Royal Gourmet,Rugenbarg 51,22848,Norderstedt
8891999816,53.5548316,10.0127265,Arpis,,,
8912262769,53.6485387,10.1652803,Le Quán,,,
8912921644,53.5444649,9.9054982,Strandperle,Övelgönne 60,22605,
8922794248,53.5854766,10.0079766,SVAAdish,Poßmoorweg 6,,Hamburg
8928592103,53.4532475,9.976866,Harburger Party-Service,,,
8935244117,53.5456993,9.9871322,BUDDELS Gasthaus und Weinbar,Deichstraße 37,20459,Hamburg
8957865651,53.6273643,10.0330468,Kobe Nord,Wellingsbütteler Landstraße 43,22337,Hamburg
8972869462,53.6268755,10.0255914,Spaccaforno,Erdkampsweg 6,22335,Hamburg
8986072612,53.6964129,9.8510143,Gut Wulfsmühle,,,
8995821761,53.5895138,9.9692574,,,,
9002067114,53.7286621,9.8978218,Bulls Steakhouse,Kieler Straße 63,25451,Quickborn
9002170307,53.566651,9.9891887,Brodersen,Rothenbaumchaussee 46,20148,Hamburg
9006868444,53.5574694,9.9369861,Elma,Harkortstraße 81,,
9013946822,53.6355417,9.8419952,Okyaku,Schulstraße 12,25469,Halstenbek
9063914875,53.4752081,10.1022011,Landhaus Voigt,Ochsenwerder Norderdeich 113,21037,Hamburg
9077512657,53.5799195,10.1031094,Adra,,,
9077638797,53.5395787,10.1049961,Sultan Darbar,,,
9083445905,53.5457741,9.9750109,Parca de Coimbra,Ditmar-Koel-Straße 17,20459,Hamburg
9103610619,53.5520338,9.992366,My Poké Neuer Wall,,,
9103620150,53.5799108,9.9751052,My Poké Eppendorf,Hoheluftchaussee 20,20253,Hamburg
9104027321,53.5492646,9.9602151,Do Mundo,,,
9124347844,53.5811122,10.0613336,Familiencafé Krümel,Straßburger Straße 19,22049,Hamburg
9164568317,53.5499641,10.0786813,Yoko Sushi,Horner Landstraße 150,22111,Hamburg
9164568517,53.5498523,10.0788967,Jays Pizza,Horner Landstraße 150,22111,Hamburg
9165494606,53.6009887,10.0279972,Freihafen,Kapstadtring 2a,22297,Hamburg
9180772691,53.5418874,10.0981689,"Tadim - Döner, Pizza",Billstedter Hauptstraße 14,,
9188320507,53.5886799,10.0461305,L‘Quán,Fuhlsbüttler Straße 108,22305,Hamburg
9199199984,53.5790091,10.042433,Đỗ Quán,Dehnhaide 12,22081,Hamburg
9221088417,53.5503496,10.0775228,Gaststätte Limnos,,,
9221973722,53.6048104,10.022937,Misas Kitchen,Mexikoring 37,22297,Hamburg
9238459341,53.5548145,10.0731255,Alte Bäckerei,,,
9244516427,53.5528119,10.0024544,Henry likes Pizza,Lilienstraße 5-9,20095,Hamburg
9245775466,53.5671982,9.995465,Torcello,Mittelweg 19,,
9247730684,53.588325,10.0455882,Naan,,,
9248502727,53.660344,9.8018759,Niitaka Sushi,Fahltskamp 15,25421,Pinneberg
9248760440,53.5423264,9.9888526,Lieger Caesar,,,
9250334046,53.4813147,10.2440729,Restaurant/Cafe Zur Sternwarte,August-Bebel-Straße 201,,
9276032312,53.6105802,9.8998363,Welcome India,Pinneberger Chaussee 21b,22523,Hamburg
9285210608,53.5669927,10.0223397,Moku Poké,,,
9285210609,53.5681485,10.023257,Osho Ayu-Leela,,,
9287413749,53.5462318,9.9871576,Cantine Papa Lisbeth,,,
9289956165,53.5013414,10.1976525,Bacchus,Lohbrügger Landstraße 90,,
9299529972,53.5441562,9.9527031,Liberté,Große Elbstraße 9a,22767,Hamburg
9310992896,53.5816246,9.9719945,Nøne Meat,Hoheluftchaussee 83,20253,Hamburg
9311022976,53.5905383,9.9422024,Casa Mosa,Hagenbeckstraße 124a,22527,Hamburg
9332858951,53.5674457,9.9287954,ELBAR de Calpesa,,,
9349268560,53.5547455,9.9284408,LAntica Pizzaria da Michele,Bahrenfelder Straße 177,,
9381497589,53.5663331,9.9795103,Pizza electric,,,
9388608125,53.6537364,10.0928432,Bistro Pizzarello,Heegbarg 14,22391,Hamburg
9389409131,53.6510942,10.0954302,Trattoria Brunello,Stormarnplatz 8,22393,Hamburg
9413590727,53.5414841,9.9869419,Kinfelts Kitchen & Wine,Am Kaiserkai 56,20457,Hamburg
9413611486,53.5834992,9.9705632,An Khang,Hoheluftchaussee 86,20253,Hamburg
9427821623,53.5735812,9.961755,Ikigai,,,
9448525625,53.5483745,10.0066289,Pane e tulipani,Klosterwall 23,20095,Hamburg
9464424799,53.5714739,10.0158476,La pata negra,Hofweg 45,22085,Hamburg
9477066773,53.5928387,9.9376333,La Ponte,Koppelstraße 24,22527,Hamburg
9493990124,53.7302029,10.2676369,Shahi,Rathausstraße 25b,22941,Bargteheide
9552393376,53.5525756,10.0020439,Chay Vegan,Lilienstraße 9,20095,Hamburg
9556036363,53.6574521,9.7764655,Prontos Pizza,Mühlenstraße 97a,25421,Pinneberg
9620110359,53.566579,10.0196034,xodó,Papenhuder Straße 26,22087,Hamburg
9626599317,53.5424006,10.0968492,Adis‘s Cevapcici Restaurant,,,
9631725923,53.5164885,9.9945062,Restaurant Victoria,,,
9680047691,53.6005723,10.0413853,SUSHIMEN,Fuhlsbüttler Straße 332,22307,Hamburg
9688800097,53.5412829,10.1637536,Pampilo,,,
9692897517,53.5596873,10.008472,Gurlitt,An der Alster 47a,,
9707274170,53.5533701,9.9965002,Bootshaus Alster,,,
9732571852,53.556489,9.8082483,Strandhotel Blankenese,Strandweg 13,22587,
9759529417,53.583397,9.9770622,Ceviche,,,
9770378175,53.4588978,9.9842134,mekan,,,
9783951869,53.5912255,9.9439454,innerluck,,,
9807232594,53.6230764,10.166356,Mannat,Meiendorfer Straße 101,22145,Hamburg
9807274233,53.6606675,10.0823137,Sushi Meister,,,
9836254819,53.6292411,10.1399459,Landhaus Restaurant,,,
9846097062,53.5732817,9.8911696,Samarkand,Notkestraße 2,22607,Hamburg
9881024322,53.684861,9.9850783,The Burger Factory,,,
9891643282,53.5511644,10.0032967,Ngan Tinh Vietnamesisches Restaurant,Mönckebergstraße 7,,
9897701317,53.5538723,10.0181861,Fräulein Fritz,,,
9899607617,53.488789,10.2081406,Los amigos,Serrahnstraße 9,,
9900976155,53.6048972,10.1550958,Pizza Mia,Helmut-Steidl-Platz 1,22143,Hamburg
9913067454,53.4236862,9.8975613,Cordes Restaurant,Sottorfer Dorfstraße 2,21224,Sottorf
9916760225,53.5719072,9.9586557,Cam On,Eppendorfer Weg 73,20259,Hamburg
9930080489,53.5508603,9.9808996,Herr Buhbe,Wexstraße 42,20355,Hamburg
9930293828,53.7074772,9.9918997,La Piazza,,,
9931839984,53.5487242,10.0093948,Das Goldene Ei,Schultzweg 2,20097,Hamburg
9939878640,53.550737,9.982083,Bootshaus Kombüse,,,
9951309017,53.565018,9.9803517,Oechsle Restaurant & Weinbar,Bundesstraße 15,20146,
9951351102,53.4631238,9.9810309,A la Fish,,,
9959030431,53.5798992,10.0085445,Asia WOK,,,
9980687717,53.5430129,10.000566,Hamburg im Süden,Koreastraße 2,20457,Hamburg
9980687817,53.5430476,10.0007748,The best baked potato,Hongkongstraße 2,20457,Hamburg
9981708840,53.6006853,10.0734447,Kantine Elbe,,,
9990187418,53.5906957,9.988797,Bao Bao,Schrammsweg 10,20249,Hamburg
9997456547,53.5520934,9.9293785,Das Granat,Ottenser Hauptstraße 32,22765,Hamburg
10010081751,53.6602677,10.0842261,JA ĂN,,,
10020171694,53.5796721,9.9672605,Taverna Astakos,,,
10032525051,53.6695003,10.2362504,Misaki,Bahnhofstraße 9,22926,Ahrensburg
10032525052,53.6698229,10.2354062,Taverne Rigani,,,
10032525067,53.6750068,10.2402583,Shibui,,,Ahrensburg
10032525072,53.6747407,10.2389306,Dolce Vita,,,
10032525073,53.6749608,10.2389882,La Piazza,,,
10053768266,53.557016,10.0044127,Atlantic Grill & Health,,,
10074431845,53.4615368,9.9787054,Buddha Kitchen,,,
10089886691,53.6519467,9.793642,IDA Brauerei,Oeltingsallee 24A,,
10106658736,53.5506242,9.9907894,Cotidiano,,,
10111911437,53.5853786,9.9925174,SPEISEKAI,Isekai 12,20249,Hamburg
10121414284,53.5530446,9.9874637,area10,Hohe Bleichen 10,,
10154099457,53.5716681,9.9584908,Dionysos,Eppendorfer Weg 67,,
10156406997,53.5588948,9.9282553,Der Player,Bahrenfelder Straße 322,22765,Hamburg
10174104134,53.5736276,10.0319374,Mantu,,,
10199343017,53.5625206,10.0331505,Louis Croque,,,
10201152487,53.5628665,9.9198429,Buhjah Bowls Bahrenfeld,Daimlerstraße 75a,22761,Hamburg
10201203638,53.5382926,10.0109133,Buhjah Bowls Hafencity,Baakenallee 19,20457,Hamburg
10210019278,53.5524023,10.0014517,Ginza,Lilienstraße 32,,
10222087675,53.5172062,9.987743,Lotus Streetfood,Vogelhüttendeich 54,21107,Hamburg
10224540165,53.6808076,10.0003506,Saito Sushi,Langenhorner Chaussee 679,22419,Hamburg
10231645403,53.6188331,9.819035,Montana,Dockenhudener Chaussee 188,,
10231739756,53.6530266,10.1034535,INDIAN FOOD,,,
10233396617,53.5643319,9.9600661,Takumi Ramen Station,Schulterblatt 114,20357,Hamburg
10241125187,53.5614399,9.9650913,Mikabalami,,,
10247359541,53.5551853,9.9428134,Smartbowls,,,
10269219209,53.5704664,9.9831424,Hindukusch,Rutschbahn 34,,
10278231475,53.6838834,9.9956972,Yoko Sushi,Breslauer Straße 17h,22850,Norderstedt
10280980615,53.7024687,10.0079701,Sportlerheim,,,
10290908427,53.4870808,10.2144452,On Dao,,,
10295053321,53.6760298,9.9783758,Sportlounge,Scharpenmoor 55,22848,Norderstedt
10303035429,53.4408649,9.960204,Sushi like a dream,,,
10309719291,53.6867571,10.0946063,Möstel,,,
10316530231,53.5551958,9.9905096,Avocado Nerds,,,
10373941498,53.4907913,10.2525204,Piccolo Luce,Hamburger Landstraße 38d,21465,Wentorf bei Hamburg
10539080933,53.6018623,10.0411519,Kebab Kitchen,Fuhlsbüttler Straße 386,22309,Hamburg
10558969042,53.5520828,9.9292482,Mr. Dumpling,Ottenser Hauptstraße 34,,
10564820406,53.489215,10.208113,Togao,,,
10579128928,53.4774111,10.2057552,Brunch Factory,Am Schilfpark 26,21029,Hamburg
10580002284,53.6832107,10.0310744,KALION Greek Restaurant,Tangstedter Landstraße 559,22851,Norderstedt
10589684172,53.5821117,10.0147469,Gorgonzola,,,
10676411152,53.4671814,9.9824471,Fischhalle,Kanalplatz 16,21079,Hamburg
10685380641,53.5160237,9.986381,Aria,Fährstraße 71,,
10685380643,53.5160265,9.9872233,Schwester Kumpir,Veringstraße 27,,
10695985008,53.5705843,10.1246752,Dionysos,,,
10726863905,53.548918,9.9928005,Tagliere e Vino,,,
10739295829,53.5803655,9.9472934,La Vita,,,
10745305524,53.6610436,9.7976464,Yoko,,,
10745340018,53.6612318,9.8004554,Köz Hanedar,,,
10753944503,53.553175,9.9569214,Tazzi Pizza 2 go,Kleine Freiheit 80,22767,Hamburg
10754013474,53.5660102,9.9664214,Tazzi Pezzo,Kleiner Schäferkamp 58,20357,Hamburg
10769308036,53.5569031,10.0215117,Damascino,Berliner Tor 3,20099,Hamburg
10771719002,53.6227522,9.9520643,Schwarzwald Stube,,,
10772996405,53.5591581,10.0154934,Giovani am Park,Bülaustraße 20,20099,
10782026357,53.6495589,10.0154677,Mai Mai,,,
10787119606,53.5446958,10.0249216,Smileys,,,
10787701632,53.5517918,9.9389801,TA - vegan house,Neue Große Bergstraße 11,,
10788406834,53.4656213,9.9889226,DOCK8 DÖNER,Veritaskai 8,,
10801602129,53.605796,10.0399771,Wüstenrose,Elligersweg 1,22307,Hamburg
10814487868,53.641222,10.0820569,Clounys,Rolfinckstraße 19,22391,Hamburg
10814513921,53.5730222,10.0659362,L’Quán,Quarree 8-10,22041,Hamburg
10814782124,53.5674453,9.8777364,Röbek | Eatery,,,
10816208877,53.6082682,10.0095619,Tsubaki,Alsterdorfer Straße 290,22297,Hamburg
10822665417,53.5663386,9.922697,Andronaco Bistro,Beerenweg 24-26,22761,Hamburg
10827691897,53.541653,9.9938528,goa hamburg,,,
10834294510,53.6023411,10.027409,Del Signore,,,
10860057871,53.5794378,9.9553719,braena,,,
10868359899,53.6050044,10.0402578,La Tropicana,,,
10873793765,53.5898064,9.9887012,Mc Carella,,,
10873804724,53.5567802,10.018888,Pars,,,
10874229524,53.549351,9.9739172,La Cocina Kochschule,,,
10891238471,53.5891027,9.8307064,Beamstop,,,
10913848074,53.6025561,10.0245009,Sushi Love,,,
10914496650,53.5832201,9.9798869,Da Remo,,,
10919757655,53.5695837,9.9789198,HEVIR,Grindelallee 137,20146,Hamburg
10921977670,53.5795165,9.9486664,Galopper,,,
10922264555,53.5558249,9.9852471,Kogai Sushi,Valentinskamp 89,,
10933415099,53.5624895,9.9611196,Cham,Schulterblatt 75,20357,Hamburg
10933418339,53.5806791,9.9686772,Sushi für Hamburg,,,
10933525684,53.5465426,9.9586056,Salt & Silver Lateinamerika,St. Pauli Hafenstraße 136-138,20359,Hamburg
10935309940,53.5484558,9.9624416,Hidden Kitchen Hamburg,Friedrichstraße 1,,
10944841713,53.5803865,9.9688687,Dal Fabbro,,,
10949110404,53.5679242,10.0182331,Pizza Tonio,Papenhuder Straße 49,,
10951281197,53.592514,9.9992132,Pizza Tonio,Sierichstraße 148a,,
10951424964,53.5442161,9.9390576,Open Kitchen,Große Elbstraße 133,22767,Hamburg
10957904815,53.5564894,10.043048,Mazé Mazé,Sievekingdamm 3,20535,
10962321424,53.6031465,10.1303038,Corfu Grill,,,
10969206196,53.5674951,9.9644662,CheekyPies,Weidenallee 45,,
10969509825,53.5485392,10.02272,Sushi fy,,,
10974441366,53.5618611,9.9625624,Park Cafe,,,Hamburg
10994419859,53.5807814,9.7948995,Asia Quick,,,
11005227814,53.4912925,10.2572535,Kajüte Wentorf,,,
11005483802,53.6910508,10.1396744,Jays,Sthamerstraße 30,22397,Hamburg
11005899831,53.5569859,10.0315994,Reisprinzen,Bürgerweide 36,20535,Hamburg
11025611928,53.5681269,9.9609058,Mareas,,,
11033960804,53.5674839,9.9571188,Yoko Sushi,,,
11033998161,53.567624,9.9569637,Raj Mahal,,,
11034186646,53.5665035,9.9100742,Ghana Aba Abrokyire,Norburger Stieg 1,,
11048068300,53.5578217,9.9902426,The Pho 22,Esplanade 22,20354,Hamburg
11049708031,53.5675639,10.0453771,Tapas e Vinho,,,
11057491148,53.5459451,9.9926154,Avelino Tapas y Vino,Katharinenstraße 31,20457,Hamburg
11063582752,53.5711173,10.0625552,Zaytuna,,,
11078784018,53.555647,9.962541,Pepironcino,,,
11079136026,53.5823498,9.9875504,Entre Nous,,,
11093488706,53.5898509,9.9867215,Le Levant,Eppendorfer Landstraße 65,20249,Hamburg
11134843736,53.6838769,9.9850865,LQuán,,,
11142022467,53.5594034,9.9132046,Lotus Tempel,,,
11151651648,53.5513096,9.9626864,Carmel by Kapara,Simon-von-Utrecht-Straße 12,20359,Hamburg
11155690252,53.5803497,9.9756738,Soy,Straßenbahnring 15,20251,Hamburg
11160537405,53.6713692,10.2385008,7Fuji,Hagener Allee 20,22926,Ahrensburg
11163224162,53.5725111,10.0637544,Shifudo,,22041,Hamburg
11163267278,53.5703876,10.0592662,Bamiyan,,,
11176692937,53.5619989,9.9623051,memán restaurant - modern afghan cuisine,,,
11189073811,53.5487499,9.9912561,60 seconds to napoli,Großer Burstah 1-3,20457,Hamburg
11196023998,53.5622981,9.9257111,Madame Mai,,,
11199332026,53.5747082,9.8234264,Togao,Schenefelder Landstraße 169,22589,Hamburg
11200999738,53.5530432,9.959105,HUi Cookshop,Paul-Roosen-Straße 12,22767,Hamburg
11235321548,53.4647699,9.9868033,Oishi Ramen &Sushi,Schellerdamm 9,,
11253319426,53.567707,9.9535107,JING JING,Waterloohain 7,22769,Hamburg
11254668228,53.5579154,9.97021,Lautre creperie bretone Pti Breizh,Ölmühle (Marktweg) 30,,
11274963891,53.557626,9.972388,Bodega Lima,,,
11298218537,53.5582956,9.7973377,Malizia Beach,Strandweg 69,22587,Hamburg
11300423869,53.5816796,9.7646402,Boca Restaurant & Bar,,22559,
11304751252,53.5451263,9.9421299,Zum Elbblick,,,
11310218289,53.5522276,9.9396381,Bravocado,,,
11340912201,53.5420792,9.9941062,MaiGlückchen,,,
11343357854,53.4721929,9.8893076,Köz Grillhaus,,,
11345846818,53.5679387,9.9602052,Sri Lankan Wave,Bellealliancestraße 38,,
11349949569,53.5679143,9.9800512,Ranas Royal,Grindelallee 89,,
11351565055,53.5554429,9.8114971,Schi{e}f²,Strandweg 1,,
11359073482,53.607119,9.8309998,Chiado,Achter de Weiden 91,,
11359636536,53.5831949,10.0097753,sour kitchen,Mühlenkamp 59,22303,Hamburg
11360197873,53.5616838,9.926686,Atlas Kochsalon,,,
11363703272,53.5450644,10.0284483,Kantine Hamburg,Süderstraße 79,,
11366995978,53.5491719,9.9621522,HOLY TACO,,,
11366997944,53.5486915,9.960536,Rodizio,,,
11375418111,53.5803917,10.0122226,mirou,Mühlenkamp 9,22303,Hamburg
11381302669,53.5995444,9.9316301,Mensa Stellingen,Vogt-Kölln-Straße 30,,
11385489251,53.7230826,10.2668642,Dubrovnik,Robert-Bosch-Weg 3,22941,Bargteheide
11385489255,53.72982,10.2613992,Röbls,,22941,
11388062469,53.5502823,9.9974554,Hofbrau München,,,
11398569139,53.5845409,9.8695911,Globus Küche,,,
11398590250,53.5845984,9.8711828,Viet Garden,,,
11413340268,53.5615433,9.9625711,La Cicchetteria,Schulterblatt 62,20357,Hamburg
11414674069,53.5557939,9.9625774,Zen,,20359,
11414681869,53.5565379,9.9627301,YUYU,,,
11414779411,53.5570239,9.8757409,Hala Lounge im GTHGC,Otto-Ernst-Straße 32,22605,Hamburg
11444848896,53.5874917,9.8774615,Bizim Mekan,,,
11452160842,53.5210725,9.9206745,Maxson Shop & Restaurant,,,
11470243331,53.5484518,10.0096762,Viva Cantina,Schultzweg 4,20097,Hamburg
11470377477,53.5433374,10.0035777,CLAAS,,,
11472708537,53.5650528,9.9837215,Baborrito,Grindelallee 26,20146,Hamburg
11476207805,53.567233,9.9813068,Nigiri Sushi & More,,,
11480258213,53.6607349,9.907086,The States - American Sports & Cocktailbar,Kieler Straße 117a,25474,Bönningstedt
11540262115,53.5391471,10.0430522,Asian Kitchen,,,
11553403973,53.5632039,9.915827,Bamboole,,,
11578579224,53.7271423,9.9141338,ELB·DIELE Quickborn,,,
11584792015,53.5782907,10.0288263,Rohhäppchen,,,
11587853658,53.5512041,10.0034527,Bar Levante,,,
11587853659,53.5561335,10.0092967,Yume,Lange Reihe 15 - 17,,
11587853667,53.555871,10.0089533,Mehndi,Lange Reihe 7,,
11592719021,53.7325409,9.9974205,Haveli,,,
11593147170,53.6288017,9.8454331,Schützenhaus,,,
11616111679,53.5538934,10.0640835,La Strada,,,
11641439295,53.4702316,9.853762,Greek Haus,Neugrabener Bahnhofstraße 16b,21149,Hamburg
11645961783,53.5488667,10.0223856,Bistro CleCle,,,
11659334673,53.581419,9.7567128,L‘Unico,,,
11669559803,53.5814208,9.9722683,poto,,,
11693286369,53.566751,10.0423936,Khaybar,Wandsbeker Chaussee 96a,22089,
11704046328,53.6059595,10.0397789,Sushi für Hamburg,,,
11711720026,53.55636,9.9875849,BLOCK HOUSE,Drehbahn 1,20354,Hamburg
11711851917,53.5529013,9.9880263,Le big TamTam,,,
11728687387,53.5554895,9.985772,Mala Town,,,
11728687763,53.4508544,9.987391,Nice Sushi,Winsener Straße 8,21077,Hamburg
11734124417,53.654875,10.0931467,del favero,Heegbarg 30,22391,Hamburg
11737274424,53.5695567,10.0559363,Zala,,,
11749042669,53.5550378,10.00704,,Ernst-Merck-Straße 10,20099,
11758585743,53.5775,9.9769818,1620,,,
11758586273,53.6593018,9.7424592,Restaurant Estia,Eekhoff 1,25482,Appen
11765646080,53.5828281,10.0476945,Sushi Green,,,
11775549961,53.6721276,10.240463,PokeBowl Sushi House,,,
11778781691,53.6091937,10.0724412,Fresh Masala,,,
11778781692,53.6092852,10.0724466,Pokeman,,,
11782663704,53.5560651,10.0073678,Hako Ramen,,,
11789444314,53.4480696,10.0762848,Elbnah,Lührsweg 17,,Seevetal
11799692372,53.549369,9.9588833,Köz Steinbock,,,
11804787655,53.6631175,9.7924429,Rangoli Restaurant,Elmshorner Straße 7 - 11,25421,Pinneberg
11826212420,53.5493386,9.9856597,STADTHAUS Restaurante & Bar,Heiligengeistbrücke 4,20459,Hamburg
11834675665,53.5809584,10.0080651,Spaccaforno,Poelchaukamp 25,22301,Hamburg
11876202869,53.5670445,9.985009,Mensa Studierendenwerk,,,
11918131265,53.5527879,9.9322713,Fisherman,Ottenser Hauptstraße 10,22765,Hamburg
11918135473,53.5528826,9.9316599,Kumpir,,,
11918135474,53.5529331,9.931778,Special Curry,,,
11918135475,53.552939,9.9318887,Dragon Wok,,,
11918135476,53.5529511,9.9320114,Vincent Vegan,,,
11918135478,53.5528294,9.9319057,Dilay Döner,,,
11918135479,53.5528426,9.9320455,Aha Ramen n Poke,,,
11918135491,53.5528931,9.9317885,Falafel House,,,
11918135492,53.5529194,9.932027,Cao Asia,,,
11918135493,53.5528144,9.9320548,Sushi Ten,,,
11918135494,53.5527987,9.9319223,Pizza Solo Bio,,,
11918135495,53.5527432,9.9319324,Pasta & Co,,,
11922268888,53.5425606,10.0005703,WaveCity,,,
11922337669,53.5440225,10.0254447,Chiyo Sushi & Asia Cuisine,,20097,
11930618864,53.5162841,9.9855334,ARIA,,,
11931454245,53.729373,9.8977295,Taj,Kieler Straße 84,25451,Quickborn
11932787541,53.4040606,9.7657607,Classic Restaurant Stampe,Karlsteinweg 17,,
11933340339,53.5630494,10.0328966,,,,
11934976569,53.566243,9.9634403,Momo Buns,Margaretenstraße 58,,
11935261551,53.5605236,10.030126,Sushi für Hamburg,,,
11943042753,53.5719729,9.9860023,mirou,Hallerplatz 12,20146,Hamburg
11951705881,53.5842293,9.9965789,Koer,Maria-Louisen-Straße 3,22301,Hamburg
