id,name,street,zip_code,lat,lon,geojson_feature_id
26010623,Rewe,Steendiek 16,21129,53.5327177,9.8790636,01120141
26010780,Rewe,Dehnhaide 57,22081,53.57929,10.0463285,04408423
156758344,PENNY,Washingtonallee 87,22111,53.546382,10.093545,01111129
156774142,REWE,Rennbahnstraße 34a,22111,53.5540037,10.0866624,01111129
156776325,Netto Marken-Discount,Kroogblöcke 40,22119,53.5519678,10.0952294,01111129
156784510,REWE Center Billstedt,Lorenzenweg 3,22111,53.5419307,10.1058678,01112130
251209809,Aldi,Kunaustraße 1,22393,53.6529137,10.1106026,05510518
253029096,Edeka,Heidrehmen 19,22589,53.5761024,9.8133718,02213226
253232943,REWE,Tonndorfer Hauptstraße 71-81,22045,53.5867978,10.125446,05505513
253238282,Penny,Erdkampsweg 43,22335,53.6289767,10.0231052,04412431
253256219,Netto Marken-Discount,,,53.5691406,10.0563262,05501504
253398571,Lidl,Reclamstraße 19,22111,53.5395463,10.1114384,01112130
253659936,EDEKA,Straßburger Straße 34,22049,53.5813138,10.0637257,04409425
254431997,Edeka Stöver,Traberweg 1,22159,53.5975475,10.1008197,05506514
255351692,REWE,Nordschleswiger Straße 68,22049,53.5820556,10.0673423,04409425
255580038,REWE,Fabriciusstraße 1-5,22177,53.5942143,10.0586902,05507515
258087597,ALDI,Holsteinischer Kamp 65,22081,53.5750045,10.0433901,04408422
258087602,REWE,Holsteinischer Kamp 53,22081,53.5754213,10.0421407,04408422
258329459,EDEKA,Knutzenweg 22,22041,53.5703703,10.0633401,05503510
266565881,denns Biomarkt,Rugenbarg 11,22549,53.5745714,9.8465383,02209221
268807434,PENNY,Reeperbahn 108-114,20359,53.549743,9.9605693,01104111
268808702,PENNY,Nobistor 27,22767,53.5500853,9.9547858,02201201
268808768,Aldi,Zirkusweg 4-6,20359,53.5477452,9.9658498,01104112
268813827,Edeka,Paul-Roosen-Straße 8,22767,53.5529553,9.9597393,01104110
269184906,PENNY,Bauerberg 20,22111,53.5511122,10.0800273,01111128
269237053,E-Center Struve,Hörgensweg 5,22523,53.6157675,9.9044912,03308320
273426771,Belindas Bioladen,Neugrabener Markt 1,21149,53.4696022,9.8540665,07714715
278487905,EDEKA,Fuhlsbüttler Straße 188,22307,53.5943474,10.0444502,04410428
279023080,EDEKA Linow,Mozartstraße 16,22083,53.5774719,10.0210212,04408418
279129938,Lidl,,,53.57426,10.0228276,04408418
282661693,PENNY,Hammer Landstraße 220,20537,53.5537587,10.0647372,01108125
282860692,ALDI Nord,Barmbeker Straße 17-25,22303,53.5843464,10.0177036,04405412
286652758,Netto Marken-Discount,,,53.5514167,9.9451848,02201203
287705465,EDEKA,Alsterdorfer Markt 8,22297,53.6125391,10.025185,04404407
288025446,Penny Außenmühle,Außenmühlenweg 10,21073,53.4518356,9.9842496,07704705
288249885,Aldi,Alsterdorfer Markt 4,22297,53.6124106,10.024801,04404407
288309622,Unser Markt,,,53.565994,9.986871,03302312
290632816,Edeka Wiedner,Stresemannstraße 161,22769,53.5623097,9.9501304,02203208
291194507,Edeka,Gasstraße 4,22761,53.5617881,9.9154785,02205216
291194684,Aldi,Paul-Dessau-Straße 8,22761,53.5625966,9.9157754,02205216
293900320,CAP-Markt,Weidestraße 122a,22083,53.5824937,10.0271125,04408419
293952484,Aldi,Pezolddamm 156,22159,53.6243309,10.1151973,05506514
293953356,Rewe,Pezolddamm 161,22175,53.6257204,10.1172764,05507515
300595929,Edeka Anders,Grindelallee 126,20146,53.5683667,9.9804125,03302311
300601410,Edeka Niemerszein & Co,Hallerstraße 78,20146,53.5723837,9.9876283,03302312
301070548,EDEKA Niemerszein,Osterstraße 86-90,20259,53.5758456,9.9540439,03301305
301706279,Nahkauf,Fruchtallee 123,20259,53.5723516,9.9503461,03301307
303387327,Tjadens Bio Frischemarkt Neustadt,,,53.5502468,9.9816006,01103107
303387393,PENNY,,,53.5513995,9.980364,01103106
307420171,REWE,Am Markt 10,25474,53.6644086,9.9054886,0
307420657,Lidl,Kieler Straße 103-107,25474,53.6647777,9.9041715,0
309832500,Netto Marken-Discount,Möllner Landstraße 28,22113,53.5416339,10.1659604,0
310935545,REWE City,Brauerknechtgraben 47,20459,53.5457799,9.9772139,01103105
311713182,Aldi,Am Saal 12,21217,53.4190141,10.0189413,0
312715645,Rewe,Kieler Straße 415,22525,53.5917712,9.9284756,03309321
315108185,EDEKA Frähmcke,,,53.5502442,9.9786697,01103106
318737119,Aldi,Eichkoppeltwiete 2,22889,53.7297053,10.0975743,0
318737484,Edeka Drews,Eichholzkoppel 1,22889,53.7302999,10.095177,0
319681424,PENNY,,,53.5532268,10.01193,01105114
327578932,EDEKA Frischemarkt Bartels,Winterhuder Marktplatz 18,22299,53.5950197,9.998796,04405409
327636432,Aldi,,,53.5944552,10.0014089,04405409
343413705,Rewe,,,53.5706556,9.9429031,02203209
343444947,Tjadens Bio Frischemarkt,,,53.5734399,9.9496462,03301306
350260037,Penny,Thesdorfer Weg 1,25421,53.6504579,9.7760352,0
355612972,Tjadens BioFrischemarkt,Friedensallee 275,22763,53.5597156,9.9098529,02207219
363574948,REWE,,,53.5111279,10.250511,0
365102752,Penny,Alte Berner Straße 10,22147,53.6254207,10.1407148,05518526
367032893,ALDI Nord,,,53.511582,10.2364198,0
367035347,Aldi,,,53.5278097,10.2501462,0
367819125,EDEKA aktiv markt,Heidhorst 4,21031,53.5148112,10.1678221,06601601
367947994,Aldi,Hauptstraße 58,22869,53.6013457,9.8220301,0
369300827,Edeka,,,53.5279097,10.2510403,0
370260808,REWE,Kiebitzweg 2,22869,53.603229,9.8369615,0
370923838,Rewe,Hermann-Balk-Straße 117,22147,53.6252435,10.1389722,05518526
373104576,EDEKA,Harburger Straße 27,21224,53.4324894,9.9055654,0
386211780,Netto Marken-Discount,Greifenberger Straße 67,22147,53.6173836,10.142797,05518526
388467931,Penny,Rathausstraße 11,22941,53.7298504,10.2646534,0
388469652,EDEKA,Rathausstraße 20,22941,53.7294878,10.2662834,0
389794752,EDEKA,,,53.4242573,10.2953452,0
391511122,ALDI Nord,Güttloh 1-5,25451,53.7213338,9.9014952,0
391521826,EDEKA Siewertsen,Bahnhofstraße 102,25451,53.7312443,9.9039565,0
401749768,Andronaco,,,53.5200386,10.0827623,01113131
404365531,Lidl,Altonaer Straße 10,20357,53.5638544,9.9615065,02202207
409233571,EDEKA Niemerszein,Mühlenkamp 43,22303,53.582622,10.0101789,04405413
410430200,PENNY,Drosselstraße 1,,53.5872582,10.050134,04410426
411016991,Asia Supermarket,,,53.579965,10.0418361,04408423
411017013,New Asia,,,53.5840995,10.046864,04410427
417726991,Lidl,Wilstorfer Straße 48,21073,53.4568417,9.9847163,07701702
418327928,Lidl,,,53.5824683,9.8555886,02209221
428168844,EDEKA Colak,Hauptstraße 1a,22962,53.6394569,10.286151,0
428182373,Edeka,Edith-Stein-Platz 4,21035,53.4871395,10.1799039,06614615
428623117,REWE,Jarrestraße 44,22303,53.5848151,10.0255027,04405411
432617629,Aldi,Grindelberg 27-29,20144,53.5744469,9.9770497,03303313
439184025,Lidl,,,53.5818781,9.9542057,03305317
439294606,Liare Asia Markt,,,53.5896436,9.9872463,04402404
444713589,EDEKA,Rathausallee 35-39,22846,53.7071468,9.9899792,0
444714197,REWE City,Hammer Landstraße 76,20537,53.5550945,10.0518006,01108124
449579275,Lidl,Fuhlsbüttler Straße 184,22307,53.5941386,10.0445275,04410428
450648833,Netto City,Grindelhof 23,20146,53.5683345,9.9825097,03302311
455268107,PENNY,,,53.6015136,9.8875525,02208220
471127996,EDEKA Bandelt,,,53.5530759,9.9321343,02204213
471757341,Netto Marken-Discount,,,53.5982583,9.8587752,02208220
475040822,Edeka,Fleetplatz 2-4,21035,53.4893835,10.1574119,06614615
480700018,Aldi,Eimsbütteler Chaussee 85,20259,53.5689589,9.9543559,03301307
503878951,REWE City,Eppendorfer Weg 192,,53.5813281,9.970907,03304315
513876247,ALDI Nord,Möllner Landstraße 108,21509,53.5421999,10.216478,0
513876249,Edeka,Möllner Landstraße 119,21509,53.5432891,10.2140592,0
515667771,ALDI Nord,Kandinskyallee 4-12,22115,53.5253594,10.1507351,01112130
523283733,A. Glasmeyer,,,53.559557,9.8864397,02206218
530902741,REWE,Sülldorfer Kirchenweg 2b,22587,53.5646119,9.814366,02211223
530965174,EDEKA Dalinger,Am Saal 2,21217,53.4196082,10.0202523,0
535203408,Netto Marken-Discount,,,53.4601498,9.984205,07701702
540704418,ALDI Nord,Kornkamp 46 g,22926,53.6792999,10.2610287,0
553103996,EDEKA Struve,Großer Burstah 31,20457,53.5481885,9.9890077,01101102
553330117,EDEKA aktiv markt,Waldhof 1,25474,53.6419408,9.88941,0
558251770,Rewe,,,53.6751197,10.2378956,0
558251796,Aldi,Große Straße 26,22926,53.6744558,10.2385166,0
558251885,PENNY. Ahrensburg City,Große Straße 28;29;30,22926,53.6742729,10.2381602,0
568338169,REWE,August-Krogmann-Straße 15,22159,53.6070685,10.1169258,05506514
573532022,Aldi,Holstenstraße 156,22765,53.5590955,9.9484926,02203210
576973912,Erdkorn,Lange Reihe 29,20099,53.5565967,10.0098788,01105114
596452894,Alnatura Super Natur Markt,Hahnenkamp 1,22765,53.552965,9.933508,02204213
597656007,PENNY,,,53.5849837,10.0807654,05502506
598696668,Penny,Schäferkampsallee 56,20357,53.5696781,9.9642291,03301309
601149867,Tjadens Bio-Frischemarkt,Paul-Sorge-Straße 4a,22459,53.6215349,9.9515821,03306318
603659330,PENNY,Mittelstraße 66,22851,53.6878794,10.0395812,0
610574667,Netto Marken-Discount,Hegestraße 28,20251,53.5832688,9.9822248,04401401
610574701,EDEKA Schlemmermarkt Struve,Eppendorfer Landstraße 41,20249,53.5884445,9.9854035,04402403
610844360,Penny,Droopweg 25,20537,53.5536852,10.0628171,01108125
611334610,Penny,Fleetplatz 1-7,21035,53.4894587,10.1590279,06614615
635376665,Penny,Zeidlerstraße 21-23,21107,53.5133812,9.9944027,01116137
639631020,Aldi,Lohkampstraße 13,22523,53.6087909,9.9015014,03308320
641778245,EDEKA Meyers Frischemärkte,Krähenweg 19,22459,53.6330294,9.9578825,03306318
646891937,ALDI Nord,Schippelsweg 51,22455,53.6347624,9.9567388,03306318
678352171,E aktiv markt Witt,Carl-Petersen-Straße 80,20535,53.5578353,10.0476015,01108122
679657341,EDEKA Gillert,Marienthaler Straße 145,20535,53.5641498,10.0563505,01108122
694587843,PENNY,Mühlenkamp 32,22303,53.5816038,10.0117333,04405413
699804455,Netto Marken-Discount,Alsterdorfer Straße 21,22299,53.5958961,9.9975425,04405409
700194437,PENNY,Norbert-Schmid-Platz 3,22399,53.6536476,10.0620188,05512520
700194447,ALDI,,,53.6546562,10.0606115,05512520
703474298,Penny,,,53.6073873,9.9023724,03308320
706304083,ALDI Nord,Buckhörner Moor 110-112,22846,53.7068769,9.9887124,0
712248053,Sönmez Markt,Lüneburger Straße 42,21073,53.4597467,9.9826851,07701702
732830904,PENNY,Ulzburger Straße 308-310,22846,53.7133072,10.0002578,0
738932766,REWE,Borsteler Chaussee 17,22453,53.603805,9.9843223,04403406
762331280,EDEKA,Kohfurth 15,22850,53.6896796,9.9822703,0
768808844,PENNY,Alsterdorfer Straße 63-65,22299,53.5984651,9.9966536,04405408
788452552,EDEKA,Hummelsbütteler Landstraße 9-11,22335,53.6271582,10.0239819,04412431
793896916,Baity,Lange Reihe 1-5,20099,53.5558124,10.0086291,01105114
841651287,Simon Frischemarkt,Weiße Rose 1,22359,53.6479863,10.1636295,05517525
853875565,Aldi,Grelckstraße 2,22529,53.5999751,9.9581638,03305317
854582753,Netto Marken-Discount,Haferkamp 8,22081,53.5815211,10.0448644,04408423
856778142,Aldi,Bahnhofstraße 94,25451,53.7308796,9.9043544,0
898840703,Nur Bazar,Fuhlsbüttler Straße 174,22305,53.5927379,10.044557,04410427
901536388,Edeka,,,53.6478387,10.1688097,05517525
903994205,Edeka Peter Jessen,,,53.6428068,10.0464759,05512520
916825812,Penny,,,53.5794041,9.9397197,03301301
921212925,Alnatura Super Natur Markt,Wandsbeker Marktstraße 2,22041,53.5704053,10.0612245,05503510
928371750,REWE,Eiffestraße 664b,20537,53.5497577,10.0663779,01108125
938783926,PENNY,Bargteheider Straße 83-87,22143,53.6033094,10.1449332,05518526
938783975,REWE,Bargteheider Straße 83-87,22143,53.6035475,10.1448043,05518526
957863158,Akzent,Manshardtstraße 109,22119,53.5591993,10.1064563,01111129
976181721,EDEKA-Center Struve,Schweriner Straße 8-12,22143,53.6045934,10.1575106,05518526
977466078,Kaufland,Berner Heerweg 173-175,22159,53.6049193,10.1170713,05506514
979088995,ASIA24,,,53.553039,10.022702,01105113
981299533,EDEKA Center Harburg,Seeveplatz 1,21073,53.4578263,9.9875628,07701702
985215261,REWE,Wedeler Landstraße 16-19,22559,53.5817966,9.7596481,02214227
985215273,EDEKA Schlemmer Markt Struve,Wedeler Landstraße 52-56,22559,53.5823539,9.7549086,02214227
997541381,Onur Feinkost - Harburg,,,53.4613651,9.9838685,07701702
1014518092,Lidl,Möllner Landstraße 119,21509,53.5430803,10.2141606,0
1071995397,Nahkauf,Poppenbütteler Straße 174,22851,53.6938397,10.0270273,0
1079100520,EDEKA,Blankeneser Bahnhofstraße 17,22587,53.5598753,9.8115511,02211223
1123244429,REWE,Heegbarg 31,22391,53.6536326,10.0900797,05511519
1123244435,Erdkorn,Heegbarg 31,22391,53.6542578,10.0917126,05511519
1126326234,Onur,Fuhlsbüttler Straße 125-127,22305,53.5903045,10.0446866,04410427
1132211107,EDEKA,,,53.55155,9.9440616,02201203
1132211112,Aldi,Große Bergstraße 152-162,22767,53.5514365,9.9436769,02201203
1213558455,Rewe,,,53.4741819,9.8758545,07713714
1234663426,Alaska Markt,Alaskaweg 4,22145,53.6279633,10.1504278,05518526
1234673445,Berne Bazar,Hermann-Balk-Straße 110,22147,53.6242161,10.1407325,05518526
1237410873,denns Biomarkt,,,53.6005131,10.1379906,05518526
1237412652,Edeka,Boltenhagener Straße 3,22147,53.6004681,10.1367579,05518526
1263685768,EDEKA Niemerszein am Hofweg,Hofweg 81,22085,53.576361,10.0148697,04406414
1285125490,PENNY Alte Holstenstraße,Alte Holstenstraße 23-25,21031,53.4928937,10.2074659,06601601
1308716421,Lidl,Altonaer Chaussee 14,22869,53.59928,9.852687,0
1312105950,Aldi,,,53.4602512,9.9811312,07701702
1312163857,PENNY,Schulterblatt 49,20357,53.5610138,9.9625769,02202207
1331105107,EDEKA Martens,,,53.678069,10.1449493,0
1341669852,EDEKA Schulz,,,53.4897287,10.2536994,0
1341669853,ALDI,Am Casinopark 14,21465,53.4893607,10.2533974,0
1350081975,ALDI Nord,Schweriner Straße 8-12,22143,53.6044332,10.1590594,05518526
1350081977,REWE,,,53.6039064,10.1551434,05518526
1374898148,Erden,,,53.6086426,9.9023701,03308320
1376664367,EDEKA Nico Clausen,Neuengammer Hausdeich 215,21039,53.4444578,10.22947,06605606
1376664713,Penny,,,53.4477356,10.2303767,06603604
1376677175,Penny,Eilbergweg 16,22927,53.6619927,10.285697,0
1391523563,REWE,Grindelallee 40-44,20146,53.5659979,9.9825903,03302312
1411202969,REWE City,Moorfuhrtweg 15,22301,53.5851574,10.0087902,04405410
1413167222,Denns BioMarkt,Schanzenstraße 119,20357,53.5649828,9.9654829,02202207
1417506627,Schlemmermarkt Struve,Heegbarg 25,22391,53.6532947,10.0913576,05511519
1452699102,EDEKA Niemerszein am Sand,Sand 27-33,21073,53.461213,9.9799199,07701702
1455949107,EDEKA Böcker,Überseeboulevard 4-10,20457,53.5418655,9.9977126,01102103
1476894563,PENNY,Hamburger Straße 1,22083,53.5708984,10.0277337,04408418
1488554798,PENNY Markt Hoheluft,Eppendorfer Weg 261,20251,53.5839247,9.9774077,04401401
1489974732,Lidl,Borgweg 2a,22303,53.589056,10.0162846,04405410
1502662513,Alnatura Super Natur Markt,Hoheluftchaussee 18,20253,53.5795413,9.9751797,03304315
1502662563,REWE,Hoheluftchaussee 23-25,,53.5796245,9.9742606,03304315
1504507512,EDEKA Heitmann,Hoheluftchaussee 52-54,20253,53.5809029,9.9740159,04401401
1529443397,Markant,Barmbeker Straße 17,22303,53.5844862,10.0184132,04405412
1539751231,REWE,Fuhlsbüttler Straße 387,22309,53.6017671,10.040567,04410429
1544790152,PENNY,Rothenburgsorter Marktplatz 1a,20539,53.5338383,10.0387961,01114133
1548475418,Fairmann’s Tochter Feine Lebensmittel und Getränke,Bleickenallee 43,22763,53.5510015,9.9119706,02204212
1562338853,REWE,Troplowitzstraße 8,22529,53.5855198,9.9661025,03305317
1562385916,Penny,Eppendorfer Weg 111,20259,53.5749369,9.9618838,03301305
1562418576,Netto City,Neuer Steinweg 18,20459,53.5504922,9.9774597,01103106
1563913596,REWE,Lübecker Straße 107,22087,53.5621792,10.0313413,04407417
1571347946,Lidl,Steindamm 94,20099,53.5552291,10.0170875,01105113
1571348553,Kaufland,Beim Strohhause 8,20097,53.5524952,10.0205863,01105113
1585061911,Nah & Frisch,August-Bebel-Straße 96,21029,53.4843642,10.2277106,06602603
1585549797,PENNY,Liliencronstraße 84-102,22149,53.5906561,10.1611329,05518526
1602005666,Aldi,Fuhlsbüttler Straße 334,22307,53.6008583,10.0413875,04410429
1607039308,Istanbul Supermarkt,,,53.5707788,10.0630106,05503510
1616141924,PENNY,Wandsbeker Chaussee 162,22089,53.5681284,10.0499809,05501503
1616141937,El Cielo,,22089,53.5694751,10.0557101,05501504
1618694837,PENNY,Pinneberger Chaussee 114,,53.6187395,9.8894535,03308320
1642881553,PENNY,Grömitzer Weg 42,22147,53.6079253,10.1382392,05518526
1650212457,Hanse Markt Kotan,,,53.5236108,10.0157866,01115134
1693765859,EDEKA Kröger,Hauptstraße 2,21465,53.491376,10.252838,0
1741418928,Netto Marken-Discount,Kandinskyallee 23f,22115,53.5293297,10.1496227,01112130
1760954374,Mix Markt,Tonndorfer Hauptstraße 66,22045,53.5851218,10.122743,05505513
1774130614,PENNY,Oststeinbeker Weg 2,22117,53.5355962,10.1316573,01112130
1811289832,Erdkorn,Sülldorfer Landstraße 13,22589,53.5763773,9.8201785,02212225
1814134892,PENNY,Friedrich-Ebert-Straße 2a,25421,53.6617363,9.8015343,0
1817416148,Erdkorn,Hauptstraße 32,25469,53.6353626,9.8405123,0
1825112098,PENNY,,,53.6045471,10.1170978,05506514
1827870186,Vinh-Loi Asien-Supermarkt 榮利市場,Wandsbeker Königstraße 23-25,22041,53.5727392,10.0622388,05502505
1854143203,Penny,,,53.599233,9.8439132,0
1897194090,Kaufland,Willinghusener Weg 1,22113,53.5468149,10.1524665,0
1897701703,Lidl,Frohmestraße 99,22459,53.629547,9.9299299,03307319
2012113690,Lidl,Kümmellstraße 4-8,20249,53.5904884,9.9855913,04402403
2016155907,warenwirtschaft,Große Brunnenstraße 138,22763,53.5556596,9.9213048,02204212
2020016275,Reformhaus Mahnert,Marktpassage 1,21149,53.46985,9.8535251,07714715
2031980363,REWE,Glißmannweg 14,22457,53.6350889,9.9184416,03307319
2058396161,PENNY,Manshardtstraße 113h,22119,53.5599932,10.1071677,01111129
2058499066,EDEKA Reinhardt,Hansdorfer Landstraße 140,22927,53.6627571,10.2816451,0
2065584067,Zem Zem Supermarkt,Schiffbeker Weg 18,22111,53.5415264,10.1022934,01112130
2082343278,Kaufland,Eckhoffplatz 1,22547,53.5915881,9.8741466,02208220
2138180707,Edeka Sören Lade,Uhlenhorster Weg 2,22085,53.5690477,10.0181706,04406415
2146414958,E aktiv markt Strehl,Dänenweg 12,22926,53.640938,10.217306,0
2148881579,Ihre Kette,Fischers Allee 35,22763,53.5484027,9.9219937,02204212
2153643388,Alnatura Super Natur Markt,,,53.5568407,9.9284937,02204211
2153657219,Alnatura Super Natur Markt,Am Rissener Bahnhof 23,22559,53.5823353,9.7555964,02214227
2172366285,REWE City,,,53.5589864,9.8126602,02211223
2176840165,Lidl,,,53.7046586,10.1040745,05514522
2179129227,REWE,Am Markt 9,22941,53.7295989,10.2608175,0
2212568576,Edeka Niemerszein,Lange Reihe 110,20099,53.5593053,10.0145428,01105113
2215353356,bioMarkt Barmbek,Fuhlsbüttler Straße 164,22305,53.5918748,10.044575,04410427
2218638250,EDEKA Heine,Bergedorfer Straße 148,21029,53.4860186,10.2141866,06602602
2218638272,Kaufland,Bergedorfer Straße 106,21029,53.487536,10.2070677,06602602
2292623623,Mix Markt,Friedrich-Frank-Bogen 81,21033,53.4891919,10.1817182,06602602
2296156574,PENNY,,,53.4771687,10.182057,06602602
2297070153,Nah & Frisch,,,53.5478888,9.9273064,02204214
2301093838,Frischemarkt Wiesnerring,Wiesnerring 5,21035,53.4827237,10.199011,06602602
2301140156,EDEKA,,,53.4882061,10.2095811,06602602
2301162629,Denns BioMarkt,,,53.4863499,10.2141237,06602602
2352739970,EDEKA,Kandinskyallee 21,22115,53.5277117,10.1491621,01112130
2444698139,PENNY,Hummelsbütteler Weg 52-66,22339,53.6424748,10.0485293,05512520
2460768184,ASIA-Markt Mipoong,Rosenstraße 6,20095,53.5529865,10.0009845,01101101
2507312841,EDEKA Appel,Krupunder Heide 2a,25462,53.6332869,9.8711239,0
2507312842,Aldi,Krupunder Heide 2,25462,53.6334778,9.8710488,0
2515618263,EDEKA Lars Tamme,Flughafenstraße 1-3,,53.6319443,10.0056655,04412431
2516061372,Frischemarkt Hinrichs,Brockdorffstraße 96,22149,53.5949639,10.1683567,05518526
2561529269,Rewe,Schiffbeker Weg 230,22119,53.562625,10.1202832,01112130
2657485841,Denns BioMarkt,Fuhlsbüttler Straße 397,22309,53.6024722,10.0400193,04410429
2661597248,Edeka Kilic,Bremer Straße 31-33,21073,53.4565135,9.9788034,07701702
2705993679,Ringeltaube,,,53.5375066,9.8459527,01120141
2714684846,PENNY,Hermann-Körner-Straße 49,21465,53.5225328,10.2434376,0
2732928712,Feinkost Partyservice Hillermann,Kirchenheerweg 5,21037,53.4190937,10.2001905,06606607
2897556570,Daily Asia,,,53.5905783,10.0445418,04410427
2901706712,Edeka Tamme,Spitalerstraße 10-12,20095,53.5522093,10.0028928,01101101
2918515630,Tjadens Bio Frischemarkt,,,53.5924124,9.9860054,04402403
2955517090,EDEKA,Eppendorfer Landstraße 108-110,20249,53.592479,9.9890413,04402404
2959581354,EDEKA Pigarew,Roman-Zeller-Platz 8,22457,53.6474052,9.9090198,03307319
3016210579,E-Center,Alte Holstenstraße 30,21031,53.4919434,10.2067544,06601601
3030220745,Edeka S. Anders,,,53.5591506,9.9498973,02201206
3088936124,Edeka Center St. Pauli,,,53.5564597,9.9658329,01104111
3088936125,Aldi,,,53.55625,9.966844,01104111
3118159509,Lindenbazar,,,53.5545164,10.0169683,01105114
3135975018,Tjadens Biomarkt,Gertigstraße 28,22303,53.5820928,10.0157509,04405412
3136102828,Sönmez I,,,53.5544252,10.0134831,01105114
3137361353,REWE,Wellingsbütteler Markt 1,22391,53.6411898,10.080883,05509517
3177236831,Edeka,Friedrich-Ebert-Straße 38-40,25421,53.6627836,9.7960149,0
3201836156,EDEKA Boldt,Kaiser-Friedrich-Ufer 30,20253,53.5778352,9.9761189,03303313
3255028684,Netto City,Grindelallee 154-156,20146,53.5701096,9.9794027,03302311
3295500275,Dschungelkiste,,,53.6097676,10.0524145,05508516
3306442631,Aldi,Am AKKU 7,22885,53.5673229,10.1643058,0
3306444073,REWE,Am AKKU 5,22885,53.5679235,10.1643163,0
3370930316,Nahkauf,Glashüttenstraße 10,20357,53.55832,9.972503,01104109
3442669481,Aldi,Schreyerring 6,22309,53.6116231,10.0584946,05508516
3451004757,AliSe Markt,,,53.6041237,10.1547274,05518526
3456098627,Denns BioMarkt,Ottenser Hauptstraße 39,22765,53.5518384,9.9288387,02204213
3491051008,Erdkorn,Eppendorfer Landstraße 77,20249,53.5907102,9.9862731,04402403
3491051015,REWE,Eppendorfer Landstraße 77,20249,53.5906353,9.9858466,04402403
3501644367,REWE,Langenhorner Chaussee 666,22419,53.6784436,10.0017207,04413432
3507046863,EDEKA aktiv markt,Martinistraße 64,20251,53.5897963,9.9736046,04402403
3530246292,Erdkorn,Stresemannstraße 62,22769,53.5601281,9.9586093,02201206
3605292356,TEK Market,Möllner Landstraße 14,22111,53.5392897,10.1054841,01112130
3647731770,Netto Marken-Discount,,,53.4721076,9.8524403,07714715
3672073238,Nadi Markt,,,53.5763743,9.9506069,03301303
3673891461,Sönmez II,,,53.5528404,10.0110779,01105114
3686157711,Fils Dor Markt,Fuhlsbüttler Straße 151,22305,53.5919794,10.0439064,04410427
3709765890,REWE City,Erdkampsweg 29,22335,53.628016,10.0243272,04412431
3754520027,REWE City,,,53.5805396,10.0196242,04408418
3781926340,Adese Internationaler Supermarkt,Rieckhoffstraße 8,21073,53.4575059,9.9856294,07701702
3818752957,REWE City,,,53.551508,9.93267,02204213
3819807685,Halk Pazari,,,53.5517265,9.9455846,02201204
3819807795,Fresh Asia,Große Bergstraße 197,22767,53.5518764,9.9444773,02201204
3872415836,PENNY,Troplowitzstraße 7,22529,53.58459,9.9647951,03304316
3881207134,REWE,Hannoversche Straße 86,21079,53.455791,9.9882686,07701702
3884968291,REWE City,Hammer Steindamm 40,22089,53.5667278,10.0567883,05501504
3904510655,REWE,Dorotheenstraße 116-122,22301,53.5877104,10.0070465,04405410
3961160651,REWE,Altonaer Straße 67,20357,53.5653686,9.9651035,03301310
4009771312,Kinh Do Asia-Supermarkt,,,53.5498551,10.1566491,0
4021067921,Nahkauf,Reeseberg 62,21079,53.4462663,9.9938903,07704705
4106443491,Kaya Markt,Tangstedter Landstraße 40,22415,53.6485249,10.0163835,04413432
4108544230,,,,53.5674557,10.0469262,05501503
4143189489,Aldi,Bahrenfelder Straße 188,22765,53.5550619,9.9287009,02204213
4144447589,Mas Impex,Wilstorfer Straße 49,21073,53.456404,9.9860512,07701702
4144447592,Dong Tien Asia-Supermarkt,Wilstorfer Straße 52,21073,53.4564181,9.9853674,07701702
4144489731,Balkanische Lebensmittel,Wilstorfer Straße 76,21073,53.4551026,9.9871237,07701702
4144993056,Aldi,Seeveplatz 1,21073,53.4579509,9.9871254,07701702
4166910152,Minimarkt,,,53.5902689,10.0569773,04410426
4180514489,ALDI Nord,Quarree 8,22041,53.5733327,10.0672908,05502505
4241611839,Frischemarkt Jurgeleit,Sophie-Rahel-Jansen-Straße 100,22609,53.553527,9.8473637,02210222
4338567954,Alnatura Super Natur Markt,Am Tarpenufer 3-5,22848,53.6813337,9.9983255,0
4338567964,REWE City,Am Tarpenufer 3-5,22848,53.6812298,9.9980452,0
4380248695,REWE,Berliner Allee 38-44a,22850,53.686157,9.9862465,0
4400941687,Früchte Lebensmittel,Mühlenredder 11,21465,53.517624,10.2493697,0
4413847678,Alnatura Super Natur Markt,Schanzenstraße 34-36,20357,53.5607006,9.9659412,02202207
4519240505,EDEKA Clausen,Alter Güterbahnhof 2,22303,53.5913323,10.0357653,04405409
4594759995,Glasmeyers Rewe,Jürgen-Töpfer-Straße 18,22763,53.5569787,9.9020034,02207219
4672801249,Denns BioMarkt,Massaquoipassage 5,22305,53.5884333,10.0446426,04410427
4693152989,TIDE Treibholz & Feinkost,Rothestraße 53,22765,53.5511853,9.9271056,02204213
4781706237,Tjaden’s Bio Frischemarkt,,,53.6035789,10.1550373,05518526
4842648823,Erdkorn,Groten Hoff 6,22359,53.6473482,10.1641677,05517525
4859122828,Denns BioMarkt,,,53.5585614,9.9500238,02201206
4906169523,Idil Supermarkt,Möllner Landstraße 137 d,22117,53.5388305,10.1239195,01112130
4951486521,Orient Express,,,53.5530696,10.0115834,01105114
4963464189,Alnatura Super Natur Markt,Überseeboulevard 5,20457,53.5416374,9.998182,01102103
4964529423,denns Biomarkt,Stratenbarg 2,22393,53.6543992,10.1126361,05510518
4984199972,Penny,,,53.5813738,9.7538801,02214227
5039114736,Supermarket Snackcity,Wandsbeker Chaussee 160,22089,53.5680565,10.0497217,05501503
5056117589,CMB,,,53.4891411,10.2075234,06602602
5058808022,que huong Asia Laden,Fuhlsbüttler Straße 417,22309,53.605922,10.0391655,04410429
5071973138,EDEKA Jessen,Saseler Damm 14-16,22395,53.6549269,10.1007116,05511519
5139168170,Asia Markt Ahrensburg,Rathausstraße 8,22926,53.673558,10.2382707,0
5167833458,EDEKA Niemerszein,Milchstraße 1,20148,53.571017,9.995781,03302312
5219330482,famila,Eichenlohweg 17,22309,53.6089752,10.0430475,04411430
5230025673,Erdkorn,Hoheluftchaussee 69-75,20253,53.5811517,9.9724214,03304315
5235581180,Aldi,,,53.5876774,9.849661,02209221
5319099424,Asiatische Lebensmittel KIM,,,53.5679805,10.0229304,04406415
5376522611,Aldi,Lübecker Straße 116-124,22087,53.5629248,10.0335639,04407417
5585665761,Rewe City,Friedensallee 9,22765,53.5545673,9.9269451,02204213
5604552336,Feustel,Ulzburger Straße 585,22844,53.7316687,9.9965091,0
5695222025,Penny,,,53.4652881,9.9621035,07710711
5713555377,Lidl,Holstenstraße 5-9,22767,53.5509372,9.956127,01104110
5754510678,AKIN Markt,,,53.4587234,9.9821874,07701702
5760693858,REWE Riebel,Im Fischbeker Heidbrook 2b,21149,53.4664285,9.80901,07714715
5774246453,Tjadens Bio Frischemarkt,,,53.4678133,9.7927485,0
5906417297,Frischemarkt Wagner,Borsteler Chaussee 136-138,22453,53.6079876,9.9778536,04403406
5909547417,Ohne Gedöns,Kattjahren 1c,22359,53.6513487,10.1629843,05517525
5914861546,Mas Market,Bramfelder Chaussee 251,22177,53.6140576,10.0756873,05507515
6017169635,REWE Krage,Stormarnplatz 2-6,22393,53.651213,10.0940844,05511519
6111365909,REWE,Vogteiweg 60-62,22926,53.6860448,10.2400336,0
6125050167,Denns BioMarkt,,,53.6499362,10.0134993,04413432
6178466312,denns Biomarkt,Osdorfer Landstraße 2,22607,53.5691738,9.8795827,02205217
6180599672,EDEKA,Bramfelder Chaussee 322,22177,53.6187256,10.0807064,05507515
6269714981,Denns BioMarkt,Rathausplatz 29,22926,53.6729736,10.2371171,0
6277439143,REWE City,Rathausallee 31a,22846,53.7063913,9.9929833,0
6306765198,Aldi,Osterstraße 119,20259,53.575621,9.9521674,03301306
6321524796,Aldi,Berliner Platz 21,22045,53.5845777,10.1435612,05504512
6344514816,denns Biomarkt,Frohmestraße 11,22457,53.635252,9.9194109,03307319
6367302350,REWE,Nordalbingerweg 23-31,22455,53.6406331,9.950527,03306318
6370496986,Helens Supermarkt,,,53.6403913,10.0197924,04413432
6370541401,Budni - Drogerie,,,53.5985074,9.8591599,02208220
6456459951,Naturkost Teichmann,,,53.6248184,10.1405554,05518526
6474383738,Asia Supermarkt,,,53.4904384,10.2091285,06602602
6516938353,Mein Bioladen,Hauptstraße 4,21465,53.4915406,10.2526595,0
6530990936,Khairat Zaman,,,53.5528787,10.0136354,01105114
6577264701,REWE,Alte Elbgaustraße 1,22523,53.607169,9.9052477,03308320
6577264718,Netto City,Alte Elbgaustraße 1,22523,53.6071817,9.9055776,03308320
6633360866,PENNY,Friedensallee 98,22763,53.5567304,9.9197675,02204212
6641611036,mienbüttel,Osterstraße 81,20259,53.5753464,9.9547121,03301306
6710473937,Edeka,Veritaskai 8,,53.4654958,9.9887073,07701702
6760431085,Food Plus,,,53.4617221,9.9824683,07701702
6781293982,PENNY,Grachtenplatz 7,21035,53.4835538,10.1759583,06614615
6806404839,Özdemirs Laden,,,53.5322189,9.8785557,01120141
6904679739,Malata Markt,,,53.5765922,10.0593956,04409424
7004872616,Penny,Lorenzenweg 3,22111,53.5419905,10.10592,01112130
7182756958,Aldi,Krüsistraße 7,22305,53.5879662,10.0448355,04410427
7182756959,REWE,Krüsistraße 7,22305,53.5880487,10.0448509,04410427
7212932635,Andronaco HafenContor,,,53.5437318,9.9972054,01102103
7222024495,Penny Bremer Straße,Bremer Straße 90,21073,53.4524684,9.9729128,07709710
7503730790,Aldi,Randstraße 77,22525,53.5885164,9.9223434,03309321
7526573418,EDEKA Niemerszein,Nagelsweg 20,20097,53.5481338,10.0176566,01106115
7530123655,Bulls Food Store,,,53.6033415,9.8935383,03308320
7611535565,EDEKA M. Petersen,Baakenallee 32,20457,53.5375535,10.0121006,01102104
7611535566,Aldi,Baakenallee 38,20457,53.5373187,10.0126965,01102104
7650107135,Muttels,Papenhuder Straße 28,22087,53.5668092,10.0194643,04406415
7658978628,Aldi,,,53.5526885,9.933623,02204213
7762249312,Punjab Asia - Afro Store,Stegerwaldring 21,22119,53.5509485,10.0999171,01111129
7792032377,Edeka Hollender,,,53.6491062,10.0141866,04413432
7859465103,famila,Matthias-Claudius-Straße 1,21629,53.4604015,9.7859465,0
7923820185,Edeka Kraus,,,53.5670955,9.9962893,03302312
7967120281,Rewe,Stresemannstraße 197-221,22769,53.563392,9.943786,02203209
8285098570,Denns BioMarkt,Kieler Straße 577d,22525,53.59969,9.9154852,03309321
8500463122,Jannis Shop,Osterbrooksweg 19,22869,53.5978861,9.8381154,0
8824441002,Asia Markt Thanh Phong,,,53.5706078,10.0620615,05503510
8888264555,Asia & Afro Trading Shop,,,53.5450172,10.0244754,01106116
8909527986,Denns BioMarkt,,,53.5516921,9.9427956,02201203
8989458372,Denns BioMarkt,Rothenbaumchaussee 76,20148,53.5713997,9.9891938,03302312
8992645898,GohMo Asiatische Lebensmittel & Sushi,Burgwedel 1,22457,53.6366616,9.9172627,03307319
9041923874,Hof Ehlers Waagschale,,,53.7335548,9.9962591,0
9143881855,Punjab Shop,Lohkampstraße 11,22523,53.6088024,9.9017292,03308320
9171671718,Halk Pazari,Ekenknick 3,22523,53.6084574,9.9028612,03308320
9235592153,Afroshop,,,53.5845015,10.1441544,05504512
9590198679,Aldi,Oldesloer Straße 50,22457,53.6344782,9.914858,03307319
9688293616,EDEKA,Hafentor 7,20459,53.5459024,9.9724682,01103105
9748945155,PENNY,,,53.5713725,10.1351968,05504512
9748945159,Khan Plaza Supermarkt,Grabkeweg 22,22043,53.5722482,10.1339319,05504512
9770602849,EDEKA,Kirchwerder Elbdeich 173,21037,53.4046182,10.1627268,06606607
9807232599,EDEKA Jakobus,,22145,53.6275523,10.1679826,05518526
9842214417,Reformhaus und Bio-Laden,,,53.5423973,10.2133796,0
9924692713,Nahkauf,,22045,53.5815537,10.1324644,05504512
9972560104,Mix Markt,,,53.7226007,9.998367,0
9984728557,Feinkost Ahrend,Blankeneser Landstraße 81,22587,53.5658416,9.7986863,02211223
10062255507,Edeka Aktar Frischemarkt,Eißendorfer Straße 70,21073,53.458056,9.9662583,07709710
10255880768,EDEKA – Kröger’s Feinkost,Wandsbeker Marktstraße 38,22041,53.5708338,10.0631881,05503510
10371696030,REWE,Hamburger Landstraße 38a-38d,21465,53.4901587,10.2519404,0
10568116632,Hansemarkt,,22177,53.6020995,10.0624668,05507515
10674759662,Arash,,,53.6042984,10.1564124,05518526
10685339421,Ideal Market,,,53.5015118,9.9928706,01116137
10706440588,EDEKA,Sengelmannstraße 100,22335,53.6190776,10.0146406,04411430
10723986050,Aldi,Kieler Straße 66,25474,53.6614188,9.9079704,0
10745185676,Erden,,,53.660834,9.7998664,0
10819070083,Stern Supermarkt,Rahlstedter Weg 73,,53.6013969,10.128708,05518526
11079137781,Hoody,,,53.5825059,9.9862794,03303314
11091833565,PENNY,,,53.5786223,10.0396626,04408423
11091857426,Malik Marokkanischer Supermarkt,,,53.5750013,10.0365182,04408422
11099115132,Sultan Bazar,Schreyerring 41,22309,53.6115884,10.0595542,05508516
11202144484,REWE Abholpunkt HafenCity,Osakaallee 7,20457,53.5430806,9.9982064,01102103
11222931052,Tokas,,,53.4978776,10.008277,01116136
11222931060,JaKoThai,Wilhelm-Strauß-Weg 8,21109,53.4979909,10.0084809,01116136
11228201233,Kaufcity,Bramfelder Chaussee 211,22177,53.6110248,10.0735878,05507515
11587853657,Abasses Djau Afro-Bissau,,,53.5535584,10.0099668,01105114
11701536788,PENNY,Bramfelder Chaussee 291,22177,53.617276,10.0776306,05507515
11727048543,Indian Bazaar,,,53.4580369,9.9835076,07701702
11737375720,Lidl,Wilhelm-Strauß-Weg 2b-10,,53.4982603,10.0095817,01116136
11835716734,Erden Market,,,53.6096411,10.0585137,05508516
11838396657,Aldi,Ernst-August-Stieg 7,21107,53.519896,9.9847827,01116137
11881614108,Mega Markt,Rudolf-Klug-Weg 3,22455,53.6407386,9.9482308,03306318
11915721820,TEMA Markt,,,53.5389976,10.1240441,01112130
11919514353,REWE Center,Wilhelm-Strauß-Weg 2b-10,,53.4979297,10.0088759,01116136
11933236063,Denns BioMarkt,,,53.7071311,9.9891168,0
12022183628,Denns BioMarkt,,,53.4909416,10.2522794,0
12026050669,Alnatura Super Natur Markt,Paul-Dessau-Straße 8,22761,53.5622964,9.9157803,02205216
12112183390,Denns BioMarkt,Vogt-Wells-Straße 14,22529,53.5997631,9.9616548,03305317
12155286028,Khan Plaza,,,53.5722069,10.0863243,05503511
12166476182,Khan Plaza,,,53.5722069,10.0863243,05503511
12197496783,VINH-LOI,,,53.5486001,10.0052434,01101101
12208993126,Netto City,,,53.6041806,10.0171472,04405408
12223071110,Delta Markt,,,53.5538554,10.0124497,01105114
12241067974,Fundus Jacke wie Hose,,,53.5576135,9.9306968,02204211
12454298992,Aldi,Poppenbüttler Hauptstraße 1,22399,53.6601707,10.0856979,05511519
12471850241,Edeka Peper,Poppenbütteler Bogen 96,22399,53.6676302,10.0694133,05511519
12514430772,PMZ Baburi,Billstedter Hauptstraße 66,22111,53.5389409,10.1040597,01112130
12618432626,Netto Marken-Discount,Langenhorner Chaussee 11-13,22415,53.6500238,10.0122291,04413432
12629386257,Erden Market,,,53.5503265,9.9531129,02201201
12635894100,Khan Plaza Supermarket,,,53.538632,10.127655,01112130
12645727336,Penny,Richard-Köhn-Straße 2,25421,53.6520861,9.7912071,0
12670846510,Edeka,,,53.5836964,10.0204445,04405411
12731297007,Edeka Corleis,,,53.4614914,9.945173,07710711
12837301838,Rewe,Überseeboulevard 7,20457,53.5397095,9.9975089,01102103
