id,name,street,zip_code,lat,lon,geojson_feature_id
432428690,Lange Reihe / Kirchenallee,,,53.5551998,10.0081877,01105114
432428691,Lange Reihe / Lohmühlenpark,,,53.55986,10.0148329,01105113
432841089,Eduard-Rhein-Ufer / Schwanenwik,,,53.567786,10.0162224,04406415
432965813,Neuer Pferdemarkt / Beim Grünen Jäger,,,53.5589371,9.9638791,02202207
432965814,Bahnhof Altona Ost / Max-Brauer-Allee,,,53.5520996,9.9360587,02203210
432965816,Bahnhof Altona / Busbahnhof,,,53.5519063,9.9337889,02204213
433713639,Fischmarkt / Breite Straße,,,53.5462439,9.9509483,02201201
436042897,Innocentiapark / Oberstraße,,,53.5774206,9.9818059,03303314
436043488,Goebenstraße / Eppendorfer Weg,,,53.5775726,9.9632428,03301305
436421052,Lerchenfeld / Uferstraße,,,53.5670342,10.0317432,04406415
437328900,S Reeperbahn / Königstraße,,,53.5494956,9.9550425,02201201
437331658,U St. Pauli / Millerntorplatz,,,53.5510436,9.9702937,01103106
437331659,Messehallen / Marktstraße,,,53.5585052,9.9753919,01104109
437331660,Universität / Moorweidenstraße,,,53.5637341,9.9877918,03302312
437331661,Universität / Schlüterstraße,,,53.5668597,9.9860491,03302312
437558649,Hauptbahnhof West / Glockengießer Wall,,,53.553676,10.004553,01105114
437558653,Bahnhof Dammtor / Theodor-Heuss-Platz,,,53.5615244,9.9903338,03302312
438112011,Bahnhof Dammtor / Dag-Hammarskjöld-Platz,,,53.5599977,9.9898989,01104109
438112012,Enckeplatz / Hütten,,,53.5524381,9.9769697,01103106
438353007,U Lohmühlenstraße / Steindamm,,,53.5572335,10.0199124,01105113
439178655,Steindamm / Stralsunder Straße,,,53.5542566,10.0133228,01105114
441097728,Mönckebergstraße / Steintorwall,,,53.5516263,10.0052878,01101101
441097729,Kurze Mühren / Spitalerstraße,,,53.5526184,10.0039022,01101101
441123075,U Kellinghusenstraße / Loogeplatz,,,53.5886426,9.9913213,04402404
441123077,Kümmellstraße / Robert-Koch-Straße,,,53.5902642,9.9867979,04402403
441123078,U Eppendorfer Baum / Isestraße,,,53.5831878,9.9843865,03303314
441243153,Grindelberg,,,53.5754102,9.9778746,03303313
441297373,S+U Berliner Tor / Beim Strohhause,,,53.5533379,10.0246127,01105113
442006757,S+U Sternschanze / Dänenweg,,,53.564472,9.9688152,02202207
442006775,Jungfernstieg / Neuer Jungfernstieg,,,53.5549978,9.9913836,01103108
443047986,Chemnitzstraße / Max-Brauer-Allee,,,53.5552896,9.942995,02201204
446760137,Kurt-Schumacher-Allee / Nagelsweg,,,53.551694,10.015996,01105114
447110699,Gustav-Mahler-Platz / Büschstraße,,,53.5562459,9.9901341,01103108
448582037,Zentralbibliothek / Münzstraße,,,53.5503806,10.0088105,01106115
448879782,Paulinenplatz / Wohlwillstraße,,,53.5542191,9.9625129,01104111
455878196,Kleine Rosenstraße / Gerhart-Hauptmann-Platz,,,53.5516175,9.9984001,01101101
455878296,Jakobikirchhhof / Steinstraße,,,53.550247,10.0015328,01101101
455878879,U Meßberg / Willy-Brandt-Straße,,,53.5478333,9.9988245,01101101
455879010,U Burgstraße / Hammer Landstraße,,,53.555728,10.041278,01108121
455879039,S Landwehr / Ramazan-Avci-Platz,,,53.5610672,10.0371237,04407417
455879231,U Wartenau / Lübecker Straße,,,53.563702,10.0342838,04407417
455879390,Lübecker Straße / Marienkrankenhaus,,,53.5597466,10.0285415,04407417
455879492,U Uhlandstraße / Eilenau,,,53.564994,10.0267664,04407417
455880479,S+U Landungsbrücken / Johannisbollwerk,,,53.5452274,9.9734899,01103105
455880789,Michaeliskirche / Krayenkamp,,,53.5480241,9.9794956,01103107
455882506,U Hallerstraße / Rothenbaumchaussee,,,53.5720753,9.9888332,03302312
455947046,Jarrestraße / Rambatzweg,,,53.5840442,10.0212233,04405411
455947727,Goldbekplatz,,,53.5837521,10.0099075,04405413
456349702,U Hudtwalckerstraße / Bebelallee,,,53.5943036,9.9957591,04405409
463552897,S Hammerbrook / Sachsenfeld,,,53.5460239,10.0242053,01106116
467926773,Ottenser Marktplatz / Platz der Republik,,,53.5478097,9.9345695,02204214
471332373,S Stadthausbrücke / Neuer Wall,,,53.5496995,9.9866348,01103108
471776643,S Königstraße / Struenseestraße,,,53.5471222,9.9424211,02201202
565607505,U Christuskirche / Fruchtallee,,,53.5695625,9.9630732,03301308
598300226,Martinistraße / Haupteingang Klinikum,,,53.5890071,9.975907,04402403
707060970,Eimsbütteler Straße / Waterloostraße,,,53.5662285,9.9534406,02203208
752741462,Axel-Springer-Platz / Wexstraße,,,53.5520196,9.986168,01103108
764042161,S Veddel / Wilhelmsburger Platz,,,53.522701,10.014741,01115134
1281711846,,,,53.6880061,10.0370776,0
1349140800,,,,53.7132127,10.0187442,0
1352734840,Heußweg / Wiesenstraße,,,53.5775952,9.9529299,03301305
1352742382,Methfesselstraße / Luruper Weg,,,53.5801407,9.9467011,03301303
1352768597,Osakaallee / Überseequartier,,,53.5414899,9.9997759,01102103
1352772467,Alsterschwimmhalle / Ifflandstraße,,,53.5615358,10.0222053,04407416
1352773902,Borgweg / Stadtpark,,,53.592041,10.0149443,04405409
1353780111,Allende-Platz,,,53.5678823,9.9823479,03302312
1357469854,Am Strandkai,,,53.539537,9.9938423,01102103
1399284352,U Saarlandstraße / Wiesendamm,,,53.588617,10.0326597,04405411
1420686647,S Friedrichsberg / Krausestraße,,,53.5762018,10.0580246,04409424
1420692330,Uferstraße / Wagnerstraße,,,53.5711272,10.0401222,04408422
1420948951,U Dehnhaide / Barmbeker Markt,,,53.5800616,10.0415391,04408423
1420951107,U Wandsbek Markt / Schloßgarten,,,53.5717299,10.0684562,05502505
1420957412,Südring / Stadthallenbrücke,,,53.5914449,10.0303465,04405409
1420960623,U Ritterstraße / Wandsbeker Chaussee,,,53.5671703,10.0444553,05501501
1434219413,Bahrenfelder Straße / Völckersstraße,,,53.5569608,9.9279935,02204211
1464368951,Winterhuder Weg / Zimmerstraße,,,53.5752276,10.0207917,04406414
1489977810,Schleidenstraße / Osterbekstraße,,,53.584136,10.0334035,04408419
1497798910,Eiffestraße / Normannenweg,,,53.5520591,10.030488,01107119
1501718795,Weidestraße / Biedermannplatz,,,53.5800617,10.0340414,04408421
1501996163,Eppendorfer Weg / Hoheluftchaussee,,,53.5817094,9.9711433,03304316
1503301952,Osterstraße / Bismarckstraße,,,53.5731941,9.9623548,03301308
1509854937,S+U Barmbek / Wiesendamm,,,53.5870987,10.0433154,04410427
1562385960,Schulterblatt / Eifflerstraße,,,53.562811,9.9609193,02202207
1563912977,U Mundsburg / Schürbeker Straße,,,53.5696315,10.0271587,04406415
1564203610,Sievekingplatz / Gorch-Fock-Wall,,,53.5560913,9.9798788,01103106
1571171292,Eulenstraße / Große Brunnenstraße,,,53.550792,9.9251331,02204214
1571202258,Fischersallee / Bleickenallee,,,53.5507874,9.9222107,02204212
1572847745,Lortzingstraße / Friedrichsberger Straße,,,53.5736506,10.049496,04408422
1575877881,Hofweg / Am Langenzug,,,53.5777037,10.0141483,04406414
1575883765,Am Kaiserkai / Großer Grasbrook,,,53.541724,9.9929215,01102103
1578071052,Großneumarkt / Thielbek,,,53.5509762,9.9804066,01103106
1595412889,U Hammer Kirche / Hammer Park,,,53.5563309,10.0556929,01108123
1595462311,Domstraße / Willy-Brandt-Straße,,,53.5476294,9.9941624,01101102
1638931988,U Hagenbecks Tierpark / Koppelstraße,,,53.5935921,9.9433088,03305317
1675065142,Bartholomäusstraße / Beim Alten Schützenhof,,,53.5758119,10.0292335,04408420
1710567823,Planetarium / Hindenburgstraße,,,53.5958157,10.01379,04405409
1728287055,Bernhard-Nocht-Straße / Zirkusweg,,,53.547232,9.9659564,01104112
1747142838,U Schlump / Gustav-Falke-Straße,,,53.5681379,9.9701982,03301309
1796325073,,,,53.7341389,9.9894205,0
1802825756,Löwenstraße / Eppendorfer Weg,,,53.5837814,9.9780914,04401401
1807499522,Rothenburgsorter Marktplatz / Lindleystraße,,,53.5342683,10.0390544,01114133
1809979508,U Hamburger Straße / Wagnerstraße,,,53.5746601,10.037078,04408422
1813972888,Amsinckstraße / Nordkanalbrücke,,,53.547904,10.0131678,01106115
1825365113,U Bahn Baumwall / Elbphilharmonie,,,53.5442784,9.9813901,01103105
1867808214,Veringstraße / Mannesallee,,,53.5139807,9.9872057,01116137
1887862125,Auf dem Sande / Kehrwieder / Miniatur Wunderland,,,53.5437405,9.9897215,01102103
2278118737,S Rothenburgsort / Billhorner Deich,,,53.5402456,10.042627,01114132
2291953162,Bei den Kirchhöfen / St. Petersburger Straße,,,53.5598145,9.9818107,01104109
2343194436,Neuenfelder Straße / Kurt-Emmerich-Platz,,,53.4972113,10.0035528,01116137
2418546166,U Lattenkamp / Bebelallee,,,53.5995318,9.9941038,04405408
2434483183,U Überseequartier / Grasbrookpark,,,53.5402315,9.9966419,01102103
2434511646,S+U Wandsbeker Chaussee / Börnestraße,,,53.5704208,10.0594889,05501504
2450581971,Werner-Otto-Straße / OTTO Group,,,53.6002102,10.0705263,05507515
2463701771,Ursula-Falke-Terrassen / Mengestraße,,,53.4993968,9.9973129,01116137
2463701772,S Wilhelmsburg / Wilhelm-Strauß-Weg,,,53.4978508,10.0068566,01116136
2877623997,Überseering / Mexikoring,,,53.601918,10.0247003,04405408
2983710492,,,,53.5528145,10.0000612,01101101
3110589853,Troplowitzstraße / Beiersdorf / NXP,,,53.5826806,9.9569937,03305317
3257767661,Reeseberg / Anzengruberstraße,,,53.4488961,9.9904561,07704705
3258575664,Leinpfad / Fernsicht,,,53.5804155,9.9995767,04405413
3427054038,Bahnhof Harburg / Moorstraße,,,53.4572337,9.987899,07701702
3450742341,Alter Postweg / Heimfelder Straße,,,53.4652581,9.9635932,07710711
3450742342,S Harburg Rathaus / Deichhausweg,,,53.4598353,9.9807064,07701701
3460189839,Schellerdamm / Hausnummer 22,,,53.4642494,9.9861281,07701702
3460351520,Sandweg / Sophienallee,,,53.5698522,9.9494983,03301307
3472122206,Gotthelfweg / Außenmühlenteich,,,53.4477551,9.9807026,07704705
3472122207,Harburger Ring / Neue Straße,,,53.4607018,9.9776703,07701701
3472122208,Denickestraße / TUHH,,,53.4604968,9.9698051,07701701
3482239424,,,,53.6844149,9.9848872,0
3505808109,Emil-Andresen-Straße / Lohkoppelweg,,,53.5929209,9.9520562,03305317
3507753761,,,,53.6958575,9.9895086,0
3531261093,Lappenbergsallee / Bei der Apostelkirche,,,53.5755741,9.9443886,03301304
3531579898,Hamburg City Cycles,Hopfenstraße 15b,20359,53.5477973,9.9651403,01104112
3534209234,Große Rainstraße / Ottenser Hauptstraße,,,53.5522756,9.9303997,02204213
3552127128,Friedrich-Ebert-Damm / Lomerstraße,,,53.5849142,10.0796366,05502506
3578212323,Süderstraße / Osterbrookplatz,,,53.5468731,10.0582322,01108127
3597478311,U Rauhes Haus / Horner Weg,,,53.5555238,10.0668027,01108123
3621694181,U Gänsemarkt / Caffamacherreihe,,,53.5560485,9.9843317,01103108
3648624501,Fuhlsbüttler Straße / Hartzloh,,,53.6014087,10.0410578,04410429
3656563612,Fuhlsbüttler Straße / Hellbrookstraße,,,53.5916236,10.0439648,04410427
3660898427,S Bahrenfeld / Friedensallee,,,53.5601682,9.9090417,02205216
3683152002,,,,53.7046288,10.0087265,0
3683385298,U HafenCity Universität / Versmannstraße,,,53.5408426,10.005987,01102104
3728281829,Eißendorfer Pferdeweg / Asklepios-Klinik Harburg,,,53.4596418,9.9511079,07710711
3730234807,Sievekingsallee / Sievekingdamm,,,53.5607697,10.0525311,01108122
3754474025,U Habichtstraße / Steilshooper Straße,,,53.5937529,10.0504313,04410428
3763197357,Süderfeldstraße / Universitätsklinikum Eppendorf,,,53.5940652,9.9735925,04402403
3792671367,Bogenstraße / Grindelallee,,,53.5712228,9.977724,03302311
3801695514,Weidestraße / Johannes-Prassek-Park,,,53.5808184,10.0258062,04408419
3808221412,S+U Ohlsdorf / Alsterdorfer Straße,,,53.6207755,10.0325465,04411430
3808221422,U Langenhorn Markt / Tangstedter Landstraße,,,53.6487629,10.0163774,04413432
3822302649,S Othmarschen / Beselerplatz,,,53.5604926,9.8875229,02206218
3834134120,Mittelweg / Sophienterrasse,,,53.5764197,9.9931072,03303313
3834633297,Hugo-Kirchberg-Straße / Tesa,,,53.6543026,9.9852987,0
3854338498,U Alter Teichweg / Nordschleswiger Straße,,,53.5855098,10.0654035,04409425
3937197354,U Legienstraße / Riedweg,,,53.547643,10.0955884,01111129
3944986781,Manshardtstraße / Einkaufszentrum Manshardtstraße,,,53.5591866,10.1074791,01111129
3974732322,Siemersplatz / Kollaustraße,,,53.6000607,9.9640322,03305317
3976794114,Holstenstraße / Thadenstraße,,,53.5558636,9.9508842,02201205
3984342354,Caspar-Voght-Straße / Sievekingsallee,,,53.559875,10.0616625,01108123
3986972994,U Sengelmannstraße / Djakartaweg,,,53.6092439,10.0229478,04405408
3999929458,Alsterdorfer Markt / Evangelische Stiftung,,,53.6122421,10.0237905,04404407
4014947526,S Stellingen / Randstraße,,,53.5901843,9.9192927,03309321
4082015353,Herthastraße / Bramfelder Chaussee,,,53.6118771,10.0756906,05507515
4104596804,Friedrich-Ebert-Damm / Helbingtwiete,,,53.5881822,10.0958902,05502508
4104596805,Friedrich-Ebert-Damm / Charlie-Mills-Straße,,,53.5914991,10.1067168,05506514
4104596806,U Farmsen / Rahlstedter Weg,,,53.6063731,10.120232,05506514
4154232145,Langenfelder Damm / Müggenkampstraße,,,53.5807728,9.9383586,03309321
4172849981,Osdorfer Landstraße / Elbe-Einkaufszentrum,,,53.5716373,9.8624,02209221
4180986831,Röntgenstraße / Philips,,,53.6234735,10.0121218,04411430
4180986832,U Alsterdorf / Hindenburgstraße,,,53.6062042,10.0121461,04405408
4182172178,S Allermöhe / Walter-Rudolphi-Weg,,,53.4900982,10.1584208,06614615
4185823625,Lohbrügger Markt/Ludwig-Rosenberg-Ring,,,53.4945964,10.206896,06601601
4185823626,Bahnhof Bergedorf / Johann-Meyer-Straße,,,53.4905093,10.2060921,06601601
4185823627,Vierlandenstraße / Johann-Adolf-Hasse-Platz,,,53.4883277,10.2109268,06602602
4185823628,Wentorfer Straße / Bezirksamt Bergedorf,,,53.4874297,10.2199235,06602603
4185823629,S Nettelnburg / Friedrich-Frank-Bogen,,,53.4884427,10.1822519,06602602
4194104219,Van-der-Smissen-Straße / Große Elbstraße,,,53.5438998,9.9424978,02201202
4207375921,Billstedter Platz / Öjendorfer Weg,,,53.5400801,10.1061928,01112130
4221459279,Grandweg / Veilchenweg,,,53.5893066,9.9645014,03305317
4241611840,Elbchaussee / Teufelsbrück,,,53.5475373,9.8613995,02210222
4349053150,U Trabrennbahn / Traberweg,,,53.5980386,10.1013751,05506514
4561592890,Bahrenfelder Chaussee / Von-Sauer-Straße,,,53.566078,9.9107328,02205216
4676328327,U Niendorf Markt / Tibarg,,,53.6190579,9.9512992,03306318
4888454521,U Emilienstraße / Fruchtallee,,,53.5713804,9.9533198,03301306
4888466823,U Osterstraße / Heußweg,,,53.5759384,9.9523876,03301306
5018581280,Mundsburger Brücke / Papenhuder Straße,,,53.5659359,10.0191888,04406415
5107424668,U Klosterstern / Eppendorfer Baum,,,53.5820249,9.987606,03303314
5139465939,,,,53.5567909,10.0200424,01105113
5325398339,Bleickenallee / Kinderkrankenhaus Altona,,,53.5513209,9.9130394,02204212
5366275822,Fuhlsbüttler Straße / Pestalozzistraße (Piazetta),,,53.5877116,10.046259,04410427
5499538285,Notkestraße / DESY Hörsaal,,,53.5749543,9.8790089,02205217
5553163491,,,,53.7273895,9.9971879,0
5574267062,Hellbrookkamp/ Novomind AG,,,53.5969744,10.0625052,05507515
5600792851,U Hoheluftbrücke / Kaiser-Friedrich-Ufer,,,53.5781088,9.9759273,03303313
5629104779,Groß-Sand / Wilhelmsburger Krankenhaus,,,53.5039284,9.9856912,01116137
5892784115,Hohenzollernring / Friedensallee,,,53.5567084,9.9185744,02204212
6014726853,S Hasselbrook / Papenstraße,,,53.5648609,10.0547169,05501503
6066219164,Peutestraße / Hatraco,,,53.523809,10.0365141,01115134
6232335440,U Rödingsmarkt / Großer Burstah,,,53.5486246,9.9872591,01101102
6303324389,U Feldstraße / Marktstraße,,,53.5574012,9.9693135,01104109
6317819205,Notkestraße / DESY Gebäude 25b,,,53.5785982,9.8829312,02205217
6398543010,Hamburg Airport / Terminal 1,,,53.6343053,10.0060351,04412431
6398543593,Neuländer Kamp / Eurofins,,,53.4615993,10.0037299,07702703
6551504764,Liebigstraße / Wöhlerstraße,,,53.5350606,10.0820289,01113131
6611781820,Moorfleeter Straße / Pinkertweg,,,53.5263826,10.0925985,01113131
6611786344,Liebigstraße / Berzeliusstraße,,,53.5307627,10.1062913,01113131
6636958052,Bullerdeich / Stadtreinigung Hamburg,,,53.5449722,10.0368414,01106118
6691352816,Georg-Wilhelm-Straße / Mankiewicz,,,53.4949306,9.9905454,01116137
6844818789,U Rathaus / Mönckebergstraße,,,53.5507266,9.9971667,01101101
6902250613,U Straßburger Straße / Nordschleswiger Straße,,,53.5819601,10.0681152,04409425
7001040675,AKN Schnelsen / Pinneberger Straße,,,53.6332965,9.9064895,03307319
7007231651,Max-Zelck-Straße / Haus der Kirche,,,53.6205596,9.9449209,03306318
7044578385,Swapfiets,Holstenstraße 167,22765,53.5598418,9.9489917,02201206
7258416520,Felicitas-Kukuck-Straße / Lille Torv,,,53.5593708,9.9375924,02203210
7400938319,Luruper Chaussee / Ebertallee,,,53.5735126,9.8928558,02205217
7487253803,S Elbgaustraße / Weidplan,,,53.6028918,9.893393,03308320
7561054469,U Hagendeel / Hinter der Lieth,,,53.6034697,9.9449726,03305317
7566472908,AKN Eidelstedt Zentrum / Johann-Schmidt-Straße,,,53.6094987,9.9004975,03308320
7597478103,U Merkenstraße / Möllner Landstraße,,,53.5385744,10.122345,01112130
7597491327,U Mümmelmannsberg / Kandinskyallee,,,53.5283601,10.150073,01112130
7634084462,U Niendorf-Nord / Nordalbingerweg,,,53.6408902,9.9500899,03306318
7638134743,Hovestraße / Aurubis,,,53.5223865,10.0315696,01115134
7647336031,S+U Elbbrücken / Versmannstraße,,,53.5351785,10.0243952,01102104
7714646000,Karl-Arnold-Ring / Dahlgrünring,,,53.4846351,10.0189084,01116136
7734189444,S Langenfelde / Försterweg,,,53.5796246,9.9323331,03309321
7756513740,,,,53.7337261,10.0063793,0
7794982058,Heidenkampsweg / R+V Versicherung,,,53.5441306,10.0311224,01106117
7877556609,Bredowstraße / Pinkertweg,,,53.5269211,10.0792433,01113131
7877556610,S Tiefstack / Ausschläger Allee,,,53.5305806,10.0652716,01114132
7884768262,Maretstraße / Baererstraße,,,53.4539393,9.982205,07701702
7884768263,Göhlbachtal / Berufliche Schule Harburg,,,53.4545534,9.9653976,07709710
7914059820,Weg beim Jäger / Lufthansa 2,,,53.6205927,9.9970114,04403406
7914091818,Eidelstedt-Center / Elbgaustraße,,,53.6066362,9.9042667,03308320
7921426764,Überseering / New-York-Ring,,,53.6038241,10.0196649,04405408
7924279610,Bahnhof Rahlstedt / Helmut-Steidl-Platz,,,53.60436,10.1546019,05518526
7929068096,Paul-Ehrlich-Straße / Asklepios-Klinik Altona,,,53.5544344,9.9007536,02207219
7932637898,U Oldenfelde / Busbrookhöhe,,,53.6184362,10.1261799,05506514
7935331576,Bramfelder Chaussee / Maisredder,,,53.6266838,10.0852574,05507515
8048056968,Oberhafenquartier Nord / Oberhafenbrücke,,,53.5443346,10.0068637,01102104
8048056969,Stockmeyerstraße / Am Lohsepark,,,53.5439994,10.0037483,01102104
8064065950,,,,53.6855864,10.0233033,0
8064117416,,,,53.6823951,9.998494,0
8117564446,Borsteler Chaussee / Alphapark,,,53.6051276,9.9829769,04403406
8120336256,Versmannstraße / Gerda-Gmelin Platz,,,53.5399955,10.0134942,01102104
8122091315,Oberbaumbrücke / Ericusspitze,,,53.5457861,10.003034,01102103
8151806474,Lämmersieth / Wachtelstraße,,,53.5868473,10.0569194,04410426
8151806475,Bramfelder Straße / Pfennigsbusch,,,53.5827523,10.0466016,04408423
8246019483,Tonndorfer Hauptstraße / Sonnenweg,,,53.586482,10.1249863,05505513
8246019484,Universität der Bundeswehr / Rodigallee,,,53.5705962,10.1050374,05503511
8246019485,Barsbütteler Straße / Öjendorfer Damm,,,53.5707977,10.1361752,05504512
8246047934,U Wandsbek-Gartenstadt / Ostpreußenplatz,,,53.5919389,10.0751039,05502509
8246047935,Fabriciusstraße / Buschrosenweg,,,53.6015334,10.0627048,05507515
8358925124,Von-Essen-Straße / Dehnhaide,,,53.5782912,10.0460054,04408422
8406449889,,,,53.7030748,9.9798614,0
8406449890,,,,53.7159267,9.9999444,0
8406562957,,,,53.6816914,9.9795878,0
8485931898,Mobilstation Mitte Altona,Glückel-von-Hameln-Straße 18,22765,53.5625959,9.9410519,02203210
8688629968,Fähranleger Finkenwerder / Butendeichsweg,,,53.5362423,9.8776873,01120141
8724669692,,,,53.6898027,9.9997521,0
8773675203,Borsteler Chaussee / Köppenstraße,,,53.60756,9.9787516,04403406
8916282408,Kuehnstraße / Albert-Schweitzer-Ring,,,53.5778586,10.1179254,05505513
8996254625,S Wellingsbüttel / Rolfinckstraße,,,53.6403095,10.0838584,05509517
9039034249,Heidhorst / Bockhorster Weg,,,53.5173842,10.1686245,06601601
9039034250,Lohbrügger Landstraße / BG Klinikum,,,53.5078842,10.1800735,06601601
9039034251,Korachstraße / Helmuth-Hübener-Weg,,,53.5102816,10.2075353,06601601
9039034252,Glindersweg / Bethesda-Krankenhaus,,,53.4865374,10.2343722,06602603
9067050389,Winterlindenweg / Loki-Schmidt-Platz,,,53.6050374,10.0299856,04405408
9074431349,Gert-Marcus-Straße / Anni-Glissmann-Weg,,,53.6034274,9.9728333,04403406
9074474335,Schöne Aussicht / Karlstraße,,,53.573976,10.0081406,04406414
9156266852,S Iserbrook / Heidrehmen,,,53.5758186,9.8151858,02213226
9156285917,Mariannenruh-Platz / Eva-Rühmkorf-Straße,,,53.5615411,9.9390469,02203210
9161278485,Fischbeker Heidbrook / Quartiersmitte,,,53.4650553,9.814923,07714715
9175489689,Amerigo-Vespucci-Platz / Baakenwerder Straße,,,53.5365715,10.0222966,01102104
9327945763,Volksparkstadion / Sylvesterallee,,,53.5874771,9.9038271,02205216
9374443897,S Holstenstraße / Düppelstraße,,,53.5627482,9.9484936,02203208
9395391225,U Schippelsweg / Paul-Sorge-Straße,,,53.6345593,9.9526068,03306318
9401034817,Fähre Rüschpark / Heinrich-Saß-Weg,,,53.5395351,9.8630123,01120141
9452366369,Hasselbrookstraße / Ritterstraße,,,53.5639362,10.04602,05501503
9471121578,S Neugraben / Am Neugrabener Bahnhof,,,53.473788,9.8537497,07714715
9553115403,Elsässer Straße / Stormarner Straße,,,53.5791143,10.0643712,04409424
9573671705,Holstenstraße / Max-Brauer-Allee,,,53.5586352,9.9486708,02203210
9576528225,U Langenhorn Nord / Foorthkamp,,,53.6611437,10.0172817,04413432
9590413497,Henriette-Herz-Ring / Grachtenplatz,,,53.4828816,10.1765398,06614615
9678572782,Fanny-Lewald-Ring,,,53.4788921,10.1691529,06614615
9732949482,,,,53.6039972,10.0312192,04405408
9883713757,S+U Ohlsdorf / Im Grünen Grunde,,,53.620848,10.0308562,04411430
9925575297,Modering / Oldesloer Straße,,,53.6372779,9.9220075,03307319
9925580559,U Ochsenzoll / Langenhorner Chaussee,,,53.6788572,10.00067,04413432
10049582235,Billwerder Billdeich / TSG Sportforum,,,53.4963784,10.1830441,06602602
10275673228,,,,53.7126584,9.9902615,0
10302846798,S Alte Wöhr / Rübenkamp,,,53.5973197,10.0359872,04410429
10681533873,Baakenallee / Lola-Rogge-Platz,,,53.5377583,10.0120049,01102104
10698228009,Veritaskai / Theodor-Yorck-Straße,,,53.4658728,9.9892196,07701702
10733701194,U Joachim-Mähl-Straße / Paul-Sorge-Straße,,,53.6288363,9.9500198,03306318
10749545839,,,,53.6867365,10.046057,0
10782730571,S Kornweg / Tornberg,,,53.6324913,10.0548794,04411430
10805804295,Hermann-Blohm-Straße / Am Elbtunnel,,,53.5413628,9.9666886,01118139
10820348482,Wohldorfer Damm / Bergstedter Markt,,,53.6713214,10.124061,05516524
10866690469,Heilwigstraße / St. Benedictstraße,,,53.5828254,9.9937432,03303314
10956663868,Saseler Markt / Stadtbahnstraße,,,53.6537109,10.1107854,05510518
10964338995,Strandweg / Fähre Blankenese,,,53.5570088,9.8037402,02211223
10964339417,S Rissen / Gudrunstraße,,,53.5823501,9.758437,02214227
10972716629,Soltaustieg / Arnoldistieg,,,53.4824747,10.2217725,06602603
11003409840,Rathausmarkt / Mönckebergstraße,,,53.5501539,9.99373,01101102
11038001567,Behrmannplatz / Grelckstraße,,,53.5994161,9.9586995,03305317
11047319938,Baakenhöft / Baakenhafenbrücke,,,53.5385505,10.0082217,01102104
11047332533,Rothenbaumchaussee / Binderstraße,,,53.5681767,9.988533,03302312
11246972521,Gertigstraße / Forsmannstraße,,,53.5819894,10.015009,04405412
11327771017,Im Fischbeker Heidbrook / Apfelbeerenring,,,53.4662942,9.8106169,07714715
11362380439,Langenhorner Chaussee / Oehleckerring,,,53.6600422,10.0030599,04413432
11362399876,Jütlandring / Asklepios Klinik Nord-Ochsenzoll,,,53.6728023,10.0038633,04413432
11362453508,Heegbarg / Alstertal-Einkaufszentrum,,,53.653995,10.09215,05511519
11403583437,Alphonsstraße / Asklepios Klinik Wandsbek,,,53.5698799,10.0905501,05503511
11407374731,Randersweide / Kampweg,,,53.4764143,10.1962347,06602602
11584394225,S Hochkamp / Reichskanzlerstraße,,,53.5613946,9.8430743,02209221
11584465922,Ernst-Bergeest-Weg / Binnenfeld,,,53.4414526,9.9586619,07708709
11584548980,S Neuwiedenthal / Striepenweg,,,53.4737065,9.8771113,07713714
11663119730,S Diebsteich / Plöner Straße,,,53.566925,9.9347649,02203209
11737198854,Bundesstraße / Universität,,,53.5670201,9.9771783,03302311
11759292481,Eulenkamp / Straßburger Stieg,,,53.5835443,10.0717136,04409425
11955709874,Adolf-Köster-Damm / Felix-Jud-Ring,,,53.4853729,10.1469112,06614615
12208845913,sigo E-Lastenrad Sharing,Sydneystraße 28,22297,53.6038945,10.0157519,04405408
12208866922,sigo E-Lastenrad Sharing,Sydneystraße 10,22297,53.6049012,10.0155192,04405408
12215886872,,,,53.5376254,9.847409,01120141
12215886873,,,,53.5379026,9.8455839,01120141
12215886874,,,,53.5425038,9.8434474,01120141
12215886875,,,,53.5432439,9.8437131,01120141
12215886876,,,,53.5429675,9.8422007,01120141
12215886877,,,,53.5434996,9.8403426,01120141
12218941889,S Poppenbüttel / Stormarnplatz,,,53.6514655,10.0957019,05511519
12222578175,Erdkampsweg / Hummelsbütteler Landstraße,,,53.6278112,10.025262,04412431
12222594824,Tangstedter Landstraße / Asklepios Klinik Nord,,,53.6755181,10.0285446,04413432
12227646433,S Ottensen / Thomasstraße,,,53.5600131,9.9265799,02205215
12227695317,Nienstedtener Marktplatz / Nienstedtener Straße,,,53.5544612,9.8447158,02210222
12227961082,Zum Wachtelkönig / Zaunwickenweg,,,53.4779702,9.8488032,07714715
12228121088,Müggenburger Hauptdeich / Aurubis Werk-Ost,,,53.5152708,10.0345537,01115134
12248769930,Holborn / Moorburger Bogen,,,53.4747991,9.9495555,07710711
12314098668,Alsterkrugchaussee / Preetzer Straße,,,53.6326058,10.015144,04412431
12320454353,U Horner Rennbahn / Rennbahnstraße,,,53.5534166,10.0839117,01111128
12323881790,Tarpenbekstraße / Ernst-Thälmann-Platz,,,53.5953058,9.9844211,04402405
12615398317,sigo E-Lastenrad Sharing,Eidelstedter Dorfstraße 11,22527,53.6082238,9.9064271,03308320
12769774968,,,,53.7178393,9.987649,0
12827683280,Überseeallee / Magdeburger Brücke,,,53.5408737,10.000002,01102103
12843054560,Carl-Petersen-Straße / Stoeckhardtstraße,,,53.5577622,10.0504306,01108122
12843091776,U Kiwittsmoor / Fibiger Str.,,,53.6750697,10.0170585,04413432
12843104015,S Mittlerer Landweg / Am Gleisdreieck,,,53.4970452,10.131691,06610611
12844080500,Mobility Hub Hamburg-Harburg / Hannoversche Str.,,,53.4563091,9.9898566,07701702
12844093867,Hainholzweg / Strucksbarg,,,53.4498655,9.9373927,07709710
