id,name,street,zip_code,lat,lon,geojson_feature_id
31477371,Uwe-Seeler-Fuß,,,53.5881739,9.9004894,02205217
270478989,,,,53.5732049,9.8837105,02205217
290835907,Vogel,,,53.530685,10.0446219,01114132
291421019,Vogel,,,53.5308079,10.0447348,01114132
291421503,Freundschaftsdenkmal,,,53.530665,10.0449183,01114132
292319615,Adam plündert sein Paradies,,,53.5588804,9.862244,02209221
292574288,Der Faulenzer,,,53.6509,10.1852038,05517525
302055527,Bürger im Park,,,53.7085442,9.9825217,0
302719134,Sir William Lindley,,,53.5441686,9.9795673,01103105
369768132,Kristallformation,,,53.4818186,10.2394478,06602603
369768135,Krokusläufer,,,53.4832861,10.2377371,06602603
369768137,Blot-able,,,53.4831308,10.2373207,06602603
369768139,Angekippte Wiese,,,53.4831263,10.2370056,06602603
369768141,Häuser 1,,,53.4830183,10.2367085,06602603
369768143,to the lighthouse,,,53.4833385,10.236876,06602603
369768159,Chercher la femme,,,53.4837112,10.2352651,06602603
369768161,Die Bürger von N,,,53.4838452,10.234563,06602603
372691315,Windstille,,,53.4855843,10.2226569,06602603
372691371,Ding mit Rohren,,,53.485768,10.2232487,06602603
372691374,Chromosom II,,,53.4858026,10.2227532,06602603
372691376,Familie,,,53.4856042,10.2234663,06602603
372691378,Torso,,,53.4856511,10.2246434,06602603
372691379,Zen 16 + 17,,,53.4855853,10.225253,06602603
372691388,Venedigstein 2001,,,53.4854694,10.2260375,06602603
372691391,on the other side,,,53.4855273,10.2261299,06602603
372698324,Alpha,,,53.4862739,10.2209023,06602603
374120100,Saatlinsen,,,53.48297,10.2369557,06602603
374120101,Lebenswege,,,53.4829002,10.2369173,06602603
374120109,Symbiose + Metamorphose,,,53.4861034,10.2202848,06602603
374120111,NaturMenschenRäume,,,53.4858979,10.2208095,06602603
374120132,NaturMenschenRäume,,,53.4859148,10.2209346,06602603
374120138,NaturMenschenRäume,,,53.4858727,10.2211898,06602603
392717701,Flieger Franze,,,53.4846528,10.230298,06602603
392719478,Luftsäule,,,53.4859629,10.220612,06602603
392719479,Stein zu Mensch,,,53.4861799,10.2202827,06602603
413549541,Löwe,,,53.5687258,9.9888848,03302312
413558329,Löwe,,,53.568364,9.9888688,03302312
414112810,Stein,,,53.4853063,10.2267737,06602603
416688048,Pavillon Dresdner Frauenkirche,,,53.5962964,9.9378738,03309321
486625734,Walddörfer-Stein,,,53.6733483,10.1215386,05516524
659019628,Kreuzigungsgruppe,,,53.5561503,10.0077953,01105114
703112192,Kleiner Zyklop,,,53.5544497,10.0043385,01101101
703112193,Der junge Reiter,,,53.5543983,10.0039724,01101101
703112195,Der Fluß,,,53.5546292,10.0040977,01101101
775498887,Keramische Reliefs,,,53.557166,10.0169889,01105113
778255383,Tor,,,53.5722178,9.9424987,03301304
911062348,,,,53.5400005,9.8656871,01120141
974002347,Kunsthandwerkerei,,,53.408168,10.2086692,06606607
976569531,,,,53.671241,10.2389618,0
989335944,Liegende,,,53.570328,9.945141,02203209
1018603924,ohne Titel,,,53.5656269,9.9431536,02203209
1020261446,Würfelobjekt,,,53.5667839,9.9460251,02203209
1026448241,Flötenspieler,,,53.56321,9.9485009,02203208
1260271224,Prüfung,,,53.5474457,9.9915611,01101102
1260271240,Erdenengel,,,53.5474688,9.9911581,01101102
1271073638,,,,53.5694922,10.0265745,04406415
1271116474,Holzsäule,,,53.5900445,9.85992,02208220
1334918857,Moltke-Denkmal,,,53.5776716,10.0890281,05502508
1443451492,Thörlbrunnen,,,53.4587323,9.9771629,07701701
1446223286,Entwicklung des Schiffbaus,,,53.5867064,10.064086,04409425
1452642660,Geschichtsbrunnen,,,53.4615451,9.9804793,07701702
1453491545,Aufrechter Gang,,,53.4590754,9.9797857,07701701
1453491546,Begegnung,,,53.4603795,9.9807018,07701702
1453491547,Begegnung,,,53.460512,9.9809416,07701702
1453491548,Christusfigur,,,53.4628181,9.98015,07701702
1453491549,Drei mögliche Denkmäler,,,53.4588979,9.9828464,07701702
1453491551,Flaggenmann,,,53.4587533,9.9844068,07701702
1453491552,Großstadtgören,,,53.4592334,9.9828375,07701702
1453491553,,,,53.463476,9.9811791,07701702
1453491657,Robbe,,,53.4591239,9.9805168,07701701
1453491658,Schiller-Büste,,,53.4616228,9.981381,07701702
1453491659,Säule und Wandrelief,,,53.4574723,9.9842092,07701702
1453491660,Tubaspieler,,,53.4597271,9.9803977,07701701
1453491661,Wandbild Anamorphose,,,53.459344,9.9825093,07701702
1453540620,Soldat,,,53.4581315,9.9814219,07701702
1453540621,Der pfeifende Junge,,,53.4573663,9.9768933,07701701
1453540622,Eisengießer,,,53.4586949,9.9780709,07701701
1453540624,Faustkämpfer,,,53.4589812,9.9794287,07701701
1453540625,Großes Normandiestück,,,53.4593209,9.9791881,07701701
1453540626,Kugel im Kubus,,,53.4585073,9.9777677,07701701
1453540628,Mauerrelief,,,53.4589347,9.9782605,07701701
1453540629,Miteinander,,,53.4569051,9.9836773,07701702
1453540630,Niemandes Land,,,53.4570486,9.9797634,07701702
1453540637,Sgrafitto 1955,,,53.4608256,9.9765569,07701701
1453540638,Trauerndes Kind,,,53.4580988,9.9815171,07701702
1453540639,Umarmung,,,53.4580031,9.9775662,07701701
1453540640,,,,53.4631504,9.9816297,07701702
1492561288,,,,53.6741291,10.2420446,0
1492561289,,,,53.6741905,10.2420585,0
1504421325,Der Schläger,,,53.7255026,10.2624256,0
1504421337,Streben nach Höherem,,,53.7262558,10.2624628,0
1536759491,,,,53.726239,10.2676425,0
1547008323,Dialogsäule,,,53.6001566,9.8359797,0
1549516893,,,,53.5414421,9.9856258,01102103
1561539056,Schiffsbleche,,,53.5560196,10.0076475,01105114
1599630540,Mann auf Giraffe,,,53.5934867,9.9427003,03309321
1664478148,Rieselbrunnen,,,53.4873275,10.1755051,06614615
1806298251,Kühe,,,53.5425058,10.2112436,0
1806529256,Das Schicksal,,,53.6284962,10.0457805,04411430
1825401134,Körber-Ringe,,,53.5469488,10.0055016,01101101
1839504485,,,,53.4599218,9.9687999,07701701
1839504490,,,,53.4617291,9.9695096,07701701
1887418241,Propeller,,,53.544978,9.9896688,01101102
1887472737,Hermes,,,53.5448264,9.9801636,01103105
1889018125,,,,53.5552808,9.9783113,01103106
1889018129,,,,53.5554455,9.9781014,01103106
1889018130,,,,53.5555331,9.978222,01103106
1889917625,Kersten Miles,,,53.5473061,9.9708364,01104112
1889917629,Berend Jacob Karpfanger,,,53.5475596,9.9707925,01104112
1889917636,Ditmar Koel,,,53.5476024,9.971461,01103106
1904845524,,,,53.6778157,10.1823742,0
1907939171,Aqua Viva,,,53.5301996,9.8778353,01120141
1911609795,Ziehende Kraniche,,,53.5901994,9.8494388,02209221
1912920859,Aufsteigender,,,53.5845999,9.8517237,02209221
1912920862,Liegende,,,53.5859056,9.8535958,02209221
1915729114,Reliefwände,,,53.5870543,9.8523197,02209221
1915874971,Symbol der Gemeinsamkeit,,,53.5910281,9.8509624,02208220
1915874994,Große Oceanide,,,53.583838,9.8550715,02209221
1918543493,Liegende,,,53.558452,9.9886399,01103108
1919949587,Paar auf Pferd,,,53.6007567,9.8805337,02208220
1919949593,Flügelsäule,,,53.59923,9.862313,02208220
1919973293,Möwen,,,53.5909322,9.8529014,02208220
1923551634,,,,53.5564415,9.9835893,01103108
1923551639,Große Dreifigurengruppe,,,53.55238,9.9870112,01103108
1923646370,Maritim,,,53.5454619,9.9350261,02201202
1924016442,Sieben Orte für Hamburg - Ort,,,53.5543915,10.0042472,01101101
1924031071,Rhythmus im Raum,,,53.5575287,10.0034313,01105114
1924042690,Rugby,,,53.5587591,9.990762,01103108
1924048106,Lichtplastik,,,53.5587425,9.9914236,01103108
1924055084,Panther,,,53.5551819,9.9772449,01103106
1924066334,Rad & Schiene,,,53.550363,9.9699446,01103106
1925770272,Liegende,,,53.5594991,9.9868969,01103108
1925776816,Flamingogruppe,,,53.562324,9.9792842,01104109
1925779038,Sonnenuhr,,,53.5625641,9.9799424,01104109
1925807557,Kreisende Kugeln,,,53.5631413,9.9776023,01104109
1925807558,Große weibliche Figur,,,53.5633078,9.9788478,01104109
1925807560,Weibliche Gestalt,,,53.5632704,9.9785512,01104109
1925807566,Aurora,,,53.5632744,9.9783007,01104109
1925811789,Stehender männlicher Torso,,,53.5613313,9.9855578,01104109
1937187905,Atlas,,,53.5548869,9.9908069,01103108
1937187911,Die Windsbraut,,,53.5569809,9.9937818,01103108
1937187916,,,,53.5567885,9.992371,01103108
1951736297,Grablegung Jesu,,,53.6244532,10.0605131,04411430
1951751336,Finis vitae,,,53.6243891,10.0602482,04411430
1975318790,Bärengruppe,,,53.5776494,9.8684098,02205217
1975540261,,,,53.5885888,9.8466839,02209221
2022358973,Kaffeebohne,,,53.5426804,9.9948592,01102103
2038940395,,,,53.5534866,9.9925423,01103108
2102927533,Große Liegende,,,53.57262,9.979063,03303313
2112593393,Der sterbende Häftling,,,53.4344495,10.23316,06605606
2127237596,Kämpfende Vögel,,,53.6736392,10.2362736,0
2186456995,Artes Liberales,,,53.7270012,10.2601606,0
2186499039,,,,53.7292367,10.2610668,0
2225763189,Unser Erbe,,,53.6734983,10.2359464,0
2264170341,Säule für den Lohmühlenpark,,,53.5588318,10.0169632,01105113
2273600443,"ohne Titel (verschiebbare Würfel, Dreiergruppe)",,,53.5698032,10.1083227,05504512
2273600447,"ohne Titel (verschiebbare Würfel, Zweiergruppe)",,,53.5696502,10.107797,05504512
2288554705,Spielende Kinder,,,53.5894438,9.8657026,02208220
2306333956,Stele,,,53.5669621,9.9828693,03302312
2307123871,,,,53.4668548,9.9838455,07701702
2307123881,Auffliegende Reiher,,,53.495668,10.0068296,01116136
2322249387,Kindertürme mit Tieren der Welt,,,53.4842804,10.226956,06602603
2340955819,Segelmotiv I,,,53.5487973,9.9944453,01101102
2356474220,Schafhirte mit Schalmei und Lamm,,,53.6431028,10.0131788,04413432
2425855598,Mann auf der Boje,,,53.543735,9.907306,02207219
2480235072,Schiffsschraube,,,53.5430024,9.9999556,01102104
2553085881,Moai Angelito,,,53.5460159,9.9782894,01103105
2578087306,,,,53.7262037,10.2676367,0
2584338626,Hahn,,,53.6512649,10.0928852,05511519
2589243057,Latsch-in 1976-1986,,,53.5684669,10.0532876,05501503
2627741444,,,,53.5710653,10.0766295,05502507
2699836087,Spielplatzpokal,,,53.6891938,10.2487376,0
2851829651,,,,53.6843128,10.1559513,0
2857970907,,,,53.6697867,10.2387802,0
2863118190,Klee-Monolithen,,,53.4855276,10.1682558,06614615
2863119094,Ader,,,53.4869005,10.1543668,06614615
2863123213,Läufer,,,53.486105,10.1495649,06614615
2863141383,Botschaft an die Zukunft,,,53.4813071,10.1613233,06614615
2863142365,Bernsteingewebe,,,53.4866174,10.140958,06614615
2863148976,Livingroom,,,53.4869747,10.1558764,06614615
2863150030,Geöffnete Form,,,53.4873228,10.1571154,06614615
2876732223,Wegweiser Partnerstädte,,,53.6705307,10.2385861,0
2945789837,Antje-Brunnen,,,53.6527329,10.0920525,05511519
3000072698,Gleichklang,,,53.5847271,10.1445322,05504512
3000072701,Liegender Panther,,,53.5879202,10.143914,05518526
3000093947,Pferdebändiger,,,53.5849651,10.1464137,05518526
3161061836,Zwei Tauben an Hauswand,,,53.580741,10.0809876,05502506
3297371973,Stadtzeichen,,,53.55975,9.9813807,01104109
3324212225,Tor,,,53.5134804,10.2363921,0
3327476425,,,,53.5499676,10.0056235,01101101
3360316392,Zitronenjette,,,53.5487804,9.98048,01103107
3424111580,Der Ehrensprung (Matthias Claudius),,,53.5718127,10.0672017,05502505
3460178869,Morgenstunde,,,53.5504698,9.9783351,01103106
3507251293,Zeitunglesende am Strand,,,53.5716962,10.0671332,05502505
3529178884,Mädchen mit Mappe,,,53.5621988,9.982484,01104109
3556505568,Springendes Pferd,,,53.5493369,9.8525202,02210222
3603697374,,,,53.5461185,10.0206843,01106116
3613490915,Das metamorphe Ufer des Herrn Lienau,,,53.5679136,10.0015901,03302312
3613490916,Die Kniende,,,53.5678573,10.0013163,03302312
3613546135,Panther,,,53.5661725,9.9848263,03302312
3618208469,Arbeiter mit Schubkarre,,,53.5472492,10.0233139,01106116
3618208470,Gänseschar,,,53.5458292,10.0245805,01106117
3618216064,Brahms-Kubus,,,53.5557691,9.9814401,01103108
3618216065,Hommage an Brahms,,,53.5556286,9.9801263,01103108
3618217154,,,,53.5340432,10.0389187,01114133
3632103457,112 T.W.U,,,53.5464423,10.0069277,01101101
3633479456,Meerjungfrau,,,53.5460324,9.9430961,02201202
3646651423,Bison,,,53.5990122,9.8864452,02208220
3646651424,Weiblicher Akt,,,53.5992159,9.8863674,02208220
3670837500,Hamburgerin,,,53.5506862,9.9894505,01103108
3670882482,Ohne Titel,,,53.547878,10.0006125,01101101
3685517258,Sieben Orte für Hamburg - Bewegung,,,53.5475815,9.9942486,01101102
3686091637,Diana-Brunnen | Aufbruch zur Jagd,,,53.5933728,10.0131281,04405409
3694155510,Reclining Figure: Hand,,,53.5628659,9.9920956,03302312
3735822071,,,,53.5531334,9.9663131,01104111
3748435734,Lob des Wassers,,,53.5464915,9.9678614,01104112
3756439583,Calao,,,53.5625812,9.9887845,03302312
3849761209,Steinbock,,,53.5741355,9.8418621,02209221
3884972276,,,,53.5495437,9.9450083,02201203
3898109121,Okeanide,,,53.5481937,9.9419383,02201203
3898121092,Bismarck-Denkmal,,,53.5479795,9.9427581,02201202
3898180065,,,,53.5495008,9.9450041,02201203
3948733779,o.T.,,,53.5506848,9.9994505,01101101
3962616473,,,,53.4851243,10.1999089,06602602
3985720425,Schwarz-weiß-Komposition,,,53.5633832,9.9785337,01104109
3988564646,Überläufer | Bodenarbeit,,,53.5583121,9.9702432,01104109
3989664225,Ungegenständlich,,,53.5634828,9.9782978,01104109
4024296271,Aura,,,53.5415668,9.99929,01102103
4040149694,"Bremen, Hamburg, Lübeck",,,53.5565323,9.9776028,01103106
4040149695,"Technik, Handel, Industrie",,,53.5563651,9.977399,01103106
4061861716,Wand-lung,,,53.557283,9.980231,01103106
4067106562,,,,53.5714021,9.9567396,03301306
4075689777,,,,53.5481371,9.9324597,02204214
4076340271,,,,53.5651609,9.9862837,03302312
4076351657,Dreiecke Divergent,,,53.5670882,9.9839028,03302312
4099236595,Simon von Utrecht,,,53.5473492,9.9715091,01103105
4105991411,Die Träumende,,,53.5847631,10.0421743,04408421
4112069243,Drei Männer im Boot,,,53.56472,10.0153152,04407416
4235134085,Sprachzylinder,,,53.5466774,10.0057642,01101101
4256314918,Flor Urbana,,,53.5494123,9.9853262,01103107
4288764735,,,,53.4975252,10.0041338,01116137
4296675429,Kleiner Stehender,,,53.5753439,9.9790643,03303313
4382499081,Vier Männer auf Bojen,,,53.563803,10.0136797,04407416
4401884643,Steinerner Orientteppich,,,53.5430992,9.9836885,01102103
4401886629,Drachensteigenlassende Kinder,,,53.5731595,10.0025791,03302312
4401886800,Orpheus und Eurydike,,,53.5706537,10.0020888,03302312
4419494949,Zwischen Barmbek & Haiti,,,53.5372606,10.0332303,01114133
4421095772,Großer Speerträger,,,53.576545,9.9812765,03303313
4421172352,Die Postliesl,,,53.5797425,9.974882,03304315
4421202863,Schreitende,,,53.5759272,9.9790693,03303313
4455243834,,,,53.6413427,10.1510635,05517525
4466716207,Sieben Orte für Hamburg - Raum,,,53.5525042,9.9940978,01103108
4466860914,Sieben Orte für Hamburg - Innen Außen,,,53.5477746,10.0018086,01101101
4466865425,Sieben Orte für Hamburg - Körper,,,53.5492492,10.003454,01101101
4485982287,Pyramide,,,53.5569674,10.0225802,01105113
4486636230,Berlin,,,53.5534401,10.0260449,01107119
4490687889,Wappen,,,53.729742,10.2670552,0
4490982299,Schwebende Archive,,,53.6862017,10.1728111,0
4490982300,Schwebende Archive,,,53.6862587,10.1728827,0
4490982301,Schwebende Archive,,,53.6862742,10.1728086,0
4490982302,,,,53.6863468,10.1731968,0
4490982303,Anrufung,,,53.6863636,10.17216,0
4490982304,U-Bahn Station,,,53.6863733,10.171488,0
4511311573,,,,53.4951486,10.183595,06602602
4595536493,Sprachzylinder,,,53.5463908,10.0055648,01101101
4683537402,Manga Hamburg,,,53.5583033,9.9558434,02201206
4705814590,Vegetatives Wachsen,,,53.5937207,9.8836248,02208220
4718776589,Das Schwein von Blankenese,,,53.5617262,9.8120128,02211223
4812161588,Die Elbe,,,53.5434561,9.9359575,02201202
4816447502,Spirale,,,53.6236718,9.9131926,03307319
4943394791,,,,53.6409686,9.815587,0
4962763777,Großer Schreitender,,,53.670689,10.0258124,04413432
4995523614,Goldenes Haus,,,53.5243097,10.0183132,01115134
5003857124,,,,53.5571368,9.9755537,01104109
5067559916,Schaffender,,,53.4892269,10.2016316,06602602
5071975178,Fischer,,,53.4837446,10.1752946,06614615
5086585349,Grasende Kuh,,,53.486121,10.1782508,06614615
5107419787,Eva,,,53.605225,10.1591872,05518526
5120367126,Turnier,,,53.6019023,10.0030332,04405408
5122929220,Frauen in der Fischverarbeitung und am Fischmarkt,,,53.544718,9.9322405,02201202
5136264936,,,,53.6409312,9.815562,0
5155173555,Die Ameisen,,,53.5459102,9.9005447,02207219
5200371097,Postillon,,,53.6482867,10.1638368,05517525
5273648878,Mann und Pferd,,,53.5591806,10.107529,01111129
5330100018,Wachstum,,,53.4941105,10.179086,06602602
5366586424,Dings,,,53.4825983,10.1523504,06614615
5446726708,Cinema Aquatica,,,53.4980243,10.0087266,01116136
5513918578,Regentrude,,,53.7075259,9.9942058,0
5554892695,Ottenser Torbogen,,,53.5521816,9.9302618,02204213
5584618074,Erlkönig,,,53.4756743,9.8783005,07713714
5631123402,,,,53.5597926,9.910604,02204212
5686011745,Zwei Schulmädchen,,,53.5994371,9.8579622,02208220
5695348826,Mensch und Tier,,,53.5620144,9.8586772,02209221
5713450868,,,,53.5393788,10.1063034,01112130
5713762328,Tempel,,,53.5474896,9.9898902,01101102
5715043565,Double Triangular Pavilion for Hamburg,,,53.5751652,10.0066488,04406414
5721119917,Männliche Figur im Doppelstamm,,,53.6340757,9.9513799,03306318
5769087444,Frühling,,,53.5610232,9.9054131,02205216
5790814933,Lebensbaum,,,53.5389693,10.1084103,01112130
5790814934,Säulen mit Figurengruppen,,,53.538855,10.1089689,01112130
5823263711,,,,53.6238207,10.0186675,04412431
5833516168,Zugvögel,,,53.4775283,9.8747407,07713714
5986657829,Friendship Force Norderstedt,,,53.7147417,10.0117702,0
6015549819,Barke,,,53.48139,10.1720013,06614615
6032706596,,,,53.5704106,9.9587122,03301308
6111350703,Sprachdusche,,,53.7293732,10.2629311,0
6162026519,Der Dorfschmied,,,53.6814158,9.9876975,0
6326354741,Gänseliesel-Figur,,,53.5999833,9.945214,03305317
6327460228,Botin des Seewindes,,,53.5286491,10.0238605,01115134
6356678368,Zwei Kreisscheiben,,,53.600849,9.8886502,02208220
6356678592,Reifenspieler,,,53.5912137,9.8737612,02208220
6356678655,Sitzender,,,53.60051,9.8824811,02208220
6356678731,Knieende,,,53.6024215,9.8798217,02208220
6356678732,Ballspielende Kinder,,,53.6051208,9.8796473,02208220
6356678977,Vogelgruppe,,,53.6056937,9.8700167,02208220
6356678979,Große Marina,,,53.6057273,9.8669705,02208220
6356679130,Gazelle,,,53.6081021,9.8679416,02208220
6357096152,Großer Götze,,,53.5945639,9.8886681,02208220
6372427311,,,,53.5616975,9.9127392,02205216
6391690636,Tropfen des Lebens,,,53.6649586,10.1937989,0
6433149085,Geometrische Blumen,,,53.5598985,10.0287695,04407417
6446525223,Sich leckender Gepard,,,53.52795,10.1512005,01112130
6446525224,Leuchtturm,,,53.5279841,10.1511985,01112130
6446525225,Offenes Atelier,,,53.5279511,10.1510735,01112130
6446525226,Voilá lhomme,,,53.5279845,10.15102,01112130
6446525227,Befreiung,,,53.5279829,10.1510776,01112130
6446525228,Löwe,,,53.5279833,10.1511375,01112130
6446525229,Pappas,,,53.5280217,10.1511381,01112130
6446525230,Drei Figuren,,,53.5280221,10.1510781,01112130
6446525231,Wut im Bauch,,,53.5280225,10.1510187,01112130
6446525232,Wegmarke für Mümmelmannsberg,,,53.5280229,10.1509599,01112130
6446525233,Kugelbaum,,,53.5280582,10.15102,01112130
6446525234,Reisespuren,,,53.5280563,10.1510787,01112130
6446525235,Huldigung,,,53.5280555,10.1511368,01112130
6446525236,Weibliche Form,,,53.5280912,10.1511407,01112130
6446525237,Hand,,,53.528092,10.1510787,01112130
6446525238,Drei Bögen,,,53.5280931,10.1510194,01112130
6446525239,Bewohner,,,53.528095,10.1509612,01112130
6446525240,Portrait G.H.,,,53.5281292,10.1510213,01112130
6446525241,Vogel,,,53.5281304,10.1509606,01112130
6446525242,Männer im Boot,,,53.5280225,10.1508986,01112130
6446530939,Hamburg-Mannheimer-Brunnen,,,53.6009359,10.0198806,04405408
6454369262,Wiederaufbau und Planung,,,53.5822534,10.0677571,04409425
6488255485,,,,53.5578832,9.9829341,01103106
6494344257,Osaka II,,,53.5537033,9.9742287,01103106
6504736250,Sitzende,,,53.5627976,9.9023867,02205216
6514144386,Miteinander,,,53.5490194,10.0185245,01106116
6535915321,Störtebeker-Säule,,,53.5477694,10.0507336,01108127
6549438380,Fischreiher,,,53.4672582,9.9619761,07710711
6594834703,Jung mitn Tüddelband,,,53.5504819,9.9755616,01103106
6620799787,,,,53.5585101,9.9723079,01104109
6620799788,,,,53.5623737,9.9633564,02202207
6620799789,,,,53.5623311,9.9599156,02202207
6620811385,,,,53.5622655,9.9642255,02202207
6620811585,,,,53.564925,9.9649699,02202207
6621363985,,,,53.5167382,9.9908535,01116137
6665890478,,,,53.559097,9.9202608,02204212
6677268052,Heine Denkmal,,,53.6647716,10.0739425,05511519
6680661287,ohne Titel,,,53.4698342,9.953368,07710711
6750865399,Der Gedanke dort hinten,,,53.5714328,10.0014012,03302312
6750955085,Moislinger Klangschalen,,,53.5248128,10.0547831,01114132
6812488470,Verbundenheit,,,53.4900165,10.2018743,06602602
6872081505,,,,53.5531621,10.0057449,01105114
6872081558,,,,53.5532022,10.0059336,01105114
6872081584,,,,53.5533787,10.0056268,01105114
6903373215,Balance,,,53.701999,10.0093952,0
6903438131,Max und Moritz,,,53.6828153,10.0063938,0
6903466880,5 Traumhäuser,,,53.6815788,9.9876408,0
7020170599,,,,53.5759171,10.0013571,03303313
7052516523,Familie,,,53.6817411,9.9848729,0
7084801741,Sitzende,,22049,53.5872705,10.067061,04409425
7085654103,Kleine Stehende,,,53.4596911,9.9573739,07710711
7085664164,,,,53.589145,9.9257277,03309321
7085691307,Weiblicher Engel,,,53.5476053,9.9916726,01101102
7085907196,Ohne Titel,,,53.5682272,9.9787996,03302311
7086048806,Ornamente,,,53.5543255,10.0034266,01101101
7086075084,Liegende,,,53.5901124,9.9716496,04402403
7086142273,Lauschender Knabe,,,53.5901607,9.9717652,04402403
7086142274,Danae,,,53.5903412,9.9712476,04402403
7086142276,Phoenix,,,53.5896692,9.9716694,04402403
7086142277,Bärengruppe,,,53.5888672,9.9741701,04402403
7086160167,Große Stehende,,,53.590179,9.9715427,04402403
7087672061,Mädchen mit Hund,,,53.5915206,9.9800804,04402403
7091075047,Mensch und Natur,,,53.6721844,9.9998733,04413432
7149196344,Labyrinth des Lebens,,,53.7085594,9.9911495,0
7149235084,Atlas,,,53.6820425,9.989803,0
7149257284,Inspiration einer nördlichen Stadt,,,53.6877355,10.0383094,0
7149295194,Augen und Ohren,,,53.7074846,9.9904346,0
7212802848,Wir sind alle Astronauten,,,53.686549,10.1726076,0
7212802849,Bestandsaufnahme,,,53.6865899,10.1721663,0
7260728357,,,,53.5512499,9.9123007,02204212
7364716717,,,,53.5574941,9.9787078,01103106
7366310597,Großer Stehender,,,53.5386871,10.109738,01112130
7366785033,Pan,,,53.4600368,9.9513555,07710711
7387682531,Märchenbilder,,,53.6325976,9.749988,0
7454591107,Bahnschranke,,,53.6041489,10.1521529,05518526
7526547331,Wurzeln,,,53.715499,10.0140676,0
7596914408,Break,,,53.686468,10.1726921,0
7596914409,Drei Arten zu liegen,,,53.6865006,10.1725768,0
7596914421,Friedhof für literarische Gestalten,,,53.6867682,10.1735973,0
7596914433,Kopfkartons,,,53.686607,10.1723193,0
7596914457,Mea,,,53.6859225,10.1732853,0
7596914458,Apokalyptischer Reiter,,,53.6858683,10.1731534,0
7596914460,Kreuzgewölbe,,,53.6860082,10.1728342,0
7596914463,Dogdome,,,53.6859804,10.172397,0
7596914464,Hommage an Heizer,,,53.6858612,10.1724225,0
7596914468,,,,53.6859391,10.1722267,0
7596914469,Heimat,,,53.6859002,10.1727457,0
7596914478,Kleiner Wächter,,,53.6855682,10.1720618,0
7596914480,Boot,,,53.685889,10.1719961,0
7596914484,,,,53.6863473,10.1724359,0
7596935285,Anrufung,,,53.6860638,10.1721168,0
7596935302,o T,,,53.6864084,10.1725003,0
7596935309,Torso,,,53.6859955,10.1727001,0
7596935310,Ausgegrenzt - Zeugen gesucht Grenzsteine - Friedenssteine,,,53.6863755,10.1727518,0
7596935311,Wenn Engel reisen …,,,53.6865089,10.1732077,0
7596935312,Engel,,,53.6864891,10.1732963,0
7596935313,,,,53.6864025,10.1733419,0
7596935314,,,,53.6864104,10.1732191,0
7596935315,ohne Titel,,,53.685708,10.1720725,0
7596935316,Übergang,,,53.6859137,10.173022,0
7596935319,Containing,,,53.6860804,10.1730837,0
7596935324,,,,53.6861241,10.1743242,0
7596935336,,,,53.686549,10.1722455,0
7596935337,Aufrecht,,,53.6867206,10.1729174,0
7596935338,Inside Track,,,53.6866674,10.1725352,0
7618157589,,,,53.4336401,9.9903766,07706707
7627139975,Blumenmädchen,,,53.4559657,9.9819223,07701702
7743906215,Akzente am Balkon,,,53.5504125,9.9827578,01103107
7837742355,Die Tänzerin,,,53.554203,9.8665877,02207219
7837799102,Magnolienblüte 10:1,,,53.5626518,9.8621048,02209221
7868911306,Lesende,,,53.6515237,10.0772817,05511519
7869341427,Freundschaft,,,53.5472122,9.9014763,02207219
7873131081,Nu vertell mi dat doch,,,53.6492304,10.167353,05517525
7881714599,Hilfsorganisationen,,,53.7317567,10.260409,0
7881714652,Der Schaulustige,,,53.7254638,10.2624066,0
7881714653,Der Betroffene,,,53.725505,10.2624992,0
7881714661,Das Gericht der Tiere,,,53.7268388,10.2614799,0
7881760048,Die vier Lebensalter,,,53.6736583,10.2360693,0
7973111657,Gesellschaftsspiegel,,,53.5501859,9.990384,01101102
7973111658,Gesellschaftsspiegel,,,53.5509889,9.9919429,01101102
8006629045,Pendelmobile,,,53.6098089,10.0579769,05508516
8042602690,Traverse,,,53.6251538,10.1141694,05507515
8143552061,Die Badende | Nach dem Bade,,,53.5970856,10.0244939,04405409
8156194318,Flügelform,,,53.7079477,10.0059609,0
8167755684,,,,53.5555603,9.9587152,01104110
8177467971,Sphinx,,,53.5779972,10.0885311,05502508
8177467972,Sphinx,,,53.5780378,10.0889213,05502508
8177467975,Schöne,,,53.5784781,10.0880557,05502508
8212791309,Mikado,,,53.5704091,9.8521501,02209221
8253047693,Zirkusreiterin,,,53.6674413,10.0233574,04413432
8253109533,Katze,,,53.6736841,9.9979891,04413432
8253109540,Das Blatt,,,53.6560405,10.0155093,04413432
8253109559,Liegendes Paar,,,53.6749226,10.0266083,04413432
8253123332,Steinblume,,,53.6545201,10.0136143,04413432
8253123343,Der Baum,,,53.6755669,10.0255823,04413432
8261937858,Zwiegespräch,,,53.6761222,10.0201093,04413432
8262017832,Stehende Eva,,,53.6726942,10.0044458,04413432
8262017836,Die Hilfe,,,53.6723021,10.0046276,04413432
8262017842,Fisch,,,53.6522786,10.0116684,04413432
8262017865,Ikarus,,,53.6522667,10.0218956,04413432
8262046983,Zwei Eulen,,,53.6751685,10.0046886,04413432
8262046984,Schafhirte,,,53.6745409,10.0051459,04413432
8262046993,Rinder,,,53.673495,10.0076933,04413432
8262061087,Mädchen mit Katze,,,53.6506738,10.0139402,04413432
8262061088,Mädchen mit Hund,,,53.6677126,10.0035734,04413432
8262061098,Mutter und Kind,,,53.6557734,10.0049454,04413432
8262210967,Erbsenschote,,,53.6677905,9.9999122,04413432
8262210972,Farntrieb,,,53.6680348,9.9993429,04413432
8262210973,Apfel,,,53.6688766,9.9991693,04413432
8262210975,Schachtelhalm,,,53.6697411,9.9989795,04413432
8262210979,Windenknospe der Ackerwinde,,,53.6701606,9.9997023,04413432
8262210986,Stehender Mann,,,53.6703703,9.9951848,04413432
8262210987,Männerbüste,,,53.6703823,9.9936211,04413432
8262210988,Sitzendes Kind,,,53.6708006,9.9950588,04413432
8262210989,Liegende Frau,,,53.6713829,9.9958152,04413432
8262249689,Platte Flunder,,,53.6737854,9.9956629,04413432
8262249712,Seeschlange,,,53.6710242,9.9952452,04413432
8262260123,Seeschlange,,,53.671087,9.9953176,04413432
8262260124,Blatt,,,53.6670404,10.0003119,04413432
8262265212,Thronhaus,,,53.670192,9.9998378,04413432
8262292936,Zwei Schnecken,,,53.6725087,9.998948,04413432
8262334574,Sokrates,,,53.6704673,10.0320733,04413432
8262379398,Raumskulptur,,,53.5766324,10.1357326,05504512
8262440442,Figurengruppe,,,53.5716904,10.1345135,05504512
8262541354,Feuermacher,,,53.6050038,10.1536551,05518526
8262560947,Fische im Schwarm,,,53.6165198,10.1413934,05518526
8262560948,,,,53.6121804,10.1365631,05518526
8262560958,Adam und Eva,,,53.6019074,10.1378971,05518526
8262637929,Mann auf Hirtenflöte blasend,,,53.5887731,10.1620042,05518526
8262637930,Twens,,,53.5855768,10.1586333,05518526
8262637937,Reiterkampf,,,53.5821785,10.1535847,05518526
8262637940,Geste,,,53.5818875,10.1525715,05518526
8262637962,Mutter mit Kind,,,53.5811622,10.14368,05504512
8262637970,Segelmotiv,,,53.5853921,10.1448373,05518526
8262637981,Großer Angelo,,,53.5901471,10.1443197,05518526
8262678934,Merkur-Säule,,,53.6070782,10.1889691,05518526
8262678935,Zwei Tafeln mit herausgearbeiteten Elementen,,,53.5891353,10.1617996,05518526
8262770972,Trompeter,,,53.6264233,10.1662836,05518526
8262772905,,,,53.6275873,10.1712853,05518526
8262772906,Lebensbaum,,,53.6316249,10.1754709,05518526
8262772912,Kinderturm,,,53.6294491,10.1715884,05518526
8262772913,Tänzerinnen,,,53.6316098,10.1534794,05518526
8262772914,Kreisobjekt,,,53.6278899,10.1517507,05518526
8262802522,Objekt,,,53.6267928,10.1529148,05518526
8262802523,Flüsterer,,,53.6034063,10.1548366,05518526
8262802524,Liegende Stute mit Fohlen,,,53.6000779,10.1516072,05518526
8262802525,Atmende Stele,,,53.6053921,10.175613,05518526
8262802526,Fisch,,,53.5941819,10.1766812,05518526
8262802527,Vegetativ,,,53.5901033,10.1813932,05518526
8262821720,Große Liegende,,,53.6340532,9.9512046,03306318
8262985508,Shell,,,53.6048169,10.0182216,04405408
8262985509,Athena,,,53.6045724,10.0185457,04405408
8268402217,Jüngling mit Möwe,,,53.5577462,9.9971801,03302312
8274786032,Maibaum,,,53.7223191,10.0076705,0
8274786042,Mahnmal für die Opfer des Zweiten Weltkrieges,,,53.7060438,10.0085701,0
8274786043,Vertriebenen-Ehrenmal,,,53.7052178,10.0082613,0
8274786044,Windbewegtes Objekt,,,53.6862875,9.9918409,0
8274786045,Das System des Coppernicus,,,53.6871796,9.9873461,0
8274786047,Manifest,,,53.6812034,9.9971309,0
8274786048,Scultura urbanistica,,,53.6839582,10.0305659,0
8274786056,Geometrisches Relief,,,53.7087944,10.0060451,0
8274786057,Ohne Titel,,,53.686198,9.9872804,0
8274786058,Muschel,,,53.7093691,10.0075592,0
8280758002,Ätherwelle,,,53.5755065,9.9890023,03303313
8280843742,Auswandererdenkmal,,,53.5454228,9.9328986,02201202
8281202615,Akrobatin auf Pferd,,,53.6258487,10.1695968,05518526
8281244517,Münchhausenbrunnen,,,53.4779547,9.8755771,07713714
8281277471,Frau mit Haarschopf,,,53.5876021,9.964444,03305317
8281277478,Pantomime,,,53.5875233,9.9644628,03305317
8281280065,Hexenfahrt,,,53.5468969,9.953107,02201201
8281297323,Flötenspieler,,,53.5528266,10.0517821,01108124
8281374289,Nixen,,,53.5567873,9.9581482,02201205
8282020608,Tanzende Mädchen,,,53.5841375,10.0679773,04409425
8282041208,Tanzende Steine,,,53.611275,10.0779759,05507515
8282091954,Tanzendes Paar,,,53.5091321,10.2087589,06601601
8282092878,Abendlied,,,53.6698936,10.1427674,05516524
8282101441,Farbige Plastiken,,,53.5257922,10.1557901,01112130
8282101442,Stahl-Plastik,,,53.5238565,10.1449862,01112130
8282109885,Fohlen,,,53.5851875,10.1357688,05504512
8282135720,Knabe mit Hund,,,53.5714925,10.0357305,04406415
8282135721,Falkner zu Pferd,,,53.5679856,10.0265761,04406415
8282141210,Lesender Knabe,,,53.5027866,10.1888712,06601601
8282147614,Reiter mit zwei Pferden,,,53.6415174,9.9409237,03306318
8282151313,Drei Kraniche,,,53.4941909,10.1878171,06601601
8283716782,Fischhändler und Marktfrau,,,53.5458395,9.9528603,02201201
8284315182,Mähnenrobbe,,,53.5970249,10.0232099,04405409
8284315183,Schale,,,53.5987416,10.0214195,04405409
8284419460,Tanzende Mädchen,,,53.5947144,10.027885,04405409
8284419680,Knabe mit Fischen,,,53.5957618,10.0258774,04405409
8284419684,Große Kriechende (nördliche Figur),,,53.5958995,10.0153068,04405409
8284419685,Große Kriechende (südliche Figur),,,53.5956416,10.0151043,04405409
8284419690,Kinder mit Fohlen (linke Figur),,,53.5920245,10.0246519,04405409
8284419691,Kinder mit Fohlen (rechte Figur),,,53.5920708,10.0244646,04405409
8284419692,Zentauren | Nereide,,,53.5923178,10.0264876,04405409
8284419693,Zentauren | Triton,,,53.5933987,10.0272587,04405409
8284419695,Diana | Diana auf der Hirschkuh,,,53.5939853,10.0297424,04405409
8284419696,Adam und Eva (Eva),,,53.5949301,10.0295037,04405409
8284419697,Adam und Eva (Adam),,,53.5949882,10.0292476,04405409
8284419698,Wasserspeier,,,53.5973767,10.0216522,04405409
8284590512,Affe | Hockender Affe,,,53.5952125,10.0260749,04405409
8284590513,Aufspringender Hund,,,53.5939582,10.0171977,04405409
8284746830,Weiblicher Akt,,,53.5935661,10.0152613,04405409
8291751014,Haarflechtende,,,53.5509216,10.0732532,01111128
8291807690,Zwei Reiher,,,53.5627777,10.1088495,01112130
8291815070,Großer Sitzender,,,53.5526059,10.1029211,01111129
8293735126,Wisent,,,53.5442179,10.1145954,01112130
8304658969,Vegetative Komposition,,,53.6187158,10.125917,05506514
8304686902,Mann und Frau,,,53.5500088,10.0080976,01106115
8306530536,Drei Vogelsäulen für Borgfelde,,,53.5552422,10.036224,01107120
8306530537,Drei Vogelsäulen für Borgfelde,,,53.5551585,10.0357345,01107120
8306530538,Drei Vogelsäulen für Borgfelde,,,53.555192,10.0356325,01107120
8307581002,Rose,,,53.619094,10.0106786,04404407
8309516528,Bärengruppe,,,53.591197,10.0412075,04410427
8309518675,Eingemauerter Mann,,,53.5739628,10.0406785,04408422
8309577834,Bärengruppe,,,53.5469304,10.0552033,01108127
8309601619,Fliegende Schwäne,,,53.5727745,10.0720862,05502507
8312219401,Widder,,,53.6467342,9.9131039,03307319
8312219411,Frosch,,,53.6246127,9.9148138,03307319
8312384799,Sitzender Jüngling,,,53.639792,9.9123482,03307319
8312406473,Drache,,,53.6469361,9.9098463,03307319
8312675961,Idol,,,53.591431,10.0859347,05502509
8318625380,Adam und Eva,,,53.6043737,10.1549403,05518526
8318759251,Springende Delphine,,,53.6756019,10.145634,05516524
8318768014,Flötenspieler,,,53.6382038,10.031746,05512520
8318778396,Galionsfigur,,,53.6495379,10.0604001,05512520
8319169554,,,,53.6735014,10.0907734,05513521
8319951876,Erdkugel,,,53.652897,10.109282,05510518
8330062608,Bhagwan-Stein,,,53.5914376,9.9296206,03309321
8398221066,Sommerruhe,,,53.5622492,9.9785525,01104109
8421463841,Europa auf dem Stier,,,53.6113681,10.0806481,05507515
8421534785,Der gute Fang,,,53.5320297,9.8611508,01120141
8423338464,Vögel,,,53.5898605,10.068505,04409425
8423341627,Sankt Ansgar mit Gemeinde,,,53.653047,10.00866,04413432
8441744268,Sitzende Frau,,,53.571683,9.8622022,02209221
8441744269,Schreitende Frau,,,53.5716402,9.8621656,02209221
8441748103,Flügelobjekt,,,53.6111071,9.8860712,03308320
8443551979,Schwäne,,,53.5748798,9.9796495,03303313
8443577117,Eselreiter,,,53.5741141,9.9806131,03303313
8446928898,Säule,,,53.4943361,10.2108841,06601601
8446928899,Rinder-Gruppe,,,53.4941797,10.2113615,06601601
8446961271,Doppeltor,,,53.4945962,10.2115761,06601601
8446970676,Gießkanne,,,53.4949225,10.2092627,06601601
8450896786,Blüte,,,53.6019604,10.180213,05518526
8451244947,Stele,,,53.5751075,10.1415443,05504512
8451244958,Wegweiser,,,53.5692431,10.1349454,05504512
8459128411,Mädchen mit Walkman,,,53.5542063,9.9491682,02201205
8459145618,Bärengruppe,,,53.5641651,9.9462734,02203209
8459145619,Bärengruppe,,,53.5640357,9.945823,02203209
8459145620,Ceres,,,53.563157,9.9478536,02203209
8459145621,Diana,,,53.5630424,9.947937,02203209
8459145622,Athena,,,53.5629304,9.9480101,02203209
8459145627,Zwei Jünglinge,,,53.5650347,9.9470967,02203209
8459145628,Frauenakt,,,53.564721,9.9472634,02203209
8462279948,Relief Palmaille,,,53.5464681,9.9365196,02201202
8462279978,Schneeleopard,,,53.5474428,9.9484353,02201202
8484101817,Tanzendes Vierländer Paar,,,53.4921304,10.2277384,06602603
8487368562,Läufergruppe,,,53.5753448,10.1276658,05504512
8487407701,Merkzeichen,,,53.5687111,10.1374251,05504512
8490286476,Blumenpflückerin,,,53.5576091,10.1066186,01112130
8490289432,Tiger,,,53.5625288,10.1039739,01111129
8492733598,Mädchen im Wind,,,53.5860211,10.1431321,05504512
8492733599,Schaukelnde Mädchen,,,53.5843437,10.1423281,05504512
8492987656,Summstein,,,53.5871268,10.1445785,05518526
8492987657,,,,53.5893606,10.142473,05518526
8493062698,Matthias Claudius,,,53.6085638,10.139886,05518526
8493062699,Sommerjunge,,,53.6011976,10.1278536,05506514
8493062700,Laufende Giraffe,,,53.6014721,10.1468175,05518526
8493063689,Fischotter mit zwei Jungtieren,,,53.6396887,10.1566645,05517525
8493063690,Flötenspieler,,,53.6399399,10.1569636,05517525
8493063691,Mädchen mit Gans,,,53.6401562,10.1572278,05517525
8493063692,Lautenspielerin,,,53.6260992,10.1668757,05518526
8493063693,Tanzpaar,,,53.6243876,10.1591174,05518526
8493978843,Großer Hirte,,,53.6504409,10.0763854,05511519
8494272217,Steinstele,,,53.643555,10.0344698,05512520
8494311818,"Windwort ""alles""",,,53.6310822,10.1785708,05518526
8494311835,"Windwort ""locker""",,,53.6314842,10.178837,05518526
8494311863,"Windwort ""u.s.w.""",,,53.6300941,10.1764458,05518526
8494434477,Sitzende,,,53.6526367,10.1714207,05517525
8494447690,Zwei Fußballspieler,,,53.4988343,10.0104509,01116136
8495052192,Torwart,,,53.4960601,10.0109428,01116136
8495265102,Zwei Fischotter,,,53.6074172,10.043297,04411430
8495282807,Stele,,,53.5924276,9.9351,03309321
8495282808,Schützende Mutter,,,53.597469,9.9223769,03309321
8495282809,Schräger Torso,,,53.5858642,9.9291898,03309321
8497880008,,,,53.5913101,10.0551788,04410426
8497887858,Schwertfisch,,,53.5182394,9.9245287,01119140
8498026506,Periskopisch,,,53.5517822,9.958091,01104110
8498091528,Möwenschwarm,,,53.527016,9.9976096,01117138
8498091529,Schwertfischträger,,,53.5271344,9.9975304,01117138
8498329864,Eliza,,,53.6492962,10.1637697,05517525
8499910754,Verkehrszeichen,,,53.5619882,10.1059963,01111129
8500244988,Hirschkuh mit Kalb,,,53.54501,10.0946733,01111129
8500278229,Bockspringen,,,53.5736574,10.1266453,05504512
8501258560,Geschichte Bergedorfs,,,53.4898496,10.1837048,06602602
8503446404,Reiher im Schilf,,,53.5780868,9.8319174,02212225
8503496018,,,,53.5458396,9.954947,02201201
8504552337,,,,53.608133,10.0482957,05508516
8508224932,Christophorus,,,53.572484,10.0353877,04408422
8554605725,Welle,,,53.5792986,10.0899428,05502508
8554605726,Wegweiser,,,53.5792297,10.0858374,05502508
8622806051,Festivalsommer Schleswig-Holstein,,,53.6864089,10.1724082,0
8622806052,Jetzt,,,53.6863966,10.1720068,0
8648976146,Das Gepräch,,,53.4675561,9.8602426,07714715
8657211907,Victoriasäule,,,53.6052758,10.1947119,05518526
8720131417,Lebensbaum,,,53.6109908,10.1753696,05518526
8725159297,Meteoritenwerkstatt,,,53.5703831,10.0009118,03302312
8734342340,Erlebnisstation Wald,,,53.6290754,10.1116618,05507515
8734342374,Bär,,,53.630416,10.1096521,05507515
8734342375,,,,53.6304276,10.1100537,05507515
8734342376,,,,53.6304045,10.1101,05507515
8734342377,,,,53.6304224,10.1100348,05507515
8734342378,,,,53.6304037,10.1100287,05507515
8737040307,,,,53.6289987,10.11184,05507515
8737040308,,,,53.6289773,10.1117442,05507515
8737040309,,,,53.6289777,10.1117934,05507515
8737040311,,,,53.6304378,10.1100956,05507515
8737040312,,,,53.6304546,10.1100127,05507515
8737040313,,,,53.6304275,10.1100906,05507515
8745148962,Frauenschicksal,,,53.5933202,10.0300798,04405409
8766289052,,,,53.6304264,10.1100746,05507515
8783669956,"Werden, Sein, Vergehen",,,53.6268081,10.0387237,04411430
8806294171,Eisbär,,,53.5927067,10.0290973,04405409
8814724157,Das Bienenhotel,,,53.5632379,9.979112,01104109
8828187108,Der sich leckende Gepard,,,53.4644103,9.9877901,07701702
8833572651,Kronenkranich,,,53.5931227,9.943831,03305317
8839132440,Himmelwärts,,,53.5945323,10.1530413,05518526
8839132441,Der Schwan,,,53.5945178,10.1530042,05518526
8839132442,Cristophorus,,,53.5942259,10.1536729,05518526
8839132443,Anker,,,53.5943489,10.1541933,05518526
8839132444,Dreimaster,,,53.592597,10.1544025,05518526
8839132445,Lebensweg,,,53.5944098,10.1546391,05518526
8839132446,Schmetterling,,,53.5948676,10.1531549,05518526
8881203168,Wachtelkönig im Nest,,,53.4790631,9.8451138,07714715
8891027840,Kurt Freiherr von Schleinitz,,,53.5821492,10.1303639,05504512
8891027841,Emil von Zelewski,,,53.5834506,10.1324854,05504512
8891027843,Militärsornamente,,,53.5833162,10.1316559,05504512
8891027844,Herrmann Wissmann,,,53.5826325,10.1320785,05504512
8891027845,Lothar von Trotha,,,53.5819854,10.1317755,05504512
8891027846,,,,53.5824008,10.1304807,05504512
8891027847,Friedrich Freiherr von Schele,,,53.5830405,10.1307341,05504512
8891027848,,,,53.5833096,10.1335557,05504512
8891027849,,,,53.5836731,10.1350592,05504512
8891027850,,,,53.583694,10.1361377,05504512
8891027851,,,,53.583513,10.1360523,05504512
8891027852,,,,53.5830508,10.1358511,05504512
8891027853,,,,53.5828075,10.1357518,05504512
8891027854,Reichsadlerornament,,,53.5829867,10.1325413,05504512
8899082771,Frosch,,,53.4795832,9.8454374,07714715
8902407848,Lettow Vorbeck,,,53.5828395,10.132174,05504512
8902407849,Kolonialdenkmal,,,53.58387,10.1340642,05504512
8904356602,Bojenmann,,,53.4890343,10.2093876,06602602
8916797453,Dem ollen urbanen,,,53.5768969,10.0007967,03303314
8974165350,,,,53.599674,9.9062907,03308320
9025311043,,,,53.7215607,9.9056568,0
9026502434,Pferd,,,53.4607621,9.9566568,07710711
9063103773,Keim,,,53.5718278,9.9925747,03302312
9067282404,Erste Begegnung,,,53.4867696,10.165531,06614615
9067282405,Stärke zeigen,,,53.4867007,10.1655115,06614615
9067282406,Twins,,,53.4866144,10.1654821,06614615
9067282407,Darin und Darum,,,53.4865289,10.165452,06614615
9067282408,Kommunikation,,,53.4869611,10.1656145,06614615
9164595713,Goethe als Schüler,,,53.597975,9.8921351,02208220
9206249866,St.Angsar,,,53.5442325,9.9897018,01102103
9206249867,Barbarossa,,,53.5442428,9.9898716,01102103
9206249868,Hammonia,,,53.5446254,9.989586,01101102
9206249869,Europa,,,53.544641,9.989757,01101102
9207307701,,,,53.5469386,9.9881942,01101102
9207367022,,,,53.5474508,9.9904818,01101102
9207367023,,,,53.5475415,9.9904749,01101102
9207367025,,,,53.547535,9.9917314,01101102
9207816454,,,,53.5575844,9.9626759,01104110
9207816455,,,,53.5576595,9.962402,01104110
9207816456,,,,53.5576012,9.962472,01104110
9207816459,,,,53.5576712,9.962359,01104110
9207816463,,,,53.5576903,9.9622428,01104110
9207816473,,,,53.5575273,9.9619173,01104110
9207816475,,,,53.5574912,9.9619624,01104110
9207816476,,,,53.5575118,9.9621275,01104110
9207816477,,,,53.557637,9.9621558,01104110
9207816478,,,,53.5533361,9.9578245,01104110
9207816479,,,,53.553222,9.958291,01104110
9207816485,,,,53.5533517,9.9564806,02201205
9207816486,,,,53.5533944,9.956437,02201205
9207816490,,,,53.5529545,9.956834,02201205
9207816491,,,,53.5528836,9.9564846,02201205
9207816492,,,,53.5530368,9.9562953,02201205
9207816497,,,,53.5530856,9.9560256,02201205
9207816498,,,,53.5531262,9.9559308,02201205
9207816499,,,,53.5530891,9.955992,02201205
9207976617,,,,53.5488364,9.9598436,01104112
9208240507,,,,53.548345,9.9592521,01104112
9208240508,,,,53.5474904,9.962675,01104112
9208240513,,,,53.5467575,9.9610284,01104112
9208240514,,,,53.5465974,9.9580293,01104112
9208240515,,,,53.5465742,9.9579153,01104112
9208240516,Palme,,,53.5463989,9.9579906,01104112
9208273518,Palme,,,53.5464366,9.9574946,02201201
9208273519,Palme,,,53.5462687,9.9571063,02201201
9208273520,Palme,,,53.5461583,9.9569953,02201201
9208273521,Palme,,,53.5461426,9.9569425,02201201
9208273522,,,,53.5465117,9.95825,01104112
9208273524,,,,53.5473924,9.9575532,01104112
9208273532,Pelikanbrunnen,,,53.5480319,9.9506991,02201201
9208576701,,,,53.5495127,9.9566123,01104112
9208576702,,,,53.5508393,9.9602756,01104111
9208576703,,,,53.5512835,9.9608221,01104111
9208576704,,,,53.5516632,9.9626488,01104111
9208576705,,,,53.5518868,9.9627237,01104111
9208576706,,,,53.5519922,9.9627587,01104111
9208576708,,,,53.5521307,9.9635276,01104111
9208576709,,,,53.5522026,9.9637395,01104111
9208576710,,,,53.5522057,9.9637169,01104111
9208576711,,,,53.5519012,9.9654107,01104111
9208576712,,,,53.5523423,9.9662749,01104111
9208576713,,,,53.552175,9.9664514,01104111
9208576714,,,,53.553816,9.9683676,01104111
9208576715,,,,53.5535046,9.9671328,01104111
9208586522,,,,53.553531,9.9661517,01104111
9208586523,,,,53.5536794,9.9677152,01104111
9208586524,,,,53.5538872,9.9680354,01104111
9208586525,,,,53.5538658,9.967904,01104111
9208586526,,,,53.5549416,9.9693787,01104111
9208586527,,,,53.554914,9.9694675,01104111
9208586528,,,,53.5548619,9.9696288,01104111
9208586536,,,,53.5562832,9.9785453,01103106
9208586540,,,,53.5557912,9.9785543,01103106
9209629190,,,,53.5552431,9.9781284,01103106
9209742875,,,,53.5512538,9.9822588,01103107
9209924184,,,,53.5535608,9.9927188,01103108
9209924188,,,,53.5504349,9.9974846,01101101
9223933982,Zwei Ringe,,,53.478284,9.8665143,07714715
9313264537,Edelstahlplastik,,,53.5322765,10.1542197,01112130
9321675744,Mutter mit tanzendem Kind,,,53.5457622,10.0945734,01111129
9321720107,Stele Maritim,,,53.6486997,10.1108618,05510518
9321724146,Friedensbaum,,,53.6529545,10.0882104,05511519
9321724147,Figuren für Mimir-Brunnen,,,53.6545131,10.0922764,05511519
9321731987,Stele,,,53.6669371,10.0779612,05511519
9322030397,ohne Titel,,,53.6874755,9.9875902,0
9322030398,Ohne Titel,,,53.7153506,9.9954142,0
9322052167,Ohne Titel,,,53.7148783,9.9952626,0
9322052168,Wabenstein,,,53.7077672,10.0061283,0
9322052169,Emmausweg,,,53.6789605,9.9716518,0
9322052170,Emmausweg,,,53.7006724,9.9862289,0
9322058595,Reitender Knabe,,,53.7063114,9.9793732,0
9322078860,Fischotter,,,53.708153,9.9913278,0
9322078865,Windspielobjekt,,,53.6889387,10.0260477,0
9322118097,Reptilienbrunnen,,,53.7069984,9.9929345,0
9322136430,Wegmarken,,,53.6851869,9.9889997,0
9323584713,Spielende Kinder,,,53.6390737,10.023863,05512520
9325714601,Sitzende,,,53.545518,10.1187301,01112130
9325731922,Luchs,,,53.5594457,10.1099244,01112130
9325731930,Kraniche,,,53.5538567,10.1078202,01112130
9325748630,Möwenflug,,,53.564442,10.12252,01112130
9325752161,Zirkusreiterin,,,53.5410621,10.0977901,01112130
9327559615,Knabe mit Hut,,,53.5328567,10.1531428,01112130
9327559616,Windmühle,,,53.5323203,10.1509555,01112130
9327647300,Radschlagende Kinder,,,53.5938365,10.0571787,04410428
9327647841,Spiegelbrunnen,,,53.5324622,10.15001,01112130
9327647842,Schwebende Pyramide,,,53.5320198,10.1499926,01112130
9327766666,Faun und Mädchen,,,53.5462555,10.1376115,01112130
9327792844,Spinnaker,,,53.5807214,10.1042797,05505513
9327793929,Ballspielende Jünglinge,,,53.5828445,10.0628355,04409425
9327793930,Tanzende Mädchen,,,53.5830595,10.0640023,04409425
9327893781,Ohne Titel,,,53.6351218,10.0565692,04411430
9327893782,Storch mit Kindern,,,53.6347266,10.0539929,04411430
9327893799,Balance,,,53.6435825,10.0727899,05509517
9327980756,Wildschaf,,,53.6350562,9.949244,03306318
9327980757,Wolf,,,53.6381851,9.9438581,03306318
9327980771,Luchs,,,53.6390844,9.9391327,03306318
9327987556,Sitzende,,,53.6228346,9.9374489,03306318
9328034177,Sitzende,,,53.6198326,9.9505006,03306318
9328034178,Mosesbrunnen,,,53.6203763,9.9499809,03306318
9328034179,Gefüge,,,53.6216486,9.9537377,03306318
9328034180,Der Hüter,,,53.624526,9.955926,03306318
9329791703,Katze,,,53.6199029,9.8992752,03308320
9329791704,Raumschleife,,,53.6196922,9.8998739,03308320
9329791712,Eidelstedter Löwe,,,53.6185086,9.9008194,03308320
9329832403,Raumgestaltung,,,53.6152362,9.9089726,03308320
9329832415,Drei Tanzende,,,53.6169665,9.908231,03308320
9330011789,Mümmelmann,,,53.5271686,10.1500195,01112130
9330011790,Mümmelmann,,,53.5276386,10.1497191,01112130
9330588384,Bobble III,,,53.6756503,10.1361041,05516524
9332925525,Die Bürger,,,53.5353269,9.8768793,01120141
9332925526,Die Bürger,,,53.5353982,9.8767948,01120141
9332948557,Rut und Rin,,,53.5075971,9.9259785,07712713
9368598306,Fest der Vögel,,,53.6502279,10.1826847,05517525
9373310606,Träumerin,,,53.5292354,10.3143194,0
9420250422,Männlicher Torso,,,53.5709787,10.0883527,05503511
9442673854,,,,53.6013152,10.020152,04405408
9445877291,Walross,,,53.4862236,10.2216385,06602603
9458607032,Kommunikation,,,53.607192,10.0170676,04405408
9458607033,OPD II,,,53.6060728,10.0173543,04405408
9458737097,OPD I,,,53.6041392,10.0170882,04405408
9503019501,Albis,,,53.4896626,10.2140551,06602602
9516520418,Global,,,53.6045179,10.0267662,04405408
9522837588,Fische (Tauchender Fisch),,,53.5547373,9.9608547,01104110
9648180691,Transformation eines Würfels,,,53.6013649,10.0167459,04405408
9682740564,Eisbär,,,53.5918585,10.0216179,04405409
9682740568,Knabe mit zwei Enten,,,53.5942115,10.0151775,04405409
9682740570,Weibliche Figur aus Eichenholz,,,53.5927038,10.015744,04405409
9682740574,Panther | Liegender Panther,,,53.5960119,10.0310238,04405409
9682740575,Taubenpaar,,,53.5954135,10.0280626,04405409
9682740591,ohne Titel | Wirbel,,,53.5935983,10.0281516,04405409
9689827017,,,,53.5580752,9.9691219,01104109
9720632599,Leuchtturm,,,53.5427638,10.0346181,01106117
9741444382,Flötenspieler,,,53.4828904,10.1983697,06602602
9764491218,Knabenrelief,,,53.5965343,10.0216204,04405409
9788972683,,,,53.5558609,9.959306,01104110
9820172246,,,,53.6620414,9.9012696,0
9836661164,Stigma,,,53.5499328,9.986227,01103108
9851356339,Und ewig schleppt die Frau,,,53.5396538,10.1035892,01112130
9882138088,Merkur,,,53.5240308,10.0525423,01114132
9897636366,,,,53.5896474,10.1094266,05505513
9897636367,,,,53.5895312,10.1093944,05505513
9897636368,,,,53.5894006,10.1093488,05505513
9897636369,,,,53.5897254,10.1089223,05505513
9897636370,,,,53.5898846,10.1088714,05505513
9906213446,,,,53.582142,9.9467458,03301301
9907483980,Adolf III. Statue,,,53.5481283,9.9923031,01101102
9929933195,Verbindungsobjekte,,,53.6204591,10.1298744,05506514
9977015899,Galionsfigur mit Schiff,,,53.4972981,10.0090249,01116136
9997688449,Mosaiksäule,,,53.5608866,10.1075388,01111129
10032370846,,,,53.7182656,10.0353456,0
10034958236,,,,53.7193115,10.0385468,0
10060855630,Fünf Objekte der Verbindung,,,53.5563773,9.9595103,01104110
10069230978,,,,53.5613937,9.9132564,02205216
10069230979,,,,53.5613963,9.9132212,02205216
10072580947,Allegorische Figur,,,53.5382825,10.1160559,01112130
10128805088,Trümmer-Bank,,,53.5560962,10.0459228,01108122
10141506873,Der Perfekte Handschlag,,,53.5628065,9.9879225,03302312
10158966291,,,,53.558964,9.9276616,02204211
10228406512,(Tanz und) Musik,,,53.5628046,9.9004027,02205216
10304791276,Knabe auf dem Pferd,,,53.5478217,9.9588826,01104112
10317069927,Motor,,,53.5417349,10.216163,0
10612350969,Sonnenuhr,,,53.7060605,9.9782816,0
10612350971,,,,53.6825599,10.0013573,0
10629937759,Denkmal für die sowjetischen Häftlinge,,,53.5413726,10.0470729,01114132
10685832910,,,,53.5204481,10.0073736,01117138
10706757357,Junge ruhende Sappho,,,53.5739318,9.9964716,03303313
10729446892,,,,53.5670329,9.9180563,02205216
10729869155,Guillotine,,,53.5104817,10.2346878,0
10729874328,Otter,,,53.5180413,10.2507672,0
10729874329,Otterbrunnen,,,53.5106029,10.2504795,0
10733072307,Gedankenflug,,,53.5646217,9.9844178,03302312
10733561818,Große Stehende,,,53.5713185,10.0004383,03302312
10734869772,Dreiklang,,,53.5701716,9.9998537,03302312
10745279033,Großer Kniender,,,53.5763991,9.9891951,03303313
10746257079,Möwengruppe,,,53.5761113,9.975429,03303313
10748939745,Brunnenschalen,,,53.5666939,9.986742,03302312
10748939746,Brunnenschalen,,,53.5670139,9.9867201,03302312
10772853680,Theorie in Hamburg,,,53.5646674,9.9863151,03302312
10775119140,Auditorium minimum,,,53.5699657,9.9904239,03302312
10775262257,Mutter mit drei Kindern,,,53.583027,10.0566457,04409424
10780426476,Lebensbaum,,,53.5091999,10.1856668,06601601
10780492039,Mutter und Kind,,,53.5026908,10.1971256,06601601
10780522737,Ringformation,,,53.5083529,10.2044329,06601601
10780541052,Bauarbeiter,,,53.5110847,10.2042905,06601601
10780560710,Fohlen,,,53.5108848,10.1978565,06601601
10780567090,Stelzenläufer,,,53.5107137,10.2017548,06601601
10780570946,Fuchs und Gans,,,53.5047357,10.203891,06601601
10780577850,Lebensbaum,,,53.5073745,10.1989084,06601601
10780581506,Mensch und Tier,,,53.5023816,10.2041171,06601601
10780584136,Lattenprojekt,,,53.495928,10.2056588,06601601
10780584137,Prelude auf Zeit,,,53.4956108,10.2057161,06601601
10780586114,Marktschreier,,,53.4953917,10.2072012,06601601
10783708353,Entlüftungsschornstein,,,53.5670824,9.9755132,03302311
10790718289,,,,53.5600244,10.0365536,01107120
10792145151,2-teilige Verspannung im Raum,,,53.5648019,9.9855078,03302312
10814387885,Senator,,,53.6034433,9.944985,03305317
10827595574,Crash,,,53.6732847,10.13253,05516524
10853096818,Achilleus,,,53.5786404,10.0039509,04405413
10860655268,Antilope,,,53.5945879,9.9486722,03305317
10908173364,Junges Mädchen,,,53.6005738,9.9253407,03309321
10908691088,Fischotter,,,53.582364,9.9437815,03309321
10908799394,Fächerplastik,,,53.596719,9.9184764,03309321
10911538481,Sibirischer Tiger,,,53.5905577,9.9369501,03309321
10918258262,Sitzelemente mit Tieren,,,53.5798226,9.9293104,03309321
10918262979,Januskopf,,,53.5985623,9.9199846,03309321
10918329128,Mutter und Kind,,,53.5793373,9.9327987,03309321
10943626685,Sitzender Knabe,,,53.566798,10.104295,05503511
10973844443,Bärengruppe,,,53.6129105,9.8795745,03308320
10997393819,Mahnmal „Verhörzelle“,,,53.5944779,9.9871457,04402403
11005901112,Schlangenbrunnen,,,53.5560408,10.0278465,01107120
11006285984,ohne Titel,,,53.5588942,9.9820946,01103106
11021696578,Eulenturm,,,53.6235403,9.9472332,03306318
11021699776,Farbenspiel,,,53.6236712,9.9466558,03306318
11021711201,Kind mit Kette,,,53.6230311,9.9465085,03306318
11032267166,Dreiergruppe,,,53.5556835,10.0215336,01105113
11035762299,Bauarbeiter,,,53.5515323,10.0155183,01105114
11035794739,Hamburger Figur,,,53.5515992,10.0162833,01105114
11037153045,Otto Sponholz,,,53.5659043,9.9607144,03301310
11039703104,Vögel im Nest,,,53.6204152,9.9528393,03306318
11049548414,Signale,,,53.6282718,9.9637174,03306318
11061327452,Knabe mit Gans,,,53.6181458,9.9499463,03306318
11070757540,Flötenspieler,,,53.5683695,9.9080981,02205216
11072745217,Symbol,,,53.5837247,9.9127294,02205215
11074523508,Musizierender,,,53.572531,9.907109,02205216
11076695777,Füchsin mit Jungen,,,53.5673287,9.89391,02205217
11081539155,Fünf Boßelkugeln,,,53.5477663,9.9780538,01103106
11121077290,Anna of Green,,,53.5037668,9.9766116,01116137
11158924339,Mufflonschaf,,,53.5929587,9.9991311,04405409
11160508085,Große Arethusa,,,53.6014825,10.0137533,04405408
11162518332,Bärengruppe,,,53.5838823,9.9738348,04401401
11162855176,,,,53.5623245,9.9126492,02205216
11162855178,,,,53.5621707,9.9126197,02205216
11169134133,Tanzende,,,53.59125,10.0145173,04405409
11189061493,Das Gespräch,,,53.6020188,10.0202125,04405408
11195958903,Mädchengruppe,,,53.6018004,10.011812,04405408
11195980586,Tastende Sitzende,,,53.5913359,10.0139853,04405409
11198083753,Liegende,,,53.550262,10.0958187,01111129
11198120934,Allegorische Figur,,,53.536372,10.1184745,01112130
11222709668,Zwei Kraniche,,,53.562802,9.9951597,03302312
11222709669,o.T. (Stele zum Thema Justiz),,,53.5627875,9.9949882,03302312
11224731921,Zeitstein,,,53.560127,9.8625476,02209221
11225461414,Reliefsäule,,,53.5821684,10.1114822,05505513
11225461415,Reliefsäule,,,53.5817608,10.1115304,05505513
11231039941,,,,53.5483266,9.8590087,02210222
11250567199,"Reliefs ""Schäfer"" und ""Vogelzug""",,,53.5813321,10.0576103,04409424
11250584685,Murmelstein,,,53.5874563,10.0673583,04409425
11255243343,Bodengestaltung,,,53.5809768,10.0577073,04409424
11261953759,Drachensegler,,,53.5891167,10.0725605,04409425
11284522192,Pferde,,,53.606728,10.0587946,05508516
11284526966,Sitzende,,,53.612501,10.0475806,05508516
11284534985,Skulptur,,,53.6123833,10.0606857,05508516
11297443387,Drei Skulpturen,,,53.5283669,10.1481671,01112130
11298428507,Zwei Marder,,,53.6579218,10.0706468,05511519
11300061448,,,,53.6098782,10.0352932,04411430
11300781567,Drei Skulpturen,,,53.5874589,10.070362,04409425
11337718959,Dear Uwe,,,53.5421146,10.0026708,01102104
11351392247,"Infosäule, Baumstamm, Steine",,,53.5882694,9.8605551,02209221
11355779319,View from studie window,,,53.5456462,9.9748285,01103105
11359734336,Eulenspiegel,,,53.5959965,9.8694215,02208220
11360305789,Liegender,,,53.5960301,9.8898114,02208220
11415031242,Große Liegende,,,53.6072189,10.119713,05506514
11416829490,ohne Titel,,,53.6077861,10.1204886,05506514
11427574816,Liegender Bär,,,53.5131833,9.990168,01116137
11427581932,Storchen-Gruppe,,,53.5019108,9.9958472,01116137
11427587175,Stele (Umarmung Mutter-Kind),,,53.5036782,9.9864121,01116137
11427592086,Lautenspieler,,,53.5109656,9.9906808,01116137
11427599285,"Hirte / Erde, Wasser, Luft",,,53.5113945,9.9915124,01116137
11435284997,Hockende,,,53.4949319,10.0097647,01116136
11435387339,Röhrenensemble,,,53.4855487,10.0226177,01116136
11443991576,,,,53.6162281,10.235165,0
11453287249,Kugelbaum Kirchdorf,,,53.4998413,10.0134243,01116136
11456177576,Vögel,,,53.6128454,10.1079732,05506514
11468833547,ohne Titel (Sieben Würfel),,,53.5581018,9.995431,03302312
11470436881,Sitzender Mann,,,53.5568385,10.0426428,01108121
11472648560,Stahlplastik 12/70,,,53.5538447,10.0288028,01107119
11482447995,Rieselbrunnen,,,53.5567002,10.0718263,01111129
11482535464,Bauarbeiter,,,53.5551235,10.0724401,01111129
11486848761,Robbe,,,53.5612102,10.0806242,01111129
11486868772,ohne Titel,,,53.5625278,10.0982675,01111129
11492679377,Sportpyramide,,,53.5556919,10.0702109,01111129
11499552647,Schreitendes Paar,,,53.5424155,10.0951642,01112130
11499624506,Tanzende Blumen,,,53.592053,9.9817672,04402403
11500364288,Liegende Mutter,,,53.5591437,10.0743287,01111129
11500480666,Brunnen-Skulptur,,,53.5512055,10.0813219,01111128
11500985028,hamburgo HD Cotterell,,,53.5291129,9.9738436,01118139
11505544734,Vogelbaum,,,53.5516993,10.0953503,01111129
11523352325,Elefant Anton,,,53.5545337,9.9793351,01103106
11540194859,St. Bonifatius hält Ausschau,,,53.5046878,9.985985,01116137
11540292276,St. Bonifatius mit Schriftrolle,,,53.5047461,9.9858944,01116137
11540296750,Boot (Figurengruppe St. Bonifatius),,,53.5045471,9.986022,01116137
11540318154,St. Bonifatius verzweifelt,,,53.5044925,9.9856951,01116137
11548179140,,,,53.6077136,10.1151018,05506514
11553792776,ohne Titel (drei Glasfenster),,,53.5553829,10.0700212,01111129
11582716821,Sitzende,,,53.5375315,10.107165,01112130
11584371233,,,,53.5608428,9.9896131,03302312
11587877773,Direktor (Herrentasche),,,53.551158,10.0030116,01101101
11605039258,Spielende Kinder,,,53.5627931,10.1123902,01112130
11608795801,Große Sonnenstele,,,53.5344707,10.1314441,01112130
11608817838,Mähnenrobbe,,,53.5365209,10.1268417,01112130
11608826467,Spielende Bären,,,53.5320767,10.1199355,01112130
11608827556,Gruppe der fünf Sitzenden,,,53.534271,10.132491,01112130
11608829436,Geburt der Temperamente,,,53.5247732,10.154302,01112130
11640691170,Plastik mit Kinderzeichnungen,,,53.5392931,10.1276351,01112130
11732334660,Jinas Beet,,,53.5981379,9.9945034,04405409
11738287422,Arche Noah,,,53.5715898,10.1325518,05504512
11738289397,Drehbare Plastik,,,53.5767774,10.1452639,05504512
11738300021,Mutter mit Kind,,,53.5716121,10.1322107,05504512
11738300067,Merkzeichen,,,53.5693461,10.138083,05504512
11738328819,Mädchen mit Schirm,,,53.577788,10.1339479,05504512
11738340136,Stehendes Mädchen,,,53.5704395,10.1310452,05504512
11738384375,Lebensfluss (zwei Reliefs),,,53.5767602,10.1360245,05504512
11738384376,Lebensfluss,,,53.5768925,10.1351188,05504512
11748182065,ohne Titel,,,53.5672528,10.10896,05504512
11764136381,,,,53.6664769,9.9992713,04413432
11764794534,Freie Form,,,53.5895873,9.9835248,04402403
11766090253,Vier Jahreszeiten,,,53.5885296,9.9835142,04402403
11768371094,Sich Erhebende,,,53.5902064,9.984841,04402403
11768806474,Hegholt (Baum),,,53.6062124,10.0815787,05507515
11773869627,Rangelnde Jungen,,,53.598911,10.0931234,05507515
11773900336,Tiger,,,53.5997542,10.056005,05507515
11773919295,Liegendes Paar,,,53.60473,10.0850044,05507515
11773919508,Drehbare Plastik,,,53.5987683,10.092551,05507515
11773932084,Reiherkampf,,,53.6147389,10.077024,05507515
11773955775,Doppelfigur,,,53.6133376,10.0833647,05507515
11775012502,Stehender Jüngling,,,53.6135535,10.0740144,05507515
11775021896,Stehende,,,53.5980846,10.0954595,05507515
11775107949,Panflötenspieler,,,53.5765295,10.1343081,05504512
11776423974,Wo ist eigentlich Hamburg-Fuhlsbüttel?,,,53.5757054,10.1253595,05504512
11799219564,Mosaikfenster,,,53.6160407,10.0920941,05507515
11799502593,Hans im Glück,,,53.6303838,10.0861722,05507515
11799620805,Rummelpott,,,53.6317282,10.0857077,05507515
11800366719,Sitzendes Mädchen,,,53.6210711,10.0934554,05507515
11801412450,Zwei tanzende Mädchen,,,53.6237466,10.0910655,05507515
11806615382,Objekt 84,,,53.6195183,10.1283153,05506514
11806667657,Masken-Stele,,,53.6198333,10.1284757,05506514
11806701331,Picknick,,,53.6192596,10.1282253,05506514
11813295334,Gitarrenspielerin,,,53.5738982,10.066097,05502505
11815077097,Vogel-Relief,,,53.5738564,9.8570347,02209221
11816309543,Mädchen mit Buch,,,53.5669278,9.8703216,02206218
11816971724,Angreifender Tiger,,,53.5702586,10.10922,05504512
11824638926,Helmut-Schmidt-Büste,,,53.5689643,10.1095849,05504512
11829871756,o.T.,,,53.4907451,10.2071463,06601601
11829952671,Löwin,,,53.4898234,10.2118455,06602602
11835177106,Schimpansen,,,53.6341644,10.0136333,04412431
11835191084,Ziegenbock,,,53.6283097,10.0175133,04412431
11836748407,Pflanzenhaus,,,53.6152,10.020404,04404407
11863026912,Knabe mit Flugzeug,,,53.5122579,9.9939024,01116137
11863061149,Rettung einer Familie,,,53.5046888,9.9963987,01116137
11866674209,,,,53.5475744,9.9000914,02207219
11879145122,Fohlengruppe,,,53.4829522,10.0149256,01116136
11879180187,Granitstele,,,53.4839299,10.0245331,01116136
11879184413,Hammonia,,,53.4837357,10.0265117,01116135
11889579667,Windspiel,,,53.4900959,10.1733034,06602602
11889656886,Romeo und Julia,,,53.489654,10.1793039,06602602
11891116631,Flötenspieler und Tänzerin,,,53.6259283,10.0162742,04412431
11893285464,Eule,,,53.587366,10.0830476,05502509
11893289066,Große Lauschende,,,53.5749073,10.0692403,05502507
11893304635,Ziegen mit Mädchen,,,53.5934142,10.0918725,05502509
11893305606,Im Gleichgewicht,,,53.5932054,10.0913449,05502509
11893335099,Kleiner Schnabelkeimling,,,53.5891396,10.0983965,05502509
11895157369,Jungfrau,,,53.5011033,10.1945148,06601601
11895212078,Zwei Füchse,,,53.5022058,10.1947739,06601601
11895221934,Gänse,,,53.5020559,10.1951548,06601601
11896748138,Spielplastik,,,53.5891861,10.0740602,04409425
11919285001,Sitzender Knabe,,,53.5805072,10.0711902,05502506
11919319383,Raubkatze,,,53.580545,10.0712329,05502506
11919411549,Blaue Hose,,,53.5748726,10.0556712,04408423
11921663611,Große Panthea,,,53.6238146,10.0177959,04412431
11930361784,,,,53.4975276,10.0079095,01116136
11930745640,Schimpanse,,,53.5673947,10.0558767,05501504
11933316107,Mutter mit Kind,,,53.571319,10.0476298,05501502
11934356940,Entengruppe,,,53.5725554,10.0549169,05501504
11939007579,Abendstunde,,,53.5973042,10.0373668,04410428
11939372361,Mutter und Kind,,,53.5894404,10.0861491,05502509
11963911264,Löwe,,,53.5715877,10.0661467,05502505
11963911265,Löwe,,,53.5715304,10.0661794,05502505
11974813324,Besinnungslosigkeit,,,53.5638014,9.9934509,03302312
11974819069,Auf der Suche nach dem Echten,,,53.5618338,9.9939492,03302312
11976159454,Iduna,,,53.5675255,10.0008703,03302312
11978042646,Quint,,,53.5692148,9.9926121,03302312
11979111013,Hier sollten Rosen blühen,,,53.563679,9.9921931,03302312
11981000405,"Relief (Herstellung, Lagerung und Transport von Mineralöl)",,,53.5596662,9.9958016,03302312
11982743121,Stele mit Reichsadler,,,53.5703805,10.1061993,05504512
11983831682,Zwei Liebende,,,53.5676448,9.992471,03302312
11985297959,,,,53.5460086,9.9430078,02201202
11985563469,,,,53.5621231,9.9161505,02205216
11990483751,Respekt,,,53.5680882,9.9888947,03302312
11993650588,Spirale mit Tieren,,,53.4849084,10.1769721,06614615
12023005436,Tonne,,,53.5402177,9.8546338,01120141
12023005437,Schiffschraube,,,53.5403694,9.854127,01120141
12029511119,Buchobjekt,,,53.5717638,10.0807231,05502507
12041880197,,,,53.5609117,9.9171303,02205216
12053854959,Bronzebaum,,,53.4843228,10.196589,06602602
12053895556,Zwei Ringe,,,53.4836235,10.1960362,06602602
12059163940,Sei wachsam,,,53.4825297,10.1647238,06614615
12062556950,Titanic,,,53.4806184,10.1717352,06614615
12065718883,Vogel-Relief,,,53.4860869,10.1794916,06614615
12066768112,Flieger,,,53.4859807,10.1611786,06614615
12068301923,Zuversicht,,,53.4868374,10.1655978,06614615
12073904269,,,,53.5455822,9.9438941,02201202
12078139596,Faltelemente,,,53.4836066,10.1760275,06614615
12078139597,Faltelemente,,,53.4836925,10.1761378,06614615
12079142358,Hockende,,,53.4852241,10.1783559,06614615
12079155785,Schäfer,,,53.4872795,10.1771707,06614615
12079158175,Knieende,,,53.4796713,10.1711596,06614615
12079160584,Vierländerin,,,53.4802992,10.1688054,06614615
12079176896,Stier,,,53.4807576,10.1676059,06614615
12079601265,Blumen,,,53.4845293,10.1795461,06614615
12079601266,Zwei Figuren,,,53.4905264,10.1574037,06610611
12079628868,Blumen,,,53.4847209,10.1795172,06614615
12079660769,Blumen,,,53.4846626,10.179593,06614615
12115620107,,,,53.5552584,9.9426865,02201204
12133729763,Biber,,,53.4911101,10.1811333,06602602
12135291825,Allermöher Wand,,,53.4901585,10.1587844,06610611
12135291826,Allermöher Wand,,,53.4901886,10.1584364,06610611
12174500646,,,,53.5697345,10.0100798,04406414
12174500647,,,,53.5592101,10.0084494,01105113
12174500651,,,,53.5727986,10.0024362,03302312
12174500652,,,,53.5730713,10.0023088,03302312
12179085654,,,,53.5889068,9.938556,03309321
12184094849,,,,53.5549513,9.9419559,02201204
12193007680,Lautenspieler,,,53.5313901,10.0541651,01114132
12193012061,Neptun mit Nixen,,,53.5314639,10.0531534,01114132
12193030900,Streetview,,,53.5353628,10.0378322,01114133
12193041518,Tänzerinnen,,,53.5342917,10.0394394,01114133
12193043587,Identität,,,53.5342062,10.0384867,01114133
12193047301,Sitzendes Mädchen,,,53.5360538,10.0400027,01114133
12193070243,Kinder-Baukasten,,,53.5345417,10.0449018,01114132
12209164544,Die Zeitalter des Christianeum,,,53.5582081,9.8730503,02207219
12211786191,Das Gespräch,,,53.5539904,9.8762044,02207219
12216626697,Schipper Jonny,,,53.5334656,10.0388739,01114133
12217516134,Steintor,,,53.5299793,10.0453775,01114132
12222358389,Hahn,,,53.5609904,9.9276016,02205215
12222369439,Tanzende,,,53.5602094,9.9274404,02205215
12222371472,Im Schatten meiner Seele,,,53.5611127,9.9273255,02205215
12222382101,Erde,,,53.5614339,9.9274157,02205215
12222383334,Lux Aeterna,,,53.5616308,9.9266045,02205215
12232372470,ohne Titel,,,53.5391536,10.0616933,01114132
12236055522,Säulen der Begegnung,,,53.6668839,10.1575349,05517525
12248443743,Bärengruppe,,,53.5699622,10.0651476,05503510
12263166945,,,,53.4592343,9.9792787,07701701
12263166954,,,,53.4591721,9.980091,07701701
12270948424,Friedrich von Esmarch,,,53.5822931,10.1120831,05505513
12271470137,ohne Titel,,,53.4554966,9.9514371,07709710
12271477731,Mutter mit Kind,,,53.4573524,9.9592177,07709710
12271479216,Torbogen,,,53.4570508,9.9443721,07709710
12271498233,Drei Generationen,,,53.453675,9.9589732,07709710
12287539845,Raumstele,,,53.4990276,9.8875869,07711712
12288466893,Hauszeichen,,,53.5900216,10.1088528,05505513
12294053414,Zwei Kinder,,,53.4716514,9.8590375,07714715
12296468446,Fünf Reiher,,,53.4727858,9.8706658,07714715
12298923859,Unendlich,,,53.4711628,9.9069013,07713714
12299493022,Liegende Ruhe,,,53.472567,9.8580438,07714715
12299506752,Mutter mit Kind,,,53.4755818,9.8801632,07713714
12299862261,Wandgestaltung,,,53.4753015,9.8753543,07713714
12300027801,Vier Jahreszeiten,,,53.4747096,9.8742626,07714715
12301798695,Bärengruppe,,,53.4738972,9.8744326,07713714
12301835173,Fischotter,,,53.4740259,9.8694759,07714715
12304312156,Frosch und Fisch,,,53.4691784,9.8407393,07714715
12304651968,Untitled History,,,53.5492215,9.9709862,01103106
12305032467,Zwei Charakterstämme in Umarmung,,,53.5790348,9.9967457,03303314
12311684003,Läufergruppe,,,53.4698113,9.8638377,07714715
12328995162,Turm der Vögel,,,53.4404749,9.9609016,07708709
12345568245,Obelisk,,,53.4690089,9.961887,07710711
12348982230,Trichter des Lebens,,,53.4690414,9.9563286,07710711
12386803711,Sphinx,,,53.4687564,9.9556695,07710711
12386814663,Zwei,,,53.4603655,9.9496943,07710711
12441566061,Möwen,,,53.5718855,9.9742618,03301309
12442362180,Kindliche Motive,,,53.5725486,9.9692618,03301309
12514806572,Deutsch Ostafrika Ehrenmal,,,53.5315748,10.3143327,0
12549418078,Zwei Flamingos,,,53.5722336,9.9476946,03301304
12591592093,Drei Sturmvögel,,,53.472836,9.8190121,07714715
12592913309,Fünf Mädchen auf der Bank,,,53.4647358,9.8617379,07714715
12606837320,,,,53.5815352,9.9463324,03301301
12610097548,,,,53.5812362,9.9464987,03301301
12628822433,Tropfenförmige Plastik,,,53.5543433,9.9004527,02207219
12630434140,,,,53.4688956,9.9395246,07710711
12650811608,Esel,,,53.5799708,9.8128075,02212225
12650817982,Schüler und Schülerin,,,53.5802503,9.8128498,02212225
12652109819,Spare in der Zeit,,,53.5541723,9.939679,02203210
12699400090,,,,53.5515571,9.9374226,02201203
12714163015,Sportfiguren,,,53.5716049,9.9465993,03301304
12752566061,,,,53.5481701,9.992237,01101102
12759273177,Nashorn,,,53.5440384,9.9170133,02204214
12760000453,Kniende,,,53.555347,10.0233989,01105113
12768978365,,,,53.5542206,9.9397763,02203210
12800615025,,,,53.4746554,9.8282407,07714715
12827696630,Große Panthea,,,53.5562633,10.0441397,01108122
12873562819,Eulenbaum,,,53.5601218,10.0562412,01108123
12876602975,,,,53.5604362,9.912419,02205216
12911177456,,,,53.7239545,9.9144458,0
12915190616,,,,53.5146416,9.9840063,01116137
12941096375,Betonguss,,,53.7172167,10.0031229,0
12941273273,Brunnenskulptur,,,53.7324432,9.8993582,0
