id,name,street,zip_code,lat,lon,geojson_feature_id
156787632,,Möllner Landstraße 49,22111,53.5389053,10.1093713,01112130
197664518,Postbank Filiale,Hagener Allee 20-24,22926,53.6713126,10.2384841,0
205328450,,,,53.5646706,9.9411507,02203209
267000743,,,,53.6452018,10.1676902,05517525
269239325,DHL,Frohmestraße 41,22457,53.6330583,9.9207626,03307319
270469968,Poststelle,,,53.5749704,9.8782096,02205217
276753175,,,,53.5918753,9.8726878,02208220
282876989,Deutsche Post,Poppenbüttler Hauptstraße 14,22399,53.6623829,10.0875834,05511519
289801815,,Tempowerkring 6,21079,53.473522,9.9327809,07710711
297260128,Kiosk 22,,,53.5364386,10.0333794,01114133
309829938,,,,53.5423021,10.1658232,0
310933578,,,,53.6312672,10.0061518,04412431
313300396,Uhland-Shop,Graumannsweg 75,22087,53.5643532,10.023806,04407416
365343152,Post Filiale 516,Veringstraße 42,,53.514487,9.9873941,01116137
365997905,,Hauptstraße 38h,22885,53.5689969,10.1638463,0
389384644,,Dithmarscher Straße 21,22049,53.5779369,10.059769,04409424
403415522,,,,53.5993446,9.8283435,0
428178754,Post Office,,,53.4870438,10.1802865,06614615
476565554,Deutsche Post,,,53.7074445,10.1091306,05514522
485812156,DHL-Shop,Hamburger Straße 108,22949,53.6784828,10.1459995,0
518514483,DHL,,,53.4241835,10.2953909,0
527370667,Stüffel Shop Lotto + Postshop,Stüffeleck 6,22359,53.669874,10.1430721,05516524
562824801,,,,53.468906,10.2798591,0
601146210,,,,53.570892,10.0659741,05503510
601367610,Post-Filiale Tibarg,,,53.6225859,9.9525857,03306318
626112086,DHL,Berner Heerweg 401,22159,53.6272158,10.1387182,05506514
653878370,Post Agentur im Lottoladen,,,53.5505239,10.0780935,01111128
675950962,Deutsche Post Partnerfiliale 632,Tornberg 41,22337,53.6332062,10.0546111,04411430
693894068,,,,53.673397,10.1258917,05516524
700194452,Deutsche Post,Tegelsbarg 39,22399,53.654669,10.0609141,05512520
710835804,Postagentur,,,53.5984137,10.0928021,05507515
710884158,Postfiliale 581,Hohnerkamp 87a,22175,53.6257385,10.0917859,05507515
745105568,,,,53.7304093,10.0956075,0
809417379,AIRBUS Postservice,,,53.5448788,9.8372615,01120141
945904723,Hammer Post,Carl-Petersen-Straße 107,20535,53.5576855,10.0513624,01108122
1051695304,,,,53.4111504,9.9884135,0
1134204356,,,,53.6548766,10.1750644,05517525
1216588645,Postagentur,Bürgerweide 63,20535,53.558493,10.0359595,01107120
1311610574,,Hauptstraße 9,21465,53.4928647,10.2523779,0
1313996192,,,,53.6310283,9.8721041,0
1315331835,,,,53.5552769,10.0417371,01108124
1334359105,,Wedeler Landstraße 54,22559,53.5823037,9.7547574,02214227
1343843518,,,,53.6067913,10.1752913,05518526
1367546906,Postfiliale Norderstedt Mitte,,,53.7067128,9.9918704,0
1370390528,,,,53.4495331,9.9383997,07709710
1370390580,DHL,,,53.449704,9.9367341,07709710
1417019959,DHL,Lübecker Straße 87,22087,53.5613534,10.0308012,04407417
1545612397,Post-Filiale,,,53.4478319,10.075899,0
1567834436,Geschäftspostannahme,Altonaer Poststraße 11,22767,53.5510678,9.9404359,02201203
1577044266,Postshop am Hofweg,,,53.572953,10.0149508,04406414
1675596756,Dit und Dat ums Blatt,,,53.6347588,9.8415081,0
1706751167,Hermes PaketShop,Seevestraße 1,21220,53.396283,10.04045,0
1725784613,,,,53.5219586,10.2313176,0
1747596998,Deutsche Post,,,53.5457294,10.0033018,01102103
1843291199,DHL Shop,,,53.3952004,10.0392465,0
1859082889,Sarrin Markt,,,53.5827103,9.9484123,03305317
1860602738,Postfiliale,Rudolf-Klug-Weg 7-9,22455,53.6405473,9.947445,03306318
2077224115,Kiosk Nord,Ratsmühlendamm 31,22335,53.6261873,10.0240659,04411430
2119665786,Manshardt-Post-Shop,Manshardtstraße 109,22119,53.5591764,10.1062584,01111129
2151596412,mcmeyersworld GmbH,,,53.5514179,9.9816507,01103107
2197318671,,Eichenallee 3a,21521,53.5200501,10.2782258,0
2278248224,,,,53.5733458,9.8475865,02209221
2296483628,,,,53.7092643,10.0185967,0
2314745862,DHL Shop,,,53.4476094,10.2302163,06603604
2314745913,,,,53.4076346,10.1785301,06606607
2314745956,,,,53.4968424,10.0808951,06612613
2330745715,DHL-Shop,,,53.5393644,10.1033801,01112130
2372770569,DHL-Shop,,,53.436778,10.1986961,06606607
2388979338,,,,53.6013442,10.1823165,05518526
2400315805,Postshop & Kiosk Langenhorn Markt,Tangstedter Landstraße 30,22415,53.6478619,10.0157362,04413432
2482940714,Kiosk,,,53.5631932,10.0610784,01108123
2489155936,DHL,,,53.5584393,10.0123805,01105113
2490292545,,,,53.6549542,10.2354206,0
2510960069,,,,53.6866992,10.0933233,05513521
2515960440,DHL Paketshop,,,53.682969,10.0316336,0
2615623600,,,,53.4357778,9.9787803,07708709
2688622376,XXL Kiosk,,,53.5816903,9.9716753,03304315
2688622377,Kiosk am Klosterstern,,,53.5817935,9.9875005,03303314
2694292663,Dreifke,Sieker Landstraße 129,22927,53.6523645,10.2651456,0
2717405981,DHL,,,53.5523609,9.9857763,01103108
2804643315,Lotto,Mendelstraße 26b,21031,53.5088083,10.1860363,06601601
2807265165,LOTTO,,,53.5036315,10.2123442,06601601
2810153774,,,,53.542143,10.2130832,0
2812326401,,,,53.5150552,9.7934497,07716717
2883679501,E. Tek Tabakwaren,,,53.5771277,9.9420654,03301304
2899978189,Postfiliale 596,Harksheider Weg 107,25451,53.7269277,9.9146343,0
2946606169,DHL,,,53.5387378,10.1224533,01112130
2953430556,Kannemann,,,53.5852348,10.0258196,04405411
2995521334,Tobacco & More - DHL,Osterfeldstraße 30,22529,53.5990917,9.9736297,04402405
3007746155,Mümmelmannsberger Postshop,Feiningerstraße 4,22115,53.5292662,10.1486492,01112130
3009499611,,,,53.6533844,9.7917207,0
3039304140,Deutsche Post Filiale,,,53.4652687,10.3095513,0
3069741112,DHL Paketshop 596,Walter-Jungleib-Straße 18,22457,53.64679,9.9093482,03307319
3076523673,Hermes Paketshop,,,53.5521173,10.0122771,01105114
3096116388,Eck Getränkemarkt,,,53.5817624,9.9390595,03301301
3258396611,DPD,Grindelallee 37,20146,53.5660467,9.9817428,03302311
3300106755,Deutsche Post,Wilhelm-Strauß-Weg 6-10,21109,53.4984346,10.0098765,01116136
3369728012,,,,53.5676953,10.1642384,0
3416626893,,,,53.6762171,9.8437564,0
3507175022,Poststelle shop2go,Martinistraße 52,20251,53.5904353,9.9744421,04402403
3527106255,DHL,,,53.4843703,10.2276551,06602603
3529378493,DHL,,,53.5113642,10.2352801,0
3557224794,Post-Shop,Möllner Landstraße 24,21465,53.5518443,10.2484793,0
3557793816,,,,53.5298413,10.314688,0
3710972194,Hermes Paketshop,,,53.6320394,10.0261224,04412431
3714001984,Postfiliale Kummerfeld,Dorfstraße 1,25495,53.6929161,9.7914757,0
3855917299,DHL,,,53.6321688,10.0057826,04412431
3870550586,,Segeberger Chaussee 74A,22850,53.6827696,10.0108895,0
4018699321,,,,53.5507053,10.0839539,01111128
4032288396,Oase,Kirchdorfer Damm 3,21109,53.4849414,10.0194416,01116136
4074237100,Hermes,,,53.5874955,10.1050149,05505513
4085476569,DHL,,,53.5865719,10.1265578,05505513
4085704662,DHL,,,53.5909366,10.1611646,05518526
4100646323,DHL,,,53.5696572,9.8619562,02209221
4159005990,DPD Paketshop,Siebentunnelweg 18,,53.6150363,9.8648788,0
4182172177,,,,53.4890657,10.1587033,06614615
4186831602,Brandener Hof,,,53.6172681,9.8182369,0
4218289301,,,,53.6951725,10.1372927,05515523
4349053128,Hermes Paketshop,Traberweg 2,22159,53.5978155,10.1018857,05506514
4353265851,GLS-Paketshop,,,53.6375132,10.062436,05509517
4360041729,,,,53.5846124,10.0667145,04409425
4360041730,DHL,,,53.5867375,10.0647928,04409425
4415790989,Hermes Paketshop,Feiningerstraße 20,22115,53.528412,10.148631,01112130
4417185089,Postfiliale / Kiosk,Hummelsbüttler Hauptstraße 55,22339,53.6414988,10.0373401,05512520
4581541197,Schanzenpost,Bartelsstraße 26,20357,53.5623353,9.9645441,02202207
4614589779,Postfiliale im Kiosk,,,53.5690199,10.0585452,05501504
4681566881,,,,53.4384645,9.9583268,07708709
4723293937,DHL-Paketshop,,,53.5728108,10.0913473,05503511
4725761215,DHL,,,53.5595903,10.0807486,01111129
4745943898,,,,53.6696131,9.7883029,0
4749119153,DHL,,,53.5857747,10.0650367,04409425
4756973324,,,,53.6792072,10.2596746,0
4777553768,DPD Paketshop,,,53.5801048,10.08142,05502506
4792367563,DHL,Möllner Landstraße 242,22117,53.5423603,10.1406209,01112130
4806631165,Hermes Paketshop,Alsterkrugchaussee 603,22335,53.6327482,10.015031,04412431
4828444061,Hermes-Paketshop,,,53.6477599,10.008487,04413432
4831129600,Postfiliale 512,Bahnhofstraße 57,25451,53.7313703,9.9032713,0
4846569358,Hermes Paketshop,,,53.7190441,9.9983682,0
5186803223,Horner Postshop,,,53.5540836,10.0857949,01111129
5434372832,,,,53.5724295,10.0295968,04408420
5453729486,Postfiliale 510,Mexikoring 33,22297,53.6044815,10.0229557,04405408
5471797389,DHL,,,53.4833467,10.1751202,06614615
5471797391,DHL,,,53.4957272,10.1796517,06602602
5474321520,DHL,,,53.4771843,10.1877933,06602602
5484601317,KopieKeller,St. Georgstraße 8,20099,53.5563217,10.0068014,01105114
5596546143,Deutsche Post,,,53.525079,10.0203356,01115134
5601353799,DHL Station,,,53.5422703,9.997678,01102103
5635906554,Hermes Paketshop,,,53.6349012,9.8387933,0
5695511787,Postfiliale,Poppenbütteler Straße 176,22851,53.6937622,10.0271467,0
5709704331,Tabak & Konsorten,,,53.4609341,9.9795172,07701702
5775901821,Büro-Packbedarf & Kiosk,Ulzburger Straße 575,22844,53.7304859,9.9966348,0
5906600466,,,,53.6086194,9.8435549,0
5912448388,DHL PacketShop,Neuwiedenthaler Straße 147,21147,53.4782097,9.8906049,07713714
5966982464,Hermes Paketshop,,,53.6416823,10.0813092,05509517
5980075928,Famila,Eichenlohweg 17,22309,53.6087497,10.043223,04411430
5998751886,DHL,,,53.6056201,10.0402098,04410429
6013090146,Hermes PaketShop Kiosk 23,,,53.4609841,9.9754103,07701701
6019666626,Postfiliale 564,Rümkerstraße 31a,,53.6023298,10.0498668,04410429
6047656183,DHL,,,53.5707802,10.1230994,05504512
6131143685,UPS Access Point Heimfelder Markt,,,53.4634395,9.9671161,07701701
6184876401,GLS-Paketshop,,,53.6590652,10.0030606,04413432
6239951472,Hermes Paketshop,,,53.7048797,10.0081169,0
6295109092,Hermes PaketShop,Neuwiedenthaler Straße 131,21147,53.4784763,9.8872051,07713714
6331984133,,Immenhöven 1,22417,53.6612527,10.0178046,04413432
6448351038,Kiosk 23,,,53.4642664,9.9655481,07710711
6476770735,DHL,Max-Brauer-Allee 271,22769,53.5633612,9.958749,02203208
6476774435,DHL Filiale 571,Holstenstraße 174,22765,53.559921,9.9483123,02203210
6501530487,Hermes Paketshop,,22297,53.6181659,10.0037316,04403406
6715447903,UPS Paketshop,,,53.5865671,9.9082302,02205215
6960611230,DHL Zustellbasis,,,53.7064225,10.0072655,0
6984705082,Backshop - Postfiliale 453,,,53.5471695,10.0552376,01108127
7069356805,Postfiliale 791 im Kiosk,,,53.6325418,10.026252,04412431
7133081662,Deutsche Post Hasloh,,,53.6916237,9.9197236,0
7235489142,Lotto,,,53.5137845,10.2114043,06601601
7432379668,Supreme Kiosk,,,53.5477304,9.9743387,01103106
7627039962,Milka´s Laden,,,53.4549256,9.9761434,07709710
7627156824,Vitamin-Ecke,,,53.4568418,9.9690247,07709710
7633359485,DHL-Paketshop,Eimsbütteler Straße 98,,53.5683213,9.9509639,02203209
7666762525,Hermes-Paketshop,,,53.6749172,10.0260709,04413432
7704999826,Hermes DB Service Store,,,53.5618906,9.9487549,02201206
7803371457,La. Gabriel Kiosk,,,53.470986,9.9686878,07710711
7923848477,Smart Corner,,,53.5575948,10.0108704,01105114
7972777339,,,,53.4226955,10.0243713,0
8518374808,Hermes-Paketshop,,,53.5690854,10.1746769,0
8564447784,Deutsche Post Filiale 518,Kieler Straße 114,25474,53.66681,9.9037044,0
8592769360,UPS Access Point,Werner-Siemens-Straße 30,22113,53.5302678,10.0902042,01113131
8688492371,DHL Paketshop 441,Bramfelder Chaussee 321,22177,53.6186146,10.0794549,05507515
8870268647,DHL,Rugenbarg 19,22848,53.6723259,9.9875938,0
8878518734,DHL,Ulzburger Straße 332,22846,53.7158727,10.0003322,0
8878518736,DHL Paketshop,Rathausallee 12b,22846,53.7069295,9.9956623,0
8893649144,DHL Paketshop 425,Kieler Straße 55,25451,53.7281801,9.8978576,0
8893649145,DHL Paketshop,Feldbehnstraße 35,25451,53.7326189,9.9057652,0
8897250500,Hermes Beimoorweg,,,53.6798031,10.252429,0
8920588590,Hermes Paketshop,Güttloh 5-9,25451,53.721463,9.9018312,0
9021963456,Wandsbeker Postshop,Friedrich-Ebert-Damm 160A,22047,53.5885063,10.099449,05505513
9062628844,Hermes Paketshop,Ellerbeker Straße 17,25474,53.6631077,9.9028668,0
9472807832,,,,53.4778194,9.8722035,07714715
9635662927,,Flughafenstraße 87,22415,53.6404254,10.0197175,04413432
9803566789,Postfiliale 472,Lokstedter Steindamm 42,22529,53.5930654,9.9664516,03305317
9967398825,Kiosk Rosi und Postfiliale 708,Peterskampweg 51,,53.5642307,10.0516713,05501503
10061969210,,Bahnhofstraße 6b,21465,53.5093164,10.2517719,0
10065267841,DHL-Paketshop 493,,,53.7246934,9.9166731,0
10068915527,Postfiliale 548,Am Tarpenufer 3-5,22848,53.6810915,9.99763,0
10129935336,DHL,Wilsonstraße 70,22045,53.5815926,10.1318257,05504512
10219441986,,Borsteler Chaussee 136-138,22453,53.6079544,9.9779316,04403406
10219566427,,Alsterkrugchaussee 366,22335,53.6172996,10.0070181,04404407
10221098522,DPD,,,53.6404234,10.0198497,04413432
10221255224,,,,53.6641385,9.9974921,04413432
10221255225,,,,53.6608651,10.0158818,04413432
10221255226,,,,53.6498264,10.0098149,04413432
10225523806,DHL,,,53.6828154,10.0107298,0
10225571139,,,,53.684818,10.0207902,0
10225611659,,Mittelstraße 60,22851,53.6876811,10.0393202,0
10226149046,,,,53.6841414,9.9865235,0
10226149047,DHL,Kohfurth 15,22850,53.6896866,9.9824593,0
10226149048,DHL,Rathausallee 35-39,22846,53.7072003,9.9897989,0
10227811054,,Langenhorner Chaussee 655,22419,53.6781124,10.0010794,04413432
10227811055,Textilreinigung & Änderungsschneiderei,Langenhorner Chaussee 666,22419,53.6784002,10.001288,04413432
10227868080,,Ulzburger Straße 101,22850,53.6910092,9.9955679,0
10227868081,,Berliner Allee 40,22850,53.6848941,9.986233,0
10227868082,,Ochsenzoller Straße 131,22848,53.6817918,9.9860987,0
10238063848,Merlin Kiosk,Merlingasse 1,21147,53.4764572,9.8462422,07714715
10238063850,OIL!,Cuxhavener Straße 123,21149,53.4714512,9.8934262,07713714
10238063853,,Marktpassage 5,21149,53.4703634,9.8527647,07714715
10238063854,Postshop Neugraben,Cuxhavener Straße 335,21149,53.4722394,9.8526186,07714715
10238063855,DHL,Cuxhavener Straße 344,21149,53.4732814,9.8523869,07714715
10240238737,DHL,Ochsenweberstraße 15a,22419,53.6708296,10.0107758,04413432
10240238738,DHL,Kiwittsmoor 3,22419,53.6743968,10.0161909,04413432
10240345592,,Neuer Kamp 31,20359,53.5565036,9.9659708,01104111
10240345593,DHL,Susannenstraße 13,20357,53.5622451,9.9635166,02202207
10240548436,DHL,Weidenallee 43,20357,53.5673357,9.9645567,03301310
10247677180,DHL,Frickestraße 50,20251,53.5953543,9.9782677,04402405
10247677183,,Martinistraße 52,20251,53.5903213,9.978626,04402403
10247677185,Postfiliale 422,Eppendorfer Landstraße 59,20249,53.5893712,9.9864762,04402403
10247677187,DHL,Erikastraße 44,20251,53.5929216,9.9875185,04402403
10248450148,Hermes Paketshop,Krohnstieg 2,22415,53.6498422,10.0174772,04413432
10313443953,DHL Packetshop,Ditmar-Koel-Straße 16,20459,53.5460869,9.975476,01103105
10568116628,Postfiliale 625,Bramfelder Chaussee 84-86,22177,53.5984139,10.0670499,05507515
10568155939,Hermes PaketShop,,,53.6021743,10.0624647,05507515
10568155940,,,,53.5961321,10.0583372,05507515
10568260604,DHL Paketshop 557,Fabriciusstraße 1,22177,53.5942669,10.0586507,05507515
10568260605,DHL Paketshop 408,Bramfelder Straße 149,22305,53.5921166,10.0564585,04410426
10568260606,DHL Paketshop 461,Bramfelder Chaussee 223,22177,53.6120616,10.0742936,05507515
10568260608,DHL Paketshop 423,Bramfelder Chaussee 286,22177,53.616813,10.0777401,05507515
10568287211,Postfiliale 736,Bramfelder Chaussee 343,22175,53.619419,10.0805343,05507515
10568287212,DHL Paketshop 328,Bramfelder Chaussee 328,22175,53.6191686,10.0809516,05507515
10568287213,DHL Paketshop,Fahrenkrön 133,22179,53.6180391,10.0968218,05507515
10568287214,Postfiliale 420,Pezolddamm 160,22159,53.6248246,10.1152861,05506514
10568735446,Postfiliale 568,Neusurenland 102,22159,53.616205,10.1144942,05506514
10568735447,Postfiliale 646,Bramfelder Weg 89,22159,53.6106889,10.1081166,05506514
10568735448,DHL Paketshop 426,August-Krogmann-Straße 15,22159,53.6070499,10.1169014,05506514
10568735449,DHL Paketshop 430,,,53.6010509,10.1187529,05506514
10568735450,DHL Paketshop 618,Traberweg 14,22159,53.5979609,10.101837,05506514
10568735451,DHL Paketshop,Friedrich-Ebert-Damm 171,22047,53.5894964,10.0999905,05505513
10568735452,DHL Paketshop 407,Am Stadtrand 31-33,22047,53.5871896,10.0988242,05502508
10568735453,Postfiliale 586,Friedrich-Ebert-Damm 93a,22047,53.5872346,10.0882729,05502509
10568735454,DHL Paketshop 431,Nordschleswiger Straße 68,22049,53.5818797,10.067547,04409425
10568735455,DHL Paketshop 406,Straßburger Straße 44,22049,53.5817682,10.0655487,04409425
10568735456,DHL Paketshop 715,Straßburger Platz 9,22049,53.5817969,10.0621246,04409424
10568735457,Postfiliale 456,Habichtstraße 106,22307,53.5947125,10.0493726,04410428
10582801875,"Eckkiosk, Hermes, Lotto",,,53.6090068,10.072069,05507515
10616282856,Journal,Spitzbergenweg 34b,22145,53.6280194,10.1678096,05518526
10820380045,,,,53.7076077,10.1101054,05514522
10972716628,,,,53.4775673,10.2047164,06602603
11027586891,DHL Paketshop 428,Wohlwillstraße 53,20359,53.5559554,9.9625652,01104110
11071105901,Hermes Paket Shop,,,53.6504105,9.7762584,0
11081868394,Filiale 571,Elbchaussee 576-578,22587,53.5590569,9.8128897,02211223
11123830205,Postfiliale 501,,20099,53.5535465,10.0134829,01105114
11123836205,Postfiliale 517,,20099,53.5552611,10.008699,01105114
11301955319,DHL Paketshop 502,Stiftstraße 20,20099,53.5570383,10.0166695,01105113
11364670086,DHL,,,53.5844381,9.8715739,02208220
11395095069,,,,53.6048916,10.2187429,0
11397000237,,,,53.7096144,10.2503622,0
11443337507,DHL,,,53.584921,9.881041,02208220
11553167403,Postfiliale 525,Grelckstraße 20,22529,53.6012629,9.9556528,03305317
11617028357,,,,53.4516317,9.9711113,07709710
11650391218,,,,53.6238038,10.013397,04412431
11663514355,,,,53.6122432,10.0513536,05508516
11670460977,DHL Postfiliale 416,Grindelallee 138,20146,53.5691498,9.9799227,03302311
11670460979,DPD,Grindelallee 83,20146,53.5674881,9.9803067,03302311
11670460980,DPD,Grindelallee 126,20146,53.5684116,9.98048,03302311
11759292318,,,,53.5742427,10.1346838,05504512
11778907705,,,,53.5632055,10.04209,05501501
11844394439,,,,53.5813102,9.8098759,02213226
11888336643,,,,53.5397065,10.1067969,01112130
11919747119,Hermes Paketshop / ARAL Tankstelle,Ulzburger Straße 440,22844,53.7280245,9.9979263,0
11954146903,DHL,,,53.7040549,10.0085558,0
11970793784,,,,53.5797083,9.7998228,02213226
12012963106,UPS Access Point,Haynstraße 25A,,53.5875904,9.9816316,04402403
12084651803,Deutsche Post Filiale 401,Am Dalmannkai 8,20457,53.5416184,9.9953279,01102103
12156333640,Postfiliale 502 - Tabakshop E & E,,,53.4893779,10.1578948,06614615
12167665762,Lotto Tabak Zardosht,Königswiesen 1,21147,53.4744331,9.8541741,07714715
12190005128,DHL Paketshop 760,,,53.5639665,9.8140078,02211223
12271654266,Nova Post,,,53.5463921,10.0242742,01106117
12379029278,Hermes Paketshop,Walter-Jungleib-Straße 18,22457,53.6468152,9.9093432,03307319
12492450191,Deutsche Post Filiale im REWE,Borsteler Chaussee 17,22453,53.60375,9.9843185,04403406
12698908966,DHL Paketshop 675,Harkortstieg 1,22765,53.5583522,9.9399072,02203210
12698908967,DHL Paketshop 568,Harkortstraße 81c,22765,53.5582832,9.9370343,02203210
12700736946,Postamt,,,53.6531374,10.0929907,05511519
