id,lat,lon,name,street,zip_code,city
25699152,53.4709509,9.8528729,Markt Apotheke Neugraben,Marktpassage 7,21149,Hamburg
25699179,53.4591025,9.9814202,Schaefer Apotheke,Harburger Rathausstraße 37,21073,Hamburg
25699866,53.4736161,9.8757564,Striepenapotheke,,,
30831791,53.6088767,10.0104013,Hammer Apotheke,Alsterdorfer Straße 299,22297,Hamburg
30833737,53.6080269,10.0086537,Heubergredder Apotheke,Alsterdorfer Straße 284,22297,Hamburg
30960776,53.4718017,9.8534936,Ulen-Apotheke,Groot Enn 3,21149,Hamburg
32529008,53.4691138,9.8546768,Mühlen-Apotheke,Neugrabener Bahnhofstraße 33,21149,Hamburg
33411842,53.5953349,9.9984189,Michel-Apotheke,Alsterdorfer Straße 6,22299,Hamburg
33820698,53.4574023,9.986952,Apotheke im Marktkauf-Center,Seeveplatz 1,21073,Hamburg
36234584,53.4917147,10.0169965,Deich-Apotheke,Neuenfelder Straße 116,21109,Hamburg
59844782,53.6505658,10.1620006,Apotheke am Bahnhof Volksdorf,Farmsener Landstraße 189,,
68424427,53.6488109,10.1645751,Zur alten Schmiede,Im Alten Dorfe 23,22359,Hamburg
69150525,53.6479154,10.1640859,Post-Apotheke,Groten Hoff 12,22359,Hamburg
69420963,53.6725178,10.220899,West-Apotheke,Wulfsdorfer Weg 39,,
89964670,53.4745703,9.8759658,Neuwiedenthaler Apotheke,,,
244388981,53.5017299,9.9926168,Menge Apotheke,Reinstorfweg 10a,21107,Hamburg
249320708,53.588995,10.0757476,Phönix Apotheke,,,
253169335,53.572075,10.0662405,Adler-Apotheke,Wandsbeker Marktstraße 73,22041,Hamburg
253233025,53.5868599,10.1262452,Herz-Apotheke,,,
253377768,53.5807338,10.0796936,Holzmühlen-Apotheke,Walddörferstraße 146,22041,Hamburg
253393376,53.5924409,10.0760192,Gartenstadt-Apotheke,Lesserstraße 162,22049,Hamburg
253620348,53.5822914,10.0681232,Straßburger Apotheke,,,
253705473,53.6066313,10.0022442,Bienen-Apotheke,,,
254432119,53.5976365,10.1020193,Centra Apotheke,Traberweg 2-4,22159,Hamburg
254446384,53.6698321,10.143487,Heide-Apotheke,,,
254475771,53.5809795,10.0627117,Dulsberg-Apotheke,Straßburger Straße 28,22049,Hamburg
255911657,53.6281308,10.0242117,Spitzweg-Apotheke,Erdkampsweg 31,22335,Hamburg
255911666,53.6300007,10.0225418,Punkt Apotheke,Erdkampsweg 52,22335,Hamburg
258829576,53.5874681,10.0496137,Drossel Apotheke,Drosselstraße 1,22305,Hamburg
258829577,53.5909064,10.0443752,Elefanten Apotheke,Fuhlsbüttler Straße 141,22305,Hamburg
260652797,53.5610952,10.0367681,Landwehr Apotheke,Landwehr 34,22087,Hamburg
264603399,53.5793172,10.0414734,Nordsee-Apotheke,Dehnhaide 2-4,22081,Hamburg
266565867,53.5726019,9.8469389,Neue Osdorfer Apotheke,,,
266565868,53.5743903,9.8464512,Schwanen-Apotheke,Rugenbarg 9,22549,Hamburg
270242848,53.5571294,9.9182418,Kranich-Apotheke,Friedensallee 108,,
270891890,53.6718687,9.7737883,Staggenborg Apotheke,Peiner Hag 1,25497,Prisdorf
272617840,53.4950138,10.2060948,Elefanten-Apotheke,Lohbrügger Landstraße 2-4,21031,Hamburg
273415570,53.5570959,9.9888029,Schwan-Apotheke,,,
273890551,53.6018393,9.8893404,Gode Wind-Apotheke,Elbgaustraße 112,22547,Hamburg
273894263,53.5983516,9.8488274,Wehles-Apotheke,,,
274338982,53.5484782,9.9876437,Central-Apotheke,Rödingsmarkt 1,20459,Hamburg
274924441,53.5501699,9.979542,Pelikan-Apotheke,Großneumarkt 37,20459,Hamburg
274930976,53.5882064,9.8495351,Born-Apotheke,Kroonhorst 9a,22549,Hamburg
275034405,53.4497056,9.937788,Lavendel Apotheke,,,
276182701,53.4722922,9.8524986,SEZ Apotheke,Cuxhavener Straße 335,21149,Hamburg
277064861,53.5514454,9.9996135,Thalia-Apotheke,Gerhart-Hauptmann-Platz 48,20095,Hamburg
277596288,53.5828187,10.0477562,Apotheke Am Zoll,Alter Teichweg 7,22081,Hamburg
277764271,53.5876619,10.0458287,Apotheke am Barmbeker Bahnhof,Pestalozzistraße 15,22305,Hamburg
277790182,53.5974373,10.0423777,Nord-Apotheke,Fuhlsbüttler Straße 265,22307,Hamburg
277824103,53.5508934,9.9957464,Europa-Apotheke,Bergstraße 14,20095,Hamburg
278240531,53.5768745,9.9482023,Orion-Apotheke,,,
278242697,53.5759925,9.9509786,Laurin-Apotheke,Osterstraße 133,20255,Hamburg
278247119,53.5769208,9.9516853,Vita-Apotheke,Heußweg 37,20255,Hamburg
278268553,53.550072,9.9987618,Petri-Apotheke,Speersort 4,20095,Hamburg
278827019,53.5827886,9.8553804,Deesmoor-Apotheke,Bornheide 11,22549,Hamburg
278839107,53.5518511,9.9920898,Alsterarkaden-Apotheke,Alsterarkaden 13,20354,Hamburg
278839977,53.5505398,10.0017655,Jacobi-Apotheke,,,
279023062,53.5782072,10.014735,Burg-Apotheke,Hofweg 98,22085,Hamburg
279023073,53.5774648,10.020594,Fritz-Reuter-Apotheke,Mozartstraße 16,22083,Hamburg
279182725,53.5912872,9.8741988,Apotheke am Eckhoffplatz,Eckhoffplatz 1,22547,Hamburg
279196180,53.5519817,10.0031612,Centro-Apotheke,Spitalerstraße 7,20095,Hamburg
279454828,53.4601626,9.9821783,Arcaden Apotheke,Lüneburger Straße 45,21073,Hamburg
279711889,53.5636418,9.9605947,Adler-Apotheke,Schulterblatt 106,,Hamburg
279720128,53.6001757,9.8249565,Sankt Stephanus-Apotheke,Hauptstraße 33-37,22869,Schenefeld
280011120,53.5556952,9.9907465,Colonnaden-Apotheke,Colonnaden 36,20354,Hamburg
280014290,53.557101,9.9902957,Vital-Apotheke am Opernhaus,Colonnaden 72,20354,Hamburg
280740271,53.5592211,9.9644901,Apotheke am Neuen Pferdemarkt,Neuer Pferdemarkt 12,20359,Hamburg
283132643,53.5791885,9.9334294,Förster-Apotheke,Wolffstraße 9,22525,Hamburg
287452479,53.612588,10.0253399,Apotheke am Alsterdorfer Markt,Alsterdorfer Markt 8,22297,Hamburg
287550830,53.5605019,9.8109784,Johannis Apotheke,Blankeneser Bahnhofstraße 26,22587,Hamburg
287950632,53.5569316,10.0103261,Apotheke zum Ritter Sankt Georg,,,
288673912,53.5628713,9.811913,Apo-Rot Blankenese,,,
288673913,53.5639772,9.8145377,Heine-Apotheke,Erik-Blumenfeld-Platz 1,22587,Hamburg
288785840,53.4460773,9.9941968,Reeseberg Apotheke,Reeseberg 62,21079,Hamburg
288818686,53.6714723,10.1240899,Bergstedter Markt-Apotheke,,,
289301153,53.5572266,10.0114071,Epes-Apotheke,Lange Reihe 58,20099,Hamburg
290081134,53.5539901,9.9623097,Apotheke am Paulinenplatz,Paulinenplatz 1,20359,Hamburg
292811163,53.5997262,9.9614071,Domino-Apotheke,,,
293131914,53.6719222,10.000192,Käkenhof-Apotheke,Käkenflur 14b,22419,Hamburg
293544072,53.7301326,10.2685809,Adler Apotheke,Rathausstraße 33,22941,Bargteheide
293709439,53.6117513,10.0770267,Hummel-Apotheke,Herthastraße 12,22179,Hamburg
293953172,53.6248463,10.1132679,Karlshöher Apotheke,Pezolddamm 141,22175,Hamburg
296097119,53.6840832,9.9851885,Coppernicus-Apotheke,Berliner Allee 34a,22850,Norderstedt
300832571,53.5741494,9.9612033,Eimsbütteler Apotheke,,,
300888003,53.5809902,9.9734836,Oberdörffers Apotheke,Hoheluftchaussee 56,,Hamburg
301070656,53.5749383,9.9585841,Eichen Apotheke,Osterstraße 36,20259,Hamburg
301503418,53.5727369,9.9778829,Andreas-Apotheke,Grindelberg 3,20144,Hamburg
301563058,53.5841976,9.9964578,Bettins Apotheke,Maria-Louisen-Straße 1,22301,Hamburg
302849877,53.6512333,10.0958616,Apotheke am Frahmredder,Frahmredder 8,22393,Hamburg
303233384,53.5520014,9.9412793,gesund leben-Apotheke,Große Bergstraße 231,22767,Hamburg
303233682,53.5519734,9.9431398,Einhorn-Apotheke,Große Bergstraße 211,22767,Hamburg
303234857,53.5520531,9.9371351,Elb-Apotheke,Max-Brauer-Allee 52,22765,Hamburg
303495906,53.5677731,10.0189082,Uhlenhorster Apotheke,,,
305512455,53.459435,9.9827964,City Apotheke,Lüneburger Straße 34,21073,Hamburg
307420099,53.6645569,9.9054874,Apotheke Rugenbergen,Am Markt 2,25474,Bönningstedt
308187932,53.6404007,10.0191432,Wartburg Apotheke,Flughafenstraße 83,22415,Hamburg
308997802,53.5601124,9.9637066,Stern-Apotheke,Schulterblatt 14,20357,Hamburg
309795415,53.5622752,9.916609,Apotheke am Bahrenpark,Paul-Dessau-Straße 5,22761,Hamburg
309832915,53.5419067,10.1662371,Mühlen-Apotheke,Möllner Landstraße 28,22113,Oststeinbek
310925571,53.595075,9.9470126,Eichen Apotheke Lokstedt,Hugh-Greene-Weg 2,22529,Hamburg
311790496,53.5521058,9.9324538,Bahnhof Apotheke,Ottenser Hauptstraße 5,22765,Hamburg
311791813,53.6081739,9.9056214,Markt-Apotheke,Eidelstedter Platz 18,22523,
311852894,53.5476394,9.9662536,Bavaria-Apotheke,Zirkusweg 4,20359,Hamburg
312715871,53.591745,9.9290499,Volkspark Apotheke,Kieler Straße 411,22525,Hamburg
312744559,53.5473202,10.1532539,Guten Tag Apotheke,Willinghusener Weg 1,22113,Oststeinbek
312746508,53.6024695,10.1540173,apo-rot Apotheke Rahlstedt,Rahlstedter Bahnhofstraße 20,22143,Hamburg
313334400,53.5715001,10.0696663,Schloß-Apotheke,Schloßstraße 44,22041,Hamburg
315105765,53.5460741,9.9764785,Hafen-Apotheke,Ditmar-Koel-Straße 5,20459,Hamburg
318364310,53.7077203,10.1098915,Apotheke in Duvenstedt,Duvenstedter Damm 60,22397,Hamburg
319681265,53.5525716,10.0105133,Apotheke am Hauptbahnhof,Steindamm 2,20099,Hamburg
319681427,53.5535937,10.0127395,Engel Apotheke,Steindamm 32,20099,Hamburg
319688647,53.5562525,10.017677,Alexander Apotheke St. Georg,Steindamm 81,20099,Hamburg
323157099,53.4389461,9.9892134,Berg-Apotheke,Trelder Weg 5,21079,Hamburg
327538203,53.5940442,9.9966384,Fährhaus-Apotheke,,,
327543338,53.594602,9.998441,Marktplatz-Apotheke-Winterhude,Winterhuder Marktplatz 21a,22299,Hamburg
327636588,53.5943235,10.0007223,Victoria Apotheke,,,
343446204,53.5699404,9.9492534,Sophienapotheke,,,
351137104,53.5556064,9.9232098,Meridian Apotheke,Friedensallee 43,22765,Hamburg
365100064,53.625881,10.1393078,Berner Apotheke,Hermann-Balk-Straße 139,22147,Hamburg
365997839,53.5690953,10.1645539,Erlen-Apotheke,Barsbütteler Hof 2a,22885,Barsbüttel
366103891,53.5691741,10.0545224,KOSMOS-Apotheke,Wandsbeker Chaussee 261,22089,Hamburg
366104827,53.5644368,10.0344884,Alte Eilbeker Apotheke,Wandsbeker Chaussee 1,22089,Hamburg
366656007,53.5146198,9.9870437,Vering Apotheke,Veringstraße 37,21107,Hamburg
367416400,53.4652148,9.9632441,Hansa Apotheke,,,
368308195,53.5150506,9.9874612,Hubertus Apotheke,,,
368416158,53.5997221,10.1183141,Heerweg-Apotheke,Berner Heerweg 102,22159,Hamburg
372972247,53.601535,9.8376529,Herz Apotheke,Industriestraße 1b,22869,Schenefeld
380291621,53.6490478,10.1679011,Alte Apotheke Volksdorf,Im Alten Dorfe 38,22359,Hamburg
388299573,53.6213624,9.952503,Blumen-Apotheke,Tibarg 44,22459,Hamburg
388299576,53.620118,9.9519079,Storchen Apotheke,Tibarg 32d,22459,Hamburg
388299586,53.6194838,9.951053,Meine Niendorfer Apotheke,Tibarg 7-9,22459,Hamburg
388299632,53.620919,9.9517726,Heudorfer Apotheke,Tibarg 21,22459,Hamburg
393207346,53.6612553,9.7971505,Adler-Apotheke,Dingstätte 22,25421,Pinneberg
394940958,53.5751938,9.9553129,Grimms Apotheke,Osterstraße 77,20259,Hamburg
411016975,53.5693616,10.0287292,Lerchenfeld Apotheke,,,
412741318,53.5716391,9.9891574,Apotheke am Rothenbaum,Rothenbaumchaussee 76,20148,Hamburg
414999108,53.5523988,10.0196301,Alexander Apotheke City Süd,Beim Strohhause 2,20097,Hamburg
416328193,53.6514182,9.7922217,Schulzes Apotheke,Oeltingsallee 35,25421,Pinneberg
419847302,53.6524914,9.7909324,Olympia-Apotheke,Heinrich-Christiansen-Straße 41,25421,Pinneberg
428178749,53.4893676,10.1817049,Marquardts Apotheke,Friedrich-Frank-Bogen 87-89,21033,Hamburg
429260703,53.6531728,10.2623789,Walddörfer-Apotheke,Ahrensfelder Weg 1,22927,Großhansdorf
431148778,53.4098427,9.9900631,Fleester Markt-Apotheke,,,
437355077,53.5477104,9.9575079,Albatros Apotheke,Hein-Köllisch-Platz 1,20359,Hamburg
439178662,53.557054,10.0193331,Apotheke am Lohmühlenpark,Steindamm 105,20099,Hamburg
439985256,53.6789719,10.149416,Lottbek-Apotheke,Hamburger Straße 97,22949,Ammersbek
441212185,53.5797946,9.9803014,Ise Apotheke,Klosterallee 80,20144,Hamburg
442006780,53.5551584,9.9896726,Roths alte englische Apotheke,,,
444714199,53.5551002,10.053329,Humboldt-Apotheke,Hammer Landstraße 88,20537,Hamburg
447449857,53.566979,9.9813137,Enten-Apotheke,Grindelallee 88-90,20146,Hamburg
449102860,53.5899172,9.9875593,Goerne-Apotheke,Goernestraße 2,20249,
449102861,53.5906015,9.9876611,Aquarius-Apotheke,Eppendorfer Landstraße 84,20249,Hamburg
453488538,53.7346916,10.0820045,Liliencron-Apotheke,,,
467739574,53.5779026,9.9774113,Paracelsus-Apotheke,Grindelberg 88,20144,Hamburg
473850228,53.6717383,10.2385698,Adler-Apotheke,Hagener Allee 16,22926,Ahrensburg
474739469,53.5552715,10.0419192,Hammerbaum Apotheke,Hammer Landstraße 8,20537,Hamburg
476271897,53.5709697,10.0639248,Wandsbeker Apotheke,Wandsbeker Marktstraße 46,22041,Hamburg
476565553,53.7088969,10.1069372,Sonnen-Apotheke,,,
478834950,53.5676256,10.0457348,Neue Eilbeker Apotheke,Wandsbeker Chaussee 121,22089,Hamburg
485274285,53.5495432,10.0798175,Bauerberg Apotheke,Horner Landstraße 200,22111,Hamburg
492020564,53.4594423,9.9845077,Panorama-Apotheke,,,
501837400,53.5556832,10.0651268,Fontane Apotheke,Horner Weg 65,20535,Hamburg
501837424,53.5577268,10.0509429,Wolfshagen Apotheke,Carl-Petersen-Straße 101,20535,Hamburg
504921076,53.5538346,10.0857736,Hermes-Apotheke,Rennbahnstraße 28c,22111,Hamburg
513876243,53.5423556,10.2137203,Maximilian-Apotheke,Markt 17,21509,Glinde
513876246,53.5418086,10.2138438,Markt-Apotheke,Markt 5,21509,Glinde
515627668,53.4713904,9.8267715,Fischbeker Apotheke,Fischbeker Heuweg 2A,21149,Hamburg
525537813,53.5595296,9.8859208,Waitz-Apotheke,Waitzstraße 3,22607,Hamburg
544749877,53.6535839,10.0909405,AEZ-Apotheke,Heegbarg 3,22391,Hamburg
556010397,53.6538876,9.8288675,Rosen-Apotheke,Hauptstraße 82,25462,Rellingen
556010406,53.6639663,9.7927046,Markt-Apotheke,Elmshorner Straße 13,25421,Pinneberg
567923498,53.5800153,9.9753013,Falken Apotheke,Hoheluftchaussee 20,20253,Hamburg
568652821,53.6114674,10.0359461,Buchen Apotheke,Fuhlsbüttler Straße 599,22337,Hamburg
570514425,53.6084383,10.0719789,Bramfelder Apotheke e.K.,Bramfelder Chaussee 187,22177,Hamburg
577278661,53.5636817,9.8122329,Guten Tag Apotheke Blankenese,Sülldorfer Kirchenweg 1,22587,Hamburg
586961787,53.5748205,10.0369151,Marschner-Apotheke,,,
598696665,53.5696042,9.9645834,Ginkgo-Apotheke,Schäferkampsallee 56,20357,Hamburg
603264215,53.6497373,10.013135,Apotheke am Langenhorner Markt,Langenhorner Markt 9,22415,Hamburg
603660304,53.6880283,10.0390579,Eichen-Apotheke,Mittelstraße 74,22851,Norderstedt
604974969,53.5730242,10.069283,Claudius-Apotheke,Wandsbeker Marktstraße 119,22041,Hamburg
610574672,53.5842031,9.9823957,Feen-Apotheke,Eppendorfer Baum 33,20249,Hamburg
610574675,53.5846794,9.9822197,Lilien-Apotheke,Eppendorfer Baum 42,20249,Hamburg
610574691,53.5872039,9.9849265,Neue Apotheke Eppendorf,Eppendorfer Landstraße 36,20249,Hamburg
610574727,53.5895932,9.9865918,Klosterhof-Apotheke,,,
613105103,53.5886029,10.0072376,i Plus Apotheke,,,
613105109,53.587963,10.0042805,St. Johannis-Apotheke,Maria-Louisen-Straße 100,22301,Hamburg
614931502,53.6171498,10.0774636,Neptun-Apotheke,Bramfelder Chaussee 291,22177,Hamburg
614931512,53.6194193,10.0812914,Osterbek-Apotheke,Bramfelder Chaussee 330,22175,Hamburg
617376827,53.6131754,10.0758669,Dorfplatz-Apotheke,Bramfelder Chaussee 244,22177,Hamburg
618926194,53.5833086,10.0339002,Bruckner-Apotheke,Brucknerstraße 35,22083,Hamburg
627572993,53.6721585,10.2376194,Flora-Apotheke,Hamburger Straße 11,22926,Ahrensburg
631831408,53.5661602,9.9958138,Carjells Apotheke,,,
631831421,53.5710284,9.9953069,Pöseldorf Center Apotheke,Mittelweg 130-138,20148,Hamburg
631831422,53.5716684,9.9949303,Pöseldorfer Apotheke,Mittelweg 123,20148,Hamburg
635162488,53.5511265,9.9299736,Victoria-Apotheke,Bahrenfelder Straße 69,22765,Hamburg
640336746,53.5816738,9.9719259,La Vie Apotheke,Hoheluftchaussee 85,20253,Hamburg
642054665,53.5806451,9.9694884,Manstein-Apotheke,Eppendorfer Weg 180,20253,Hamburg
653913184,53.5525099,9.9299338,Kaiser-Apotheke,Bahrenfelder Straße 99-101,,Hamburg
653913203,53.5546036,9.9284563,Hanse-Apotheke,Bahrenfelder Straße 175,22765,Hamburg
655410011,53.6028991,10.0443757,Stern Apotheke,Hartzlohplatz 7,22307,Hamburg
660138721,53.6812908,9.9975752,Tarpenbek Apotheke,Am Tarpenufer 6,22848,Norderstedt
662891039,53.6442054,9.8114882,Brahms-Apotheke,Diesterwegstraße 33c,25421,Pinneberg
663839183,53.5706856,9.9847012,Grindelhof-Apotheke,Grindelhof 73,20146,Hamburg
667060703,53.6516537,10.0181412,Apotheke im Ärztehaus,,,
675950948,53.6332843,10.0533375,Kornweg-Apotheke,Stübeheide 153,22337,Hamburg
690655691,53.5773555,10.0592907,Friedrichsberg Apotheke,Dithmarscher Straße 9a,22049,Hamburg
696858209,53.4249162,9.7888337,Sonnen-Apotheke,,,
700194442,53.6544047,10.0611056,Apotheke Tegelsbarg,,,
701228244,53.6491094,10.0133912,Linden-Apotheke,Krohnstieg 41,22415,Hamburg
706476658,53.7277179,9.9969598,Erlen-Apotheke,Erlengang 2,22844,Norderstedt
706691426,53.6499795,9.8296717,Post-Apotheke,Hauptstraße 35,25462,Rellingen
719391888,53.6325968,9.9113129,Apotheke zur Post,,,
728575818,53.4613231,9.9793412,Damian Apotheke,,,
738932768,53.6067033,9.9791453,Hubertus-Apotheke,Borsteler Chaussee 111,22453,Hamburg
741321814,53.5415354,9.9881675,Apotheke an der Elbphilharmonie,Am Kaiserkai 44,20457,Hamburg
747133238,53.6260808,10.0263554,Alster-Apotheke,Ratsmühlendamm 17,22335,Hamburg
747789933,53.6839695,9.998314,Norderstedt-Apotheke,Ulzburger Straße 10,22850,Norderstedt
747789935,53.6824915,10.0114243,Spitzweg-Apotheke,Am Kielortplatz 124,22850,Norderstedt
761660596,53.5993569,9.9639645,Hammonia-Apotheke,Siemersplatz 3,22529,Hamburg
761660848,53.5945246,9.9868598,Erika Apotheke Bartz,Lokstedter Weg 9,20251,Hamburg
764871932,53.5585579,9.9483865,Gorch Fock Apotheke,Max-Brauer-Allee 151,,
773591718,53.7064331,9.9958014,Rathaus-Apotheke,Rathausallee 11a,22846,Norderstedt
778076293,53.6012105,9.9557554,Gazellen-Apotheke,Grelckstraße 20-26,22529,Hamburg
790892730,53.5682123,10.0925413,Marienthaler Apotheke,,,
797627791,53.5969807,10.0589013,Eulen-Apotheke,Hellbrookkamp 33-35,22177,Hamburg
820277133,53.4834695,10.1758334,Grachtenhaus-Apotheke,Grachtenplatz 9,21035,Hamburg
832731227,53.608547,9.8435674,Apotheke 21,Friedrich-Ebert-Allee 21,22869,Schenefeld
833243230,53.4646895,9.8006957,VitAlex-Apotheke,Schifferstraße 2,21629,Neu Wulmstorf
833459815,53.6405288,9.9484747,Nordalbinger Apotheke,Nordalbingerweg 19,22455,Hamburg
840945883,53.6062709,9.8743145,Ulmenapotheke,,,
845282172,53.4641567,9.9564993,Aphotheke im Niedersachsenhaus,,,
846572581,53.6342818,9.8398921,Baumschulen-Apotheke,Friedrichstraße 1a,25469,Halstenbek
848503069,53.6175924,10.1432311,Greifenberg-Apotheke,Greifenberger Straße 57b,22147,Hamburg
866629789,53.7304179,9.8968302,Pinnau Apotheke,Kieler Straße 96,25451,Quickborn
880631039,53.570802,10.1248306,Jenfelder Apotheke,Rodigallee 248,22043,Hamburg
898840688,53.5936905,10.0449706,apo-rot Merkur-Apotheke,Heidhörn 1,22307,Hamburg
898856898,53.595632,10.0433021,Lotus-Apotheke,Fuhlsbüttler Straße 223,22307,Hamburg
900583043,53.6430157,10.0462563,Hummelsbütteler Apotheke,Hummelsbütteler Markt 7,22339,Hamburg
959812009,53.5332402,9.8779488,Deich-Apotheke,Steendiek 8,21129,Hamburg
975882252,53.627814,10.1506984,Alaska Apotheke,Alaskaweg 2,22145,Hamburg
976181764,53.6039398,10.1547089,Liliencron Apotheke Rahlstedt,Rahlstedter Bahnhofstraße 8,22143,Hamburg
976557233,53.6722311,10.2403673,Rantzau Apotheke,,,
976557245,53.6727686,10.2393034,Apotheke am Rondeel,Rondeel 9,22926,Ahrensburg
977466068,53.6061671,10.1184645,U-Bahn-Apotheke,Berner Heerweg 177a,22159,Hamburg
977466075,53.6055977,10.1187711,Center-Apotheke,Berner Heerweg 175,22159,Hamburg
978789526,53.6099521,10.0588598,Askanier-Apotheke,Gründgensstraße 26,22309,Hamburg
985215259,53.5817456,9.7560779,Holthof-Apotheke,Wedeler Landstraße 43,22559,Hamburg
985216771,53.5819886,9.7562872,Schwalben-Apotheke Rissen,Wedeler Landstraße 44,22559,Hamburg
985216772,53.5820227,9.7581192,Klövensteen-Apotheke,,,
985216773,53.5815166,9.7592571,Alte Apotheke in Rissen,,22559,Hamburg
985718122,53.6740278,10.2387743,Accent-Apotheke,Große Straße 30,,
1011802853,53.6317847,9.920264,Apogrün Apotheke,Wählingsallee 6,22459,Hamburg
1014515079,53.5428297,10.2139254,Guten Tag Apotheke,Möllner Landstraße 119,21509,Glinde
1015929828,53.6715296,10.23646,Apotheke im Gesundheitszentrum,Hamburger Straße 23,22926,Ahrensburg
1030410936,53.6028635,10.1798696,Drive-In-Apotheke,Stapelfelder Straße 84,22143,
1034260988,53.5829344,9.9355135,Florian-Apotheke,Privatweg 2,22527,Hamburg
1059369877,53.5419076,10.1064693,Apotheke am Billstedter Platz,Billstedter Platz 9,22111,Hamburg
1204684612,53.4213364,10.0224105,Niedersachsen Apotheke,,,
1226144999,53.6021123,9.9536595,DocMorris Apotheke,,,
1288267200,53.5508192,9.897837,Apotheke am Teich,Liebermannstraße 54,22605,Hamburg
1288267202,53.5648692,9.8806493,Beseler Apotheke,Beselerstraße 38,22607,Hamburg
1311599643,53.4897156,10.2533816,Neue Apotheke im Casinopark,Am Casinopark 14,21465,Wentorf bei Hamburg
1333818714,53.6895943,9.9828418,Bach-Apotheke,Kohfurth 15,22850,Norderstedt
1349198034,53.6055507,10.0362847,Wald-Apotheke,,,
1350081979,53.6052831,10.1587805,Pongs-Apotheke,Schweriner Straße 17,22143,Hamburg
1364324543,53.7367326,9.9029613,Apotheke am Ziegenweg,Ziegenweg 4,25451,Quickborn
1364324544,53.7317856,9.8997023,Eulen-Apotheke am Eulenplatz,Am Freibad 4a,25451,Quickborn
1374898164,53.6078762,9.9026188,Krauses Apotheke,Ekenknick 5,22523,Hamburg
1417568460,53.5611541,9.9141089,apo-rot,Gasstraße 12,22761,Hamburg
1455182271,53.4584156,9.9832429,Vivo Apotheke,,,
1487249703,53.5633843,9.8092347,Atlasprofilax-Praxis Flick,Blankeneser Landstraße 19,22587,Hamburg
1487815464,53.6743418,10.2371937,easy-Apotheke,,,
1500721505,53.565766,9.9653777,Weiden-Apotheke,Weidenallee 11,20357,Hamburg
1502148207,53.5626328,9.9480439,Kronen-Apotheke,,,
1506023069,53.549952,9.9550799,Lincoln-Apotheke,Nobistor 27,22767,Hamburg
1506023203,53.5510479,9.9552575,St. Cosmas-Apotheke,,,
1509833529,53.6356368,9.8400039,Eichen Apotheke,Hauptstraße 36,25469,Halstenbek
1547943766,53.7291773,10.2569267,Stadt Apotheke,Jersbeker Straße 12,22941,Bargteheide
1547961035,53.72983,10.2644928,Rathaus Apotheke,Rathausstraße 11,22941,Bargteheide
1551924190,53.5339502,10.0389019,Löwen Apotheke,Rothenburgsorter Marktplatz 1,20539,Hamburg
1564922464,53.5599077,9.95977,Stresemann-Apotheke,Bernstorffstraße 174,22767,Hamburg
1565848415,53.5820896,10.0114067,Apotheke Am Mühlenkamp,Mühlenkamp 34a,22303,Hamburg
1565848570,53.5813602,10.0119254,ara-Apotheke,Mühlenkamp 20,22303,Hamburg
1567834540,53.5518296,9.9381727,Schiller Apotheke,Neue Große Bergstraße 7,22767,Hamburg
1578642030,53.5579377,9.9884473,Apotheke am Dermatologikum,Stephansplatz 1-5,20354,Hamburg
1584988493,53.5842329,10.144185,Hohenhorster-Apotheke,Berliner Platz 13f,22045,Hamburg
1589754277,53.5905593,10.1800567,Schimmelreiter Apotheke,Hegeneck 5,22149,Hamburg
1592197709,53.5847349,10.0249181,Jarre-Apotheke,Jarrestraße 42,22303,Hamburg
1594396636,53.604774,9.9994065,Pasteur Apotheke,,,
1607039243,53.5637875,10.058866,Hasselbrook Apotheke,Caspar-Voght-Straße 88,,
1613188090,53.5595529,9.8814967,Altländer Apotheke,Waitzstraße 32,22607,Hamburg
1613188094,53.5596376,9.8838364,Doppeleiche-Apotheke,Waitzstraße 16,22607,Hamburg
1617465738,53.6025729,9.9117335,Sofia-Apotheke,Kieler Str. 627,22525,Hamburg
1629352673,53.6324844,10.006295,metropolitan pharmacy,,,
1633678042,53.6751554,10.0277073,Heidberg Apotheke,Tangstedter Landstraße 467,22417,Hamburg
1642126680,53.5535753,10.0664549,Wichern Apotheke,Hammer Landstraße 240,20537,Hamburg
1656096471,53.4613779,9.9822574,Millenium Apotheke,Schloßmühlendamm 6,21073,Hamburg
1656097545,53.4569273,9.9602176,Stern-Apotheke,,,
1657200427,53.4412027,9.9601043,Galenus-Apotheke,,,
1689398311,53.564231,10.057657,Helios-Apotheke,Marienthaler Straße 148,20535,Hamburg
1725784647,53.5219515,10.2311713,Helgoland-Apotheke,,,
1725857731,53.5698215,10.0258121,Mundsburg Apotheke,Mundsburger Damm 59,22087,Hamburg
1738423117,53.5594701,9.8874123,Reventlow Apotheke,,,
1744770546,53.5890177,10.0453599,BUDNI-Partner-Apotheke Barmbek,Fuhlsbüttler Straße 107-109,22305,Hamburg
1770500904,53.6829748,10.0314255,Glashütter Apotheke,Tangstedter Landstraße 555,22851,Norderstedt
1782025693,53.5843942,10.0180283,Passat-Apotheke,Barmbeker Straße 17-19,22303,Hamburg
1784387460,53.6486208,10.0164753,Fortuna-Apotheke,Tangstedter Landstraße 40,22415,Hamburg
1785838302,53.6578006,9.8074735,Sonnen-Apotheke,Waldstraße 5,25421,Pinneberg
1819221235,53.5735536,10.0709632,Forum-Apotheke,Wandsbeker Marktstraße 143,22041,Hamburg
1831926331,53.632391,10.0263126,Sonnen Apotheke,Kleekamp 8,22339,Hamburg
1843291602,53.3964449,10.0424758,Markt-Apotheke,Schulstraße 44,21220,Seevetal
1859086550,53.5826545,9.9487945,Malteser-Apotheke,Eidelstedter Weg 66,20255,Hamburg
1874137600,53.6165794,9.8667585,See-Apotheke,Seestraße 252,25469,Halstenbek
1875894765,53.4661082,9.7937092,Ärztehaus Apotheke,,21629,Neu Wulmstorf
1909914706,53.549891,9.9932559,Rathaus Apotheke,Rathausmarkt 19,20095,Hamburg
1919256323,53.4896643,10.2079942,Apotheke zur alten Post,Weidenbaumsweg 6,21029,Hamburg
1948006877,53.5620571,9.8123344,Apotheke an der Godeffroystraße,,,
2027210987,53.6323126,9.9216843,Alte Apotheke,Frohmestraße 47,22457,Hamburg
2027894766,53.6345923,9.9188441,hanseatic Apotheke,Frohmestraße 16-20,22457,
2037307520,53.5866953,10.0866456,Mozart-Apotheke,Friedrich-Ebert-Damm 85,22047,Hamburg
2058310331,53.6625038,10.2852846,Apotheke am U-Bahnhof,Eilbergweg 9,22927,Großhansdorf
2058445199,53.5597305,10.1072777,Silber-Apotheke,Manshardtstraße 113f,22119,Hamburg
2060697934,53.5627428,10.1204898,Nepomuk-Apotheke,Schiffbeker Weg 230,22119,Hamburg
2061752731,53.5407588,10.1003679,Ring Apotheke,Billstedter Hauptstraße 35,22111,Hamburg
2063152884,53.6767933,10.2398525,Schloss-Apotheke,,,
2086308005,53.4071042,10.1775421,Elbdeich Apotheke Zollenspieker,Süderquerweg 95,21037,Hamburg
2106098601,53.5394329,10.1065853,Kräuter-Apotheke,Möllner Landstraße 29,22111,Hamburg
2106103171,53.5390629,10.1070085,Dr. Walters Markt-Apotheke,Möllner Landstraße 26,22111,Hamburg
2111332548,53.5149228,9.9935059,Wilhelmsburger Apotheke,Georg-Wilhelm-Straße 28,21107,Hamburg
2127139491,53.48815,10.2123679,Linden Apotheke,Bergedorfer Markt 2,21029,Hamburg
2127139492,53.4869022,10.2147526,Pluspunkt-Apotheke,Sachsentor 67,21029,Hamburg
2127139493,53.4879786,10.2131664,Pluspunkt-Apotheke,Sachsentor 29-31,21029,Hamburg
2130572838,53.6484292,9.8299971,Brunnenapotheke,Hauptstraße 25,25462,Rellingen
2139225282,53.5036826,10.2130351,Apotheke am Binnenfeldredder,Binnenfeldredder 36e,21031,Hamburg
2180292289,53.5399621,10.105557,EZB Apotheke,,,
2181381689,53.6864253,10.0932396,Tannenhof-Apotheke,,,
2265800400,53.5671737,9.9578891,Pfeil Apotheke,Eimsbütteler Chaussee 28,20259,Hamburg
2271386385,53.6084962,10.0434728,i Plus Apotheke,Eichenlohweg 17,22309,Hamburg
2292367688,53.4890676,10.1580477,Fleethaus Apotheke,Fleetplatz 2/4,21035,Hamburg
2301140159,53.4876517,10.2073909,Kaufland-Apotheke,Bergedorfer Straße 106,21029,Hamburg
2301162518,53.4871211,10.2133969,Löwen Apotheke,Hinterm Graben 31,21029,Hamburg
2324859697,53.5765767,9.945441,Apostel-Apotheke,Bei der Apostelkirche 20,20257,Hamburg
2358282485,53.6005362,10.1373544,Vital Apotheke,Scharbeutzer Straße 104b,22147,Hamburg
2358424134,53.5461757,10.0926993,Washington Apotheke,Washingtonallee 92,22111,Hamburg
2360033072,53.5093005,10.2512711,Fürst Bismarck-Apotheke,Bahnhofstraße 15,21465,Reinbek
2360039997,53.5103774,10.2515765,Sachsenwald-Apotheke,Hamburger Straße 2,21465,Reinbek
2390101795,53.5720227,9.8631549,Apotheke an der Osdorfer Landstraße,,,
2397757482,53.4975791,10.0105648,Distel-Apotheke,,,
2404797401,53.5753038,9.8156546,Eichen-Apotheke,Heidrehmen 2-4,22589,
2498147230,53.6590314,9.8077993,Flora-Apotheke,Damm 49,25421,Pinneberg
2570181019,53.4435526,10.1292833,Apotheke Ochsenwerder,,,
2581562083,53.4980564,10.0098837,Apotheke EKZ Wilhelmsburg,Wilhelm-Strauß-Weg 9-10,21109,Hamburg
2590293538,53.5384686,10.1268746,Luisen-Apotheke,Möllner Landstraße 142,22117,Hamburg
2594410955,53.6116614,10.0595137,Orchideen Apotheke,Schreyerring 41,22309,Hamburg
2691684946,53.5711348,10.1365619,alphapoint apotheke,Öjendorfer Damm 50,22043,Hamburg
2719747178,53.4657546,9.9882776,Apotheke am Veritaskai,Veritaskai 6,21079,Hamburg
2824914908,53.5830505,9.9668812,Wrangel-Apotheke,Gärtnerstraße 32,20253,Hamburg
2845667650,53.4877429,10.2205735,Apotheke am Rathaus,Wentorfer Straße 35,21029,Hamburg
2909214516,53.5929317,9.9893617,Apotheke an der Friedenseiche,Eppendorfer Marktplatz 2,20251,Hamburg
2923382206,53.4936066,10.2071023,Apotheke im Medical Center,Alte Holstenstraße 12,21031,Hamburg
2959581353,53.6475038,9.9087066,Borwich Apotheke,Roman-Zeller-Platz 10,22457,Hamburg
2984675506,53.6072159,9.9045331,Eidelstedter Apotheke,Alte Elbgaustraße 1,22523,Hamburg
3048509541,53.5263196,10.3043381,Apotheke Am Billenkamp,,,
3048509550,53.5263393,10.3060525,Apotheke Aumühle,Hofriedeallee 22,21521,Aumühle
3054397311,53.6939464,10.0274278,Immenhof-Apotheke,Poppenbütteler Straße 172,22851,Norderstedt
3115458650,53.5544112,10.0328206,Adler Apotheke,,,
3124034133,53.4188233,10.0190402,Apotheke Mitten im Leben,Am Saal 16,21217,Seevetal
3132162944,53.5404619,10.140511,Friesland Apotheke,Morsumer Weg 18,22117,Hamburg
3138425927,53.5515691,9.940227,easyApotheke,Altonaer Poststraße 15,22767,Hamburg
3138435821,53.7093963,10.0180666,Vitalhus. Die Apotheke,Stormarnstraße 33-41,22844,Norderstedt
3172106929,53.5712883,9.8917998,Floriani-Apotheke,,,
3209562270,53.5940244,10.1444669,Hirsch-Apotheke,Rahlstedter Straße 41,22149,Hamburg
3238320610,53.5649405,9.9635347,Sternthaler Apotheke,Altonaer Straße 61,20357,Hamburg
3248392177,53.6819054,9.987582,Scandia-Apotheke,Ochsenzoller Straße 147,22848,Norderstedt
3251307261,53.5267845,10.1505314,Neue Apotheke U-Bahn Mümmelmannsberg,Kandinskyallee 14-18,22115,Hamburg
3265265486,53.7072069,9.989218,Moorbek Apotheke,Rathausallee 35/39,22846,Norderstedt
3301111867,53.5110109,10.2347454,Kloster-Apotheke,Am Ladenzentrum 4,21465,Reinbek
3319893255,53.5835212,10.0202123,Kampnagel International Apotheke,Jarrestraße 2,22303,Hamburg
3325616461,53.6051451,10.1574642,Nova Apotheke Rahlstedt,Schweriner Straße 8-12,22143,Hamburg
3327735843,53.6826109,9.9803841,Hubertus-Apotheke,Achternfelde 4,22850,Norderstedt
3328710899,53.4969527,10.0043591,Apotheke am Inselpark,Neuenfelder Straße 31,21109,Hamburg
3330975448,53.6534405,10.1137026,Saseler Markt-Apotheke,Saseler Markt 12B,22393,Hamburg
3334870012,53.638119,9.8958868,Erlen-Apotheke,Moordamm 2,25474,Ellerbek
3336492328,53.7311361,9.9041848,Bahnhof-Apotheke,Bahnhofstraße 98,25451,Quickborn
3336507209,53.7270862,9.9142614,Goethe Apotheke,Harksheider Weg 99,25451,Quickborn
3336908491,53.6160406,10.1134332,Birken Apotheke,August-Krogmann-Straße 129,22159,Hamburg
3337042310,53.6531829,10.1122072,Saselbek-Apotheke,Saseler Markt 18,22393,Hamburg
3341479341,53.5564159,9.9671214,Apotheke in der Rindermarkthalle,,,
3343162816,53.6596161,9.743299,Holsten-Apotheke,Hauptstraße 59,25482,Appen
3344667835,53.6530572,10.0780339,Heiligen Geist Apotheke,,,
3353572744,53.6005434,9.8357974,Apotheke beim Rathaus,Holstenplatz 6,22869,Schenefeld
3358610061,53.6412604,10.079963,Alte Apotheke Wellingsbüttel,Wellingsbüttler Weg 115,22391,Hamburg
3358616768,53.6402497,10.0838149,Rolfinck Apotheke,Rolfinckstraße 14,22391,Hamburg
3358744283,53.6617872,10.0862637,Moorhof Apotheke,Poppenbüttler Hauptstraße 11,22399,Hamburg
3358778705,53.6606086,10.086058,Regenbogen-Apotheke,Moorhof 7b,22399,Hamburg
3359926116,53.6595561,10.0841754,gesundleben Apotheke,Harksheider Straße 3,22399,Hamburg
3359963693,53.4914731,10.2526748,Rats-Apotheke,Hauptstraße 2,21465,Wentorf bei Hamburg
3417706471,53.5291939,10.1480036,Apotheke am Mümmelmannsberg,Oskar-Schlemmer-Straße 11,22115,Hamburg
3423692516,53.5328506,9.8795224,Morgenstern Apotheke,Steendiek 42,21129,Hamburg
3446145170,53.6026428,10.1291008,Oldenfelder Apotheke,,22147,
3451004754,53.6046805,10.155406,Herz Apotheke,Rahlstedter Bahnhofstraße 11,22143,Hamburg
3507046859,53.5897074,9.9738183,Apotheke im Spectrum am UKE,Martinistraße 64,20251,Hamburg
3507046862,53.5899003,9.9750207,gesundleben,Martinistraße 52,20251,Hamburg
3536072925,53.5038936,10.1899678,Hipps Apotheke,,,
3646648840,53.5927318,9.8728851,Apotheke Ärztezentrum Hamburg West,Eckhoffplatz 28,22547,Hamburg
3650673321,53.5494841,9.943868,Antares-Apotheke im Struensee-Haus,,,
3671211870,53.4324836,9.9866933,Feldapotheke,,,
3672407252,53.5498359,9.9634091,Gudrun Apotheke,,,
3763227823,53.5920609,9.9734403,Krankenhausapotheke UKE,,,
3783577936,53.6122271,10.0784182,easyApotheke,Bramfelder Dorfplatz 18,22179,Hamburg
3880659245,53.5986397,10.092766,Cranach Apotheke,Bengelsdorfstraße 1c,22179,Hamburg
3881207133,53.4566593,9.9882716,Pluspunkt-Apotheke im Phoenix-Center,Hannoversche Straße 86,21079,Hamburg
4241611842,53.5553005,9.8449476,Apotheke im Dorf,,,
4241611844,53.5544687,9.8443161,Apotheke Nienstedten,,,
4318836279,53.6083775,9.9034049,Kleist Apotheke,Eidelstedter Platz 10d,,
4380248692,53.6844785,9.9862704,Apotheke im Herold-Center,Berliner Allee 38-44a,22850,Norderstedt
4388868547,53.5667307,10.1638437,alphapoint Apotheke Barsbüttel,Am AKKU 9,22885,Barsbüttel
4558149885,53.4849286,10.0195998,,,,
4976134758,53.4866609,10.2138546,Mohnhof Apotheke,,,
5029415578,53.4919138,10.207347,Viva Apotheke,,,
5064396429,53.4897023,10.2088879,Bahnhof Apotheke,Weidenbaumsweg 1,21029,Hamburg
5397747852,53.4437854,10.2290935,Elbdeich Apotheke Vierlande,Heinrich-Stubbe-Weg 13,21039,Hamburg
5499467439,53.5569644,9.9024392,Apotheke Othmarscher Höfe,Jürgen-Töpfer-Straße 18,22763,Hamburg
5771825536,53.4670452,9.792559,Heide Apotheke,,,
5891682622,53.5233401,10.0161629,Lorian Apotheke,,,
6017346008,53.5807944,9.794683,Sülldorfer Apotheke,,,
6419154517,53.5513374,10.00364,Mö-City Apotheke,Mönckebergstraße 5,20095,Hamburg
6426712938,53.4858567,10.2871057,Dalbek Apotheke Börnsen,Beim Sachsenwald 2,21039,Börnsen
6665818699,53.5567238,9.9284335,Apotheke an der Fabrik,Bahrenfelder Straße 242-244,22765,Hamburg
6702869745,53.515462,9.7930513,Altländer Apotheke Neuenfelde,Nincoper Straße 156,21129,Hamburg
6987265071,53.5763964,9.8216849,Holsten-Apotheke,Sülldorfer Landstraße 5,22589,Hamburg
7404964528,53.4606848,9.9848463,WeVital Apotheke,,,
7876394593,53.588288,10.0445874,easyApotheke,Massaquoipassage 3,22305,Hamburg
8066031062,53.6350194,9.9185541,Frohme Apotheke,Frohmestraße 14,22457,Hamburg
8443187109,53.6211905,9.794106,Apotheke Waldenau,Waldenauer Marktplatz 9,25421,Pinneberg
8756509765,53.6603656,10.0846732,Markt Apotheke Poppenbüttel,,,
9235592158,53.5844816,10.1429996,,,,
9550580942,53.6790947,10.2588661,Beimoor Apotheke,,,
9729737922,53.5709812,9.9650303,antares apotheke Hohe Weide,Hohe Weide 17b,20259,Hamburg
9807232597,53.6243348,10.1675104,Nordland Apotheke,,,
10616282857,53.6280726,10.1679532,Elchapotheke,Spitzbergenweg 34c,22145,Hamburg
10712395172,53.6068274,9.9022997,Elbgau-Apotheke,,,
10745355889,53.6612541,9.8001237,Vita Apotheke,,,
11016798744,53.5713832,9.8918435,DiaExpert,,,
11027608662,53.5799894,10.1009166,Löwen-Apotheke,Ahrensburger Straße 100,22041,Hamburg
11054593235,53.5518781,9.9952529,An der Alster Apotheke,Ballindamm 40,20095,Hamburg
11079140584,53.5820525,9.9873164,Nikolai-Apotheke,,,
11364670084,53.5845602,9.8699613,Apotheke Im Globus,,,
11443585838,53.4600057,9.9819151,Arcaden Apotheke,Lüneburger Straße 45,21073,Hamburg
11613200907,53.5728661,10.0681643,Apotheke im Quarree,Wandsbeker Marktstraße 103 - 107 103 - 107,22041,Hamburg
11930170724,53.5276113,10.1492206,Easy Apotheke Mümmelmannsberg,,,
11930623129,53.5151557,9.9874958,Hubertus Apotheke,,,
11980673653,53.5536955,10.0067651,Apotheke International,,,
