id,lat,lon,name,street,zip_code,city
25903669,53.5338482,9.8660342,Bar 380,Finkenwerder Norderdeich 18a,21129,Hamburg
88875206,53.5468423,9.9694831,Tower Bar,,,
267624123,53.5521056,9.9295094,Reisebar,Ottenser Hauptstraße 30,22765,Hamburg
267624293,53.5537857,9.9284336,Aurel,Bahrenfelder Straße 157,22765,Hamburg
267625943,53.561234,9.9602864,Cafe Unter den Linden,Juliusstraße 16,22769,Hamburg
267626214,53.5610295,9.9606179,Berliner Betrüger,Juliusstraße 15,22769,Hamburg
267626220,53.5623128,9.9630847,Kostbar,Susannenstraße 36,20357,Hamburg
270727947,53.5545699,9.9287796,Quer,Bahrenfelder Straße 180,22765,Hamburg
271363141,53.551803,9.927173,Reh-Bar,Ottenser Hauptstraße 52,22765,Hamburg
272653877,53.5542278,9.928227,Familien-Eck,Friedensallee 2 - 4,22765,Hamburg
272654331,53.5546275,9.9276234,Scottys,Friedensallee 14 - 16,22765,Hamburg
278487896,53.5952145,10.0440803,La Belle 2,Fuhlsbüttler Straße 220,22307,Hamburg
278943489,53.5623976,9.9612198,Haus 73,Schulterblatt 73,20357,Hamburg
281352996,53.6496537,10.0268699,Vereinsheim,,,
287860170,53.5459439,9.9621444,StrandPauli,St. Pauli Hafenstraße 89,20359,
288785843,53.4468948,9.9915991,Im Tivoli,,,
288785844,53.4455155,9.9906998,Wilstorfer Hof,,,
289155989,53.4476234,9.9896717,Schnulze,,,
290635282,53.5614162,9.9615311,Le Fonque,Juliusstraße 33,22769,Hamburg
292133429,53.5674743,9.982269,Pony Bar,,20146,Hamburg
293068601,53.5620242,9.962467,Susanne 42,Susannenstraße 42,20357,Hamburg
293131916,53.6718846,9.9996429,Bistro Europa,Käkenflur 14 a,22419,Hamburg
295259712,53.5453223,9.952241,Eier Carl,Fischmarkt 3,22767,Hamburg
298579406,53.6413282,10.0371978,Come In,Hummelsbüttler Hauptstraße 55 e,22339,Hamburg
301997305,53.5577591,9.990525,Klimperkiste,,,
306526219,53.4634855,9.9813117,Antik,,,
306526225,53.4635704,9.9805502,The Old Dubliner - Irish Pub,,,
315107813,53.5509136,9.9794813,VielHarmonie,Markusstraße 17,20355,
315346664,53.5463202,9.9733162,Zur gemütlichen Ecke,,,
330506887,53.5716355,9.9767388,Mathilde Literatur & Café,Bogenstraße 5,20144,Hamburg
342038087,53.5463649,9.9541482,Christiansens,,,
360689907,53.5632752,9.9289595,Titanic Irish Pub,,,
360732713,53.4579072,9.9738814,Goescheneck,Marienstraße 37,21073,Hamburg
360732715,53.4585705,9.9762264,Marien Eck,,,
365997933,53.5689739,10.1735936,Barsbütteler Bierstübchen,Willinghusener Landstraße 11a,22885,Barsbüttel
370257374,53.6054827,9.8431478,scheene Perle,Lornsenstraße 88,22869,Schenefeld
373451004,53.575941,9.8471715,Rugen-Eck,,,
384426307,53.5880814,9.8749084,Janssens,,22549,Hamburg
386901985,53.5563329,9.9680793,Bertels,Feldstraße 73,20359,
388849682,53.5362372,10.0330654,Zur Mühlenklause,,,
388849693,53.5340089,10.043123,Robis Island,,,
391784966,53.5512758,9.9822892,Kamm In,,,
392108537,53.4707001,9.8534071,Marktschänke,,,
403775087,53.5978676,9.8625322,Holsten-Eck,Luruper Hauptstraße 250a,22547,Hamburg
404819725,53.6017946,9.8430047,Bei Mike,Parkgrund 19,22869,Schenefeld
410438495,53.5726134,9.9510086,Dreißig,,,
411016989,53.5794042,10.0412816,Metro Bar,Dehnhaide 2,22081,Hamburg
412469674,53.5337414,10.0451387,Cheers & Sasa,,,
438032644,53.5488785,9.9599637,Zum Silbersack,Silbersackstraße 9,20359,Hamburg
439294580,53.5906869,9.9888758,Schramme 10,,20249,
440624353,53.5794546,9.9794565,Die Glocke,Klosterallee 65,20144,Hamburg
441767732,53.5962792,10.040512,Pavlos-Eck,Oldachstraße 34,22307,Hamburg
442007936,53.5466845,9.9600022,Onkel Otto,,,
442007939,53.5465514,9.9600445,ahoi,,,
442148727,53.6916012,10.1659198,Croque Bistro am Pferdestall,Am Gutshof 1,22949,Ammersbek
443236859,53.5581398,10.0125642,KytiVoo,,,
457890269,53.553643,10.0088062,Paulaners Miraculum,Kirchenallee 47,20099,Hamburg
457891861,53.5559035,10.009589,M&V Gaststätte,Lange Reihe 22,20099,Hamburg
482848775,53.544474,9.9459206,Haifischbar,Große Elbstraße 128,22767,Hamburg
482848776,53.5445819,9.9461236,Zum Schellfischposten,Carsten-Rehder-Straße 62,22767,Hamburg
490185867,53.5480941,9.9821122,Gaststätte Dreyer,Martin-Luther-Straße 4,20459,Hamburg
514838145,53.5943078,9.986988,Café Borchers,Geschwister-Scholl-Straße 1-3,20251,Hamburg
540290062,53.6151268,10.1355929,Zum Spritzenhaus,,,
568082304,53.6267002,10.1403941,Moni´s Treff,Kriegkamp 4,22147,
575175283,53.5520661,9.9651603,Café Miller,Detlev-Bremer-Straße 16,20359,Hamburg
598263491,53.5560177,10.008123,Max und Consorten,Spadenteich 1,20099,Hamburg
606136479,53.574561,10.0709319,Feierabend,,,
611052824,53.5507084,9.9809458,The Irish Rover,Großneumarkt 8,20459,Hamburg
611334608,53.4893633,10.1581073,SportsBar,,,
613106740,53.5922398,10.0023746,Dorotheen-Eck,,,
619781193,53.7294973,9.9129877,Kamphuis,Kampstraße 57,25451,Quickborn
631831415,53.5687961,9.9951333,Gurke,,,
649176009,53.6233851,9.9544067,Tibarg Treff,,,
651431531,53.5708839,10.027745,Louisiana,,,
677043942,53.7098402,10.1016415,Zum Duvenstedter,,,
684220905,53.625761,9.94615,Schweizer Haus,Hadermanns Weg 57,22459,Hamburg
684220913,53.636311,9.9443318,Victors Bratkartoffel Restaurant,Quedlinburger Weg 84,22455,Hamburg
692085286,53.6043637,10.0422771,Balkan Bar,,,
697598832,53.5831808,10.0122982,Montys,,,
702592337,53.5779738,9.8142227,Aalreuse,,,
704522445,53.5500889,9.966405,Kuhstall,,,
708183784,53.5609514,9.9169923,Shovel Road,,,
767919941,53.5617709,9.9651662,Fritz Bauch,Bartelsstraße 6,20357,Hamburg
767919947,53.5628044,9.9636049,Astro Drink Bombe,Bartelsstraße 55,20357,Hamburg
773369923,53.6053077,10.0406713,No Name,Elligersweg 7,22307,Hamburg
786623774,53.5584379,9.9285634,Bar Vivo,Bahrenfelder Straße 260,22765,Hamburg
799205100,53.558978,9.9626451,Mutter,Stresemannstraße 11,,
800204313,53.5835023,10.0355598,Gaststätte & Clubraum USC Paloma,,,
821861248,53.6133959,9.9785454,Drei Eichen,,,
839947121,53.5815912,10.0986705,Zum Wandsetaler,Walddörferstraße 247,22047,Hamburg
841874172,53.5559477,9.9628998,Eldorado,Wohlwillstraße 50,20359,Hamburg
865211146,53.5855534,10.0812763,Die Narzisse,Friedrich-Ebert-Damm 49,22047,Hamburg
884715760,53.5530341,9.9297581,Gazoline,Bahrenfelder Straße 132,22765,Hamburg
894417090,53.5168078,10.0969933,Zur letzten Minute,,,
920055583,53.5595707,10.0535854,Zum Lohhof,Moorende 27,20535,Hamburg
960157548,53.5795608,10.0769561,Sunset Billard,Walddörferstraße 110,22041,
965124668,53.579903,10.0297473,Imstedt 4,,,
970198538,53.5799973,10.0814774,Holzmühlen Eck,,,
972783240,53.4484302,10.2215371,Zum alten Bahnhof,,,
974454572,53.5155177,9.9883521,Zum Wilhelmsburger,,,
975814175,53.5500782,9.9662151,Lehmitz,Reeperbahn 22,,
975907870,53.548592,10.0131459,"Ilohh, Bar am Ende der Welt",,,
976692746,53.5324011,10.1280726,KapellenEck,,,
982712447,53.4587645,9.9716282,Verona Café Bar,Julius-Ludowieg-Straße 78,21073,Hamburg
984098510,53.5649159,10.0512331,Ostria,Peterskampweg 48,22089,Hamburg
984099125,53.5679228,10.0488364,Holstenstübchen,,,
985215262,53.5823029,9.7587146,Gondel,,,
985216780,53.5815386,9.7549274,,,,
1004006266,53.5489567,9.9611336,Molly Malone,,,
1004006289,53.5488803,9.9611344,The Academy,,,
1004006290,53.5487121,9.9611679,London Pub,,,
1013602819,53.549125,9.9276636,Roth,,,
1055533242,53.5562205,9.9329659,Café Treibeis,,,
1076975393,53.5485671,9.9311446,Zur Traube,Karl-Theodor-Straße 4,22765,Hamburg
1078595076,53.5522127,9.930113,Gaststätte Möller,,,
1119858919,53.5350727,10.0301385,wildfang pub,,,
1137489073,53.5544951,9.9430025,Katz & Kater,,,
1138337471,53.5500785,9.9593819,Zur Ritze,Reeperbahn 140,,
1151348782,53.6457004,10.0118847,Bavaria-Insel,,,
1158060567,53.5528349,10.0213605,Treff bei Tassos,,,
1235047172,53.555705,10.1064019,Mittendrin,,,
1269116648,53.4961696,10.2050389,Sander Treff,,,
1306984712,53.6384651,9.8948515,Rosmarin,,,
1318030349,53.6361759,9.8403741,Holstenquelle,,25469,Halstenbek
1322638996,53.574887,10.0446517,Capri-Stube,,,
1343843515,53.6067964,10.1751025,,,,
1362945615,53.5592861,9.9469364,Aalhaus,Eggerstedtstraße 39,,Hamburg
1372532079,53.5459914,9.9655254,Dock 3 Beachclub,,,
1372532099,53.5460406,9.9642117,Sonnendeck St.Pauli,,20359,Hamburg
1393721519,53.5177796,10.2394613,TSV Tennis,,,
1393721529,53.5159346,10.2469069,Die Kleine Kneipe,,,
1422494210,53.6279504,10.1257772,Am Sportplatz,,,
1429251879,53.4642329,9.965931,Am Sportplatz,,,
1432609512,53.6189,10.0798694,Notaufnahme,Bramfelder Chaussee 329,22177,Hamburg
1449394661,53.4551121,9.986277,Marias Ballroom,,,
1479201659,53.5582352,10.0473431,Kanal 5,Sievekingdamm 22,20535,Hamburg
1493428319,53.5550875,9.9643151,Jolly Roger,,,
1503301954,53.5720603,9.9587634,Meisenfrei,Eppendorfer Weg 75,,
1506805952,53.5641969,10.0565098,Willys Bier-Bar,,,
1509959252,53.5601163,10.0503121,Anno 1960,Stoeckhardtstraße 31,20535,Hamburg
1520766760,53.6473441,10.1694193,Velvet Billardcafe,Eulenkrugstraße 66,22359,Hamburg
1561759656,53.593024,9.9665247,Lokstedter Treff,,,
1562385912,53.5749193,9.9636237,Fasan,,,
1562385914,53.5752722,9.9621395,NUTS,,,
1571194308,53.5473543,9.9571385,Café Geyer,,,
1571194363,53.5461935,9.9577662,Golden Pudel Club,St. Pauli Fischmarkt 27,20359,Hamburg
1571194417,53.5483829,9.9612176,La Paloma,Friedrichstraße 11,20359,Hamburg
1574464347,53.5479718,9.9317384,Alt-Ottensen,Holländische Reihe 2,22765,Hamburg
1574464601,53.5500528,9.9300406,Tatort,Bahrenfelder Straße 47,22765,Hamburg
1574464622,53.5467236,9.9316883,Zum Seeteufel,Elbchaussee 4,22765,Hamburg
1607039199,53.563102,10.0596805,Augustiner-Stubn,Caspar-Voght-Straße 80,20535,Hamburg
1611746747,53.5166228,9.984267,Ricks café,,,
1616141929,53.571159,10.0566005,Mini Bar,,,
1618694828,53.6120369,9.902492,Bahnhofsgaststätte,,,
1621590434,53.631709,9.9185463,Zur Endstation,,,
1637467944,53.5428013,10.2011249,Tannenkrug,,,
1641501234,53.571942,10.0154922,Hofweg Treff,,,
1656096459,53.4635627,9.9674536,Heimfelder Berg,,,
1657502652,53.53419,10.0461518,Helles Treff,,,
1680465003,53.5470687,9.9627778,Zur scharfen Ecke,,,
1696696425,53.5564556,9.9627022,Kurhaus,,,
1703316909,53.6169972,9.9761043,LSV Clubheimkneipe Petra + Harry,,,
1717908863,53.5367254,10.0335381,Barock Café Bar,,,
1722375520,53.564612,10.0422904,Der Kiebitz,Kiebitzstraße 27,22089,Hamburg
1725859427,53.4547525,9.984721,2 nach 4,,,
1774109533,53.5582514,10.0121743,Generation Bar,Lange Reihe 81,,
1797945643,53.5544781,10.0069884,Ohnsorg,,,
1809283337,53.5702203,10.0607198,Hammer-Klause,,,
1830269659,53.5497657,10.0032443,Kombüse,,,
1844965146,53.5663791,10.0196865,FreiRaum,Papenhuder Straße 22,22087,Hamburg
1861386397,53.5655301,10.0456473,MacFly,,,
1874112134,53.5779259,10.0211148,Zum guten Tropfen,,,
1874112412,53.5772634,10.0193499,Zum Uhlenhorster Bogen,,,
1878357280,53.5692055,9.964015,Hannes&Hanna Wohnzimmer,Weidenallee 60,,
1912139628,53.5517098,9.9801248,Gräbes,,,
1912498305,53.6583624,9.7995399,Barcode 23,Bahnhofstraße 23,25421,Pinneberg
1926030069,53.6083451,9.9945445,Heimbar,Alsterkrugchaussee 213,22297,
1939662457,53.5875512,10.0470383,Barmbek Express,Pestalozzistraße 17a,22305,Hamburg
1941855961,53.6021651,9.8374561,Annie´s Bar,,,
1946728813,53.5940262,9.869349,Pub in the City,Luruper Hauptstraße 181,22547,Hamburg
1979216193,53.5486529,9.992288,Irish Pub in the Fleetenkieker,Börsenbrücke 10,20457,Hamburg
2043627481,53.5465566,10.1067409,Bei Bärbel & Willi in Billstedt,Schiffbeker Weg 70,22119,Hamburg
2058057087,53.5559581,10.0072266,Zum Alten Ritter von St. Georg,,,
2062136891,53.5546053,10.0827556,Zum Kreisel,Horner Weg 278,22111,
2065596028,53.5387072,10.1221028,Sportsbar,Möllner Landstraße 123,22117,Hamburg
2069527903,53.5439586,10.1384464,Konoba,Öjendorfer Höhe 69,22117,Hamburg
2070285781,53.5559518,9.9580599,Hummel & Quiddje,,,
2070326026,53.5529816,9.963135,Crazy Horst,,,
2082402985,53.549799,9.980166,Wald,Großneumarkt 45,20459,Hamburg
2146415386,53.6407151,10.2171714,Bierstein,,,
2148881574,53.5515756,9.9254301,Lais,,,
2151596411,53.5514173,9.9814291,Zur gemütlichen Bierstube,,,
2252237416,53.5666707,9.9551092,,,,
2266884113,53.4332781,10.298208,Altengammer Fährhaus,,,
2278745587,53.5509128,9.9610337,Bambi auf St. Pauli,Hamburger Berg 14,20359,Hamburg
2295952033,53.5981832,10.0021938,Mäggis Eck,,,
2324861572,53.5774623,9.9444502,Zzzischer,Sillemstraße 53,,
2398737201,53.5930579,10.0010651,Alte runde Ecke,,,
2406056512,53.5744688,10.0689483,Wandsbeker Bothe,,,
2410714455,53.5586752,10.0132469,Frau Möller,,20099,
2417738030,53.6880203,10.0392382,Schäfers,Mittelstraße 74,22851,Norderstedt
2425237803,53.5865575,10.017207,Edenhall,,,
2442475456,53.5484284,9.959474,Rock Café,,,
2446675109,53.4440969,9.9990228,Cafe Pishkash,,,
2499504610,53.5597104,9.9642885,Schanz-Elyseé,Schanzenstraße 3,,
2531932825,53.5455709,9.9759587,Cantinho do Antonio,,,
2533943571,53.5501567,9.9649692,The Baby Goat Barn,Detlev-Bremer-Straße 49,20359,Hamburg
2534630379,53.5874959,10.0555219,Meisennest,Wachtelstraße 55,22305,Hamburg
2558286081,53.6712526,10.2391852,RamRob,,,
2561919088,53.4699463,9.7911713,Bockels-Bier-Bar,Bahnhofstraße 68,21629,Neu Wulmstorf
2603424799,53.5991785,9.9712966,Planet Billard,Offakamp 3,22529,Hamburg
2624457948,53.5741844,9.9403476,Bier-Kate,,,
2631836969,53.6506507,10.0973064,Treffpunkt gemütliche Kneipe,,,
2660274190,53.46083,9.9806064,Harburger Stube,Harburger Ring 20,21073,Hamburg
2685492754,53.5369355,10.1187983,Bei Angelika,Oberschleems 13,22117,Hamburg
2709275283,53.5815227,9.9704748,The Boilerman Bar,Eppendorfer Weg 211,20253,Hamburg
2732927763,53.4287427,10.2068243,Gasthof Kücken,Neuengammer Hinterdeich 54,21037,Hamburg
2790798393,53.5480276,9.9625177,Zum Anker,Davidstraße 12,20359,Hamburg
2907769783,53.5946629,10.0494557,Habicht 106,Habichtstraße 106,22307,Hamburg
2915720976,53.4611148,9.9801811,Die Treppe,,,
2919461598,53.5674523,9.9644894,Bodega,Weidenallee 45,20357,Hamburg
2923567468,53.6711043,10.2347484,Asche,,,
2997168633,53.5495686,9.9940431,Paddys,Schauenburgerstraße 40,,
3003194759,53.5485851,9.9614565,Rutsche,Friedrichstraße 22,,
3012490262,53.5798324,9.9487979,Behr,,,
3077517875,53.579345,9.9423147,Urknall,Sartoriusstraße 14,20257,Hamburg
3081687673,53.5549153,10.0133212,Wolle&Toddy,Brennerstraße 5,20099,Hamburg
3093507577,53.5646716,9.9766806,Ratsherrn Klause,,,
3095935676,53.4703665,9.8540946,Holsten Quelle,Neugrabener Bahnhofstraße 16,21149,Hamburg
3096116408,53.5807731,9.9444806,Samos Cafe Bar,,,
3124511499,53.5672521,10.0226918,Pub 34,,,
3139335725,53.5826888,9.9358798,Crazy Devils,Langenfelder Damm 86a,22525,Hamburg
3139335728,53.581437,9.9381878,Jokers Bar,Langenfelder Damm 50,22525,Hamburg
3167554075,53.4415015,9.9929977,Wilstorfer friends Bar,,,
3323888331,53.5898223,9.9189509,unabsteigBar,,,
3405439203,53.5508544,9.9610381,Hotel Hongkong,Hamburger Berg 14,20359,Hamburg
3422030193,53.5426399,10.0291573,Deichklause,Grüner Deich 27,20097,Hamburg
3426805365,53.5635781,10.0328065,Neuer Felsenkeller,Güntherstraße 96,22087,Hamburg
3508971331,53.5935662,10.0465156,Schwalben Eck,Heidhörn 6,,
3518800263,53.5510948,9.9625031,St. Pauli Eck,Simon-von-Utrecht-Straße 87,20359,Hamburg
3597178525,53.5574988,9.9691164,Libero,,,
3604847129,53.5822839,10.0640098,DulsBar,,,
3606658634,53.5912133,10.0389834,Ellewitt,,,
3609864330,53.5803634,10.0686509,Bei Pavlos,,,
3656956599,53.552416,9.9378259,Bergkate,,,
3656956600,53.5524699,9.9382674,Dutchman,Lamplweg 1,22767,Hamburg
3660822813,53.5775015,10.0593977,Haak,,,
3663810719,53.5781963,9.941955,Crazy Angels,,,
3664705943,53.5776649,9.9420934,Aurora,,,
3670653698,53.579757,9.9399782,Frau Hiebel,Sillemstraße 108,20257,Hamburg
3672023975,53.5779891,9.9478891,Kuddl,Hellkamp 23,20255,Hamburg
3675471824,53.5532817,9.9989146,Destille,,,
3688386317,53.5780364,9.9510345,Chrissis,,,
3694147670,53.5704417,9.9957461,Bierkrug,,,
3696097573,53.5790555,9.9500457,Arians Pub,,,
3703108533,53.5514541,9.9300699,Marktschänke,,,
3715499181,53.5828311,9.948229,Sports Lounge,,,
3767392665,53.5500558,9.966074,Cowboy & Indianer,Reeperbahn 25,,
3775016295,53.5505851,9.9647007,Tippel II,Detlev-Bremer-Straße 46,20359,Hamburg
3775047259,53.551706,9.9654058,St. Pauli Treff,Detlev-Bremer-Straße 21,,
3787562592,53.5500429,9.9659638,Lima Lima,Reeperbahn 29,,
3787637959,53.5543223,10.0100872,Zar und Zimmermann,Ellmenreichstraße 22a,,
3789710142,53.5485731,9.9611604,Hans-Albers-Eck,,,
3789710143,53.5485642,9.9613295,Murphy´s Irish Pup,,,
3805140485,53.5506274,9.9600101,Utspann,,,
3805275257,53.5557198,10.0619451,Hammer Eck,Horner Weg 50,20535,Hamburg
3807464389,53.5459666,9.9870261,The Bohemian,Deichstraße 36,20459,Hamburg
3831204657,53.5828058,9.9807225,Gaststätte Schröder,Hegestraße 1,20251,Hamburg
3838117242,53.5537927,10.0869946,Horner Marie,Rennbahnstraße 32d,22111,Hamburg
3880793641,53.598335,10.0928021,Treffpunkt,,,
3934798543,53.5861867,10.0171115,Clax,,,
3935562757,53.5914206,10.0482209,Jannis Treff,Hellbrookstraße 70,,Hamburg
3942090514,53.6811905,9.999769,Bierkrug,Schmuggelstieg 13,22419,Hamburg
3980767352,53.6839085,9.9962844,Breslauer Stube,Breslauer Straße 17a,22850,Norderstedt
3982083035,53.5890168,10.0502811,Wachtel Eck,,,
4022132544,53.5498573,9.961507,Elbschlosskeller,Hamburger Berg 38,20359,Hamburg
4022139682,53.550013,9.9611095,Zum Goldenen Handschuh,Hamburger Berg 2,20359,Hamburg
4075785941,53.5509106,9.9572765,Olivias Kiez Oase,,,
4116000226,53.6833503,9.9874602,Bistro Europa,Europaallee 8,22850,Norderstedt
4144366153,53.4573826,9.985589,Bla Bla,Seevepassage 1,21073,Hamburg
4144383201,53.4537338,9.9874123,Sandzak Klub Hamburg,Baererstraße 2a,21073,Hamburg
4144383862,53.4553481,9.9870227,Portugal Fanclub,Wilstorfer Straße 70,21073,Hamburg
4144383869,53.4546032,9.9872804,Corner,Wilstorfer Straße 82,21073,Hamburg
4184483653,53.7217241,10.0143918,Die Kleine Kneipe,,,
4208015491,53.5573538,9.972618,Klick,,,
4208033789,53.5572197,9.9723072,Kitty,Feldstraße 47,,Hamburg
4241769845,53.5486309,9.962411,Pils Börse,,,
4241770290,53.5489297,9.9623297,David Quelle,,,
4241770589,53.5487003,9.9624012,Journal,Davidstraße 19,20359,Hamburg
4243017206,53.5472607,9.9565168,Doppelschicht,,,
4247392547,53.6329186,10.054694,Borsteler Treff,Tornberg 35a,22337,Hamburg
4317407706,53.6090169,9.9038822,Gießkanne,,,
4318843595,53.6088273,9.9043328,im treff punkt,,,
4319965099,53.6050437,9.9492876,Kamin,Hinter der Lieth 42a,,
4360087006,53.6296141,10.0221781,Unicum,,,
4377983782,53.6481351,10.0152882,Marktstübchen,,,
4389100393,53.5502456,9.9808297,Mickys Bier & Cocktailbar,,,
4403337175,53.5597105,9.8879997,Köpi-Bar,,,
4406623097,53.5888419,10.0445898,Die Drossel,Drosselstraße 26,22305,Hamburg
4415553544,53.5607601,9.9597982,Lomo,,,
4421243421,53.582488,9.9771797,Falkenstübchen,,,
4558149886,53.4849352,10.0195171,,,,
4572862511,53.5682232,9.9951557,Kemps,Mittelweg 27,20148,Hamburg
4692609491,53.5490195,9.9597611,Zum Rettungsring,,,
4726386240,53.5708004,10.1233463,Sportsbar,,,
4743835872,53.557316,9.9656747,Tiefgang Bar,Neuer Kamp 9,20359,Hamburg
4756648773,53.516169,9.9850414,Pablos,Fährstraße 62,21107,Hamburg
4763457030,53.5682878,10.0515619,Paddys Bar,,,
4783321850,53.5646902,9.9591985,Büdel’s Bierdeckel,Schulterblatt 121,20357,Hamburg
4825827273,53.6062892,9.9001144,Elbgau Pub,,,
4866949329,53.5573154,9.9715177,Das kleine Phi,,,
4922067262,53.5878549,9.9692119,Victoria Klause,,,
4925162245,53.5481244,9.9628891,Zum Windjammer,Davidstraße 34,20359,Hamburg
4925162557,53.5482604,9.9624719,Anleger 15,,,
4942903532,53.5605731,9.9669496,Bei Marina,,,
4942970527,53.5551053,9.954799,Sunfood Bistro,,,
4950742210,53.6151051,9.8649468,Tunnelklause,,,
5026766024,53.5523124,9.9628928,Pamukkale,,,
5040711914,53.5574633,9.9662757,Meine Kleinraumdisko,,,
5056117583,53.4901523,10.208032,Engel,,,
5058433026,53.5555213,9.9831401,Das grüne Leuchten,,,
5142925452,53.5482812,9.9559785,Holsten-Schwemme,Herrenweide 2a,20359,Hamburg
5172798955,53.553881,9.9602103,Tortuga Bar,Bleicherstraße 27,22767,Hamburg
5172815425,53.5529365,9.9565778,Kleine Freiheit No. 3,Kleine Freiheit 3,22767,Hamburg
5250296416,53.5499774,9.9652756,Klapsmühle,,,
5254733338,53.5450024,10.0977432,Rustikate,,,
5282350252,53.5088054,10.1863801,Holsten Stube,Mendelstraße 26e,21031,Hamburg
5384341535,53.6528551,10.113742,Zwergenstübchen,Berner Weg 2a,22393,Hamburg
5682865681,53.5509553,9.9648378,Millerntor,,,
5682865682,53.5505527,9.9640581,Taub Trüb,Seilerstraße 38a,20359,Hamburg
5693881121,53.5804329,10.0389397,Weideeck,,,
5741226859,53.5529771,9.9584607,Herr Schmöll,Paul-Roosen-Straße 19,22767,Hamburg
5825775305,53.5568772,9.9251515,Borseleck,,,
5939395101,53.4650096,9.962172,AstraEck,,,
6187789124,53.5949988,9.9783031,Fricke 46,,,
6187789125,53.5945227,9.9836244,Bierkrug,,,
6208022256,53.4569807,9.9684565,Löschecke,Marienstraße 82,21073,Hamburg
6390414274,53.5500714,9.9566397,Thomas Read Irish Pub,Nobistor 10,,Hamburg
6454165102,53.552891,10.097891,Holsten Treff,,,
6461327866,53.4544248,9.9850564,El Greco,,,
6473966486,53.4907688,10.2092761,Nikos Treff,Reetwerder 9,21029,Hamburg
6515405751,53.58435,9.9797702,Vümpf,Eppendorfer Weg 276,20251,Hamburg
6543252112,53.6080657,10.0066947,circle8brewery,,,
6549451797,53.5497853,9.9684853,BrewDog St. Pauli,Reeperbahn 1,20359,
6594748194,53.4633811,9.9813277,Bierbrunnen,,,
6611773067,53.549889,9.9638936,Hamburger Alm,,,
6640328617,53.5755334,9.9551576,Mega’s,Osterstraße 74,20259,Hamburg
6648111225,53.4694144,9.9625949,Stader Tor 01,,,
6651811061,53.5939951,10.0445365,Queue Billiard Pub,Fuhlsbüttler Straße 184,22307,Hamburg
6815410273,53.5562826,9.9630481,Kante,Wohlwillstraße 54,20359,Hamburg
6872035867,53.5535624,10.0061667,Löwenbräu,,,
7523185631,53.5093346,10.2511197,John o Groats,,,
7692945661,53.6296662,9.9278022,Frohme Stübchen,,,
7781583592,53.5405695,10.2108789,The Central Bar,,,
8000485087,53.6214041,10.0822938,Bramfelder Inn,,,
8237691094,53.4720843,9.8886641,Hausbrucher Hof,,,
8319624514,53.6518134,10.0944631,Stormarns Eck,Stormarnplatz 1,22393,Hamburg
8483143919,53.4208646,10.0249656,Bierapotheke,,,
8582861613,53.5492043,9.9481999,Heidis Bierhütte,Mörkenstraße 4,22767,Hamburg
8732181758,53.5800465,9.9390468,Zilles Eck,,,
8827106489,53.4578961,9.9863492,Zur Stumpfen Ecke,,21073,
8881113980,53.5605816,9.9483159,Connys Bierkiste,Holstenstraße 191,22765,Hamburg
8992645899,53.6366158,9.9172976,Schnelsener 1,Burgwedel 1,22457,Hamburg
9155661719,53.5538408,10.0108704,Bar Kunterbunt,Bremer Reihe 20,,
9177121317,53.5498962,9.9580612,Mausefalle,,,
9195796867,53.6138374,9.898797,Zum Baumacker,,22523,Hamburg
9214586956,53.5510187,9.9610259,Parzelle,Hamburger Berg 15,20359,Hamburg
9223594390,53.5156793,9.9931461,The Island,,,
9387869984,53.515315,9.9930185,Friends2,,,
9431952230,53.5794467,9.9657945,Cont(r)a Sportsbar,,,
9809496268,53.6535102,10.1151882,Lobby No. 12,Waldweg 12,22393,Hamburg
9849038893,53.6038555,9.900202,Sportcafe Eidelstedt,,,
9941762827,53.6175289,10.1428699,Apos Bistro,,,
10137844391,53.5670145,9.9569927,The Pub Formerly Known As Froggys,,,
10157460144,53.5512355,9.963728,Angis Pub,Simon-von-Utrecht-Straße 20,20359,Hamburg
10199186708,53.5608815,9.9676439,Omnipolos Pizza & Beer,Kampstraße 36,,
10210786972,53.5166899,9.9829954,Baron,,,
10313414999,53.7165466,10.0021371,Zur Mausefalle,Weg am Denkmal 4,,
10738153672,53.5860569,10.1240301,Tonndorfer Burg,,,
10771210004,53.5507752,9.9577715,Safari Bierdorf,,,
10778106045,53.5485879,9.9622314,Blaue Nacht,Friedrichstraße 4,,
10778134009,53.5482628,9.9598082,Hausverbot,Friedrichstraße 36,20359,
10778134010,53.5482228,9.9596576,Nordlicht,Balduinstraße 28,,
10811393332,53.6832571,9.978435,Papperlapapp,Friedrich-Ebert-Straße 2,22848,Norderstedt
10816197045,53.5579098,9.9005465,Queue Billard Pub,,,
10819070079,53.6282797,10.1683422,Troja,Spitzbergenweg 36a,22145,Hamburg
10991317650,53.5503722,9.9610973,Rosis Bar,,,
11016454258,53.5733746,9.8928292,Halbzeit,,,
11099094196,53.6108397,10.0600921,Holstenstube,Schreyerring 51,22309,Hamburg
11180594048,53.566469,9.9097982,Meiers Inn,,,
11180620582,53.5672183,9.9067676,Bahrenfelder,,,
11188844729,53.6002119,10.0414238,Barmbeker Tönnchen,Fuhlsbüttler Straße 326,22307,Hamburg
11231047695,53.6035627,10.0525171,Bramfelder Bürgerstuben,,,
11272631010,53.6515096,9.7998744,Köpi-Stube,Rethwiese 2,25421,Pinneberg
11366967419,53.5482902,9.9606722,Hans-Albers-Klause,,,
11366997942,53.5485447,9.9604641,Rotlicht Hamburg,,,
11390010348,53.5166483,9.9901391,Zum Bierstübchen,,,
11755972635,53.5560189,10.0373595,Cafe Habibi,,,
11799692380,53.5505311,9.9574138,Ilays Pub,,,
11810377269,53.6077788,10.1173553,Zaubermaus,August-Krogmann-Straße 18,,
11813209568,53.5883012,10.0421825,Kult,Hufnerstraße 92,,
11883895736,53.5630939,10.032951,Zum Flensburger,,,
11883905898,53.563687,10.0325834,Neuer Felsenkeller,,,
11910275144,53.5603655,9.947986,Holstenquelle,,,
11910275227,53.5609688,9.9479412,Anno 1904,,,
11915668713,53.5385527,10.1271219,Abis Bar,,,
11925396878,53.5179742,9.9943515,Gaststätte Anpfiff,,,
11951621536,53.5484108,9.96129,Astra Bar,,,
12075222126,53.5555384,9.9339673,Tünel,,,
12075279138,53.5543332,9.9331984,Condor,,,
12116822517,53.5487682,10.0904647,Horner Corner,,,
