id,lat,lon,name,street,zip_code,city
25776282,53.5788725,10.0436269,Most wanted Burger,,,
68424433,53.6492729,10.1638408,deFries express,Claus-Ferck-Straße 6,,
92786039,53.5526122,10.0201481,McDonalds,Beim Strohhause 8,20097,Hamburg
245564422,53.4582281,9.9809377,Yoko Sushi Harburg,Bremer Straße 14,21073,Hamburg
253398184,53.5397985,10.1042648,McDonalds,Möllner Landstraße 7a,22111,Hamburg
253417386,53.5442223,10.0253489,Subway,Hammerbrookstraße 92-94,20097,Hamburg
268808540,53.5491525,9.9623069,Burger King,Reeperbahn 75,20359,Hamburg
268808549,53.5497556,9.9611087,KFC,Reeperbahn 100,20359,Hamburg
274952089,53.4688488,10.2801624,Löwen-Grill,,,
282221635,53.6942002,10.3240456,Burger King,Herbertweg 1,22965,Todendorf
286304304,53.5617762,9.9624035,SCHMITT Foxy Food,Schulterblatt 70,20357,Hamburg
288561703,53.4313373,10.1156556,Kleines Glück am See,,,
289788329,53.5636383,9.9593991,Schanzen Chicken,Max-Brauer-Allee 277,22769,Hamburg
291167140,53.4561239,9.9915989,Mathewes Grill,,,
295037437,53.5500499,9.9658702,Hesburger,Reeperbahn 29,,
296097118,53.6847046,9.9852402,Burger King,Berliner Allee 38-44a,22850,Norderstedt
297644968,53.5547687,9.9288592,Kimchi Guys,,22765,
298579404,53.641441,10.0373394,,Hummelsbüttler Hauptstraße 55 b,22339,Hamburg
308016826,53.6572802,9.9064406,Kos Grill,Kieler Straße 39,25474,Bönningstedt
309795469,53.5627238,9.9157956,Meetpoint Café & Bistro,,,
311462914,53.5524869,9.9336854,Burger King,,,
312943843,53.4218533,9.981692,Virginia Burger,,,
315220039,53.6560237,9.7976381,Juli Food,Bahnhofstraße 3a,25421,Pinneberg
315970480,53.5423035,10.1691543,Imbiss Akropolis,,,
316955347,53.5883805,9.8491582,Dürüm Grill Imbiss,,,
320203719,53.5637914,9.9199112,Dominos,,,
322753353,53.5734599,9.8923162,Arena Imbiss,,,
341792058,53.5567809,10.0106212,Miss Döner,Carl-von-Ossietzky-Platz 1,20099,Hamburg
364428621,53.5985688,9.8588047,Dominos,,,
366994071,53.5979565,9.8621084,Döner Kebab,,,
367671030,53.5456892,10.024145,Asia Thanh,,,
368458523,53.599509,10.1180005,Pad Thai,Berner Heerweg 98,22159,Hamburg
369801641,53.5406382,10.2019192,Kliemanns Grill,,,
369815352,53.5689529,10.1738795,Tasty Croque Barsbüttel,Willinghusener Landstraße 11b,22885,Barsbüttel
370288272,53.598638,9.848728,King Döner,,22869,Schenefeld
370321577,53.6085933,10.1857571,bp Kantine,,,
370745952,53.6245215,10.1152206,Crazy Croque,Pezolddamm 156,22159,Hamburg
378852770,53.6660416,9.9884497,Grill Palast Pommes Prinz,,,
385080033,53.5524982,9.9459077,Pizza Deal Altona,Hospitalstraße 24,22767,Hamburg
388849689,53.5337842,10.0449303,Asia Pham,Vierländer Damm 52,20539,Hamburg
391511923,53.7214278,9.9020729,Zum Krokodil,Güttloh 1-5,25451,Quickborn
391557771,53.7310249,9.8956695,New Empire Pizza Service,Kieler Straße 87,25451,Quickborn
391577604,53.7312089,9.8968356,Quick Köz Grill Döner & Pizza,Bahnhofstraße 4,25451,Quickborn
394086462,53.5548135,9.9623522,Kleine Pause,Wohlwillstraße 37,20359,Hamburg
405202108,53.5841717,9.89511,Picknick,,,
408798336,53.5390989,10.0465787,,,,
408799599,53.5379353,10.0515717,Schlemmerkiste,,,
409382650,53.5810404,10.012296,Limon,Mühlenkamp 18,22303,Hamburg
410213299,53.5460464,10.0393127,Mansha Burgers,,,
410296267,53.5367351,10.0641994,Petit Bistro,,,
410438724,53.5733288,9.9497206,Mundfein,,,
411016967,53.5613808,10.0374882,Sphinx Döner,Landwehr 39,22087,
411016990,53.579927,10.0417843,Kimchi Sushi,Barmbeker Markt 37-38,22081,Hamburg
411016992,53.5810127,10.0430998,Asia Haus,,,
411016995,53.5819254,10.0443713,Pizza Max,,,
412408907,53.567199,9.981268,Uni Döner,Grindelhof 2-6,20146,Hamburg
412410376,53.567357,9.9814486,Kumpir,,20146,Hamburg
415007280,53.535564,9.7893606,Elbblick - Grill,,,
416688013,53.5971132,9.9416993,,,,
418169963,53.5488415,9.9601956,Kiez Curry,,,
425632753,53.4667319,9.7926621,Mr. Kebab,,21629,Neu Wulmstorf
436127561,53.5546953,10.0084662,Jim Block,Kirchenallee 37,20099,Hamburg
437558657,53.5521601,9.9956384,Subway,Ballindamm 38,20095,Hamburg
441072638,53.6784039,10.1473769,Isi Grill,,,
442137109,53.5526324,9.9932154,Mö Grill,,,
443490461,53.563264,9.965264,Kumpir,Schanzenstraße 95,20357,Hamburg
444718586,53.5637417,9.9656813,McDonalds,,,
448907155,53.5943135,9.9963819,Lucullus,,,
449546438,53.6524582,10.261193,Pizza Pasta Großhansdorf,Ahrensfelder Weg 9,22927,Großhansdorf
449588182,53.5959214,10.0437989,Peters Hähnchengrill,Fuhlsbüttler Straße 226,22307,Hamburg
454619034,53.646179,10.0121032,Smileys Pizza Profis Langenhorn,Langenhorner Chaussee 159,22415,Hamburg
458703194,53.4595209,9.8073579,Imbiss Freibad Neu Wulmstorf,,,
471778130,53.5641275,10.057299,Easy Croque,Marienthaler Straße 148,20535,Hamburg
482516748,53.5601993,9.9636318,Haus des Döners,Schulterblatt 16,20357,Hamburg
482847317,53.550912,9.9440646,Dominos,Jessenstraße 10,22767,Hamburg
489564008,53.5473373,10.0506228,Taj Mahal,Borstelmannsweg 145,,
518362175,53.4243299,10.2953027,Imbiss Stover Strand,,,
533916049,53.5703159,10.0265596,Burger King,Mundsburger Damm 67,22087,Hamburg
536391103,53.5529071,10.0103267,Gaziantep,,,
536391105,53.5527609,10.0109025,Sait,,,
536391107,53.5530302,10.0106022,Köz Istanbul,Steindamm 5,20099,Hamburg
536391112,53.554733,10.014368,Kebap Salonu Urfa,,,
539480803,53.6502298,10.1627591,Mega Döner,,,
544750047,53.5519305,9.9949452,McDonalds (closed),Ballindamm 40,20095,Hamburg
551491417,53.5459924,10.0246165,Sultans,,,
551779793,53.5478886,9.9870417,Rödings Döner,,,
553104084,53.548402,9.9880184,Piccoli Pasti,Großer Burstah 53,,
555016295,53.550351,9.968921,Five Guys,Millerntorplatz 1,20359,Hamburg
569077554,53.5672078,9.980541,Qrito,,,
569078109,53.566961,9.9804361,Curry Grindel,,,
576979760,53.5508627,9.9823804,Kardelen,Steinwegpassage 6,20355,Hamburg
576979768,53.5513692,9.9825172,Neustädter Grill,,,
577254540,53.5639852,9.8140547,Blankeneser Imbiss,,,
583611894,53.6030599,10.0510056,Call a Pizza,Steilshooper Straße 255,22309,Hamburg
597321771,53.5675665,9.9518018,burgerme,Eimsbütteler Straße 86,22769,Hamburg
597340767,53.6197068,9.9525078,Tibarg Kebap Haus,Tibarg 32a,22459,Hamburg
601012677,53.7148355,10.0001743,Smileys,Ulzburger Straße 328,22846,Norderstedt
604672874,53.5700043,10.0260766,Subway,Mundsburger Damm 61,22087,Hamburg
621101996,53.5663196,9.9802217,Croque Hütte,,,
627571045,53.6699922,10.2358914,Smilies Pizza Service,,,
627572984,53.6704814,10.2345647,Pizza Max,,,
639631011,53.6035778,9.8930812,Ess-Bahn Döner-Grill,,,
639631013,53.6066439,9.9019514,Yak,Elbgaustraße 28,22523,Hamburg
646972116,53.4929487,10.0133714,Furkaan Imbiss,,,
650363554,53.5921335,10.0445026,Haj Ali Kebab,Fuhlsbüttler Straße 168,22305,Hamburg
662891037,53.6440667,9.8121982,Döner Grill,,,
663174802,53.5453067,9.9669179,Pommes Spezial,Bei den St. Pauli-Landungsbrücken 6,20359,Hamburg
663305078,53.607923,9.8400272,Arnoldi,Lornsenstraße 111d,22869,Schenefeld
671916150,53.4699096,9.853932,Grillhaus Neugraben,Neugrabener Markt 2,21149,Hamburg
674041908,53.5889067,10.0459811,Fuhle Grill,Fuhlsbüttler Straße 110,22305,Hamburg
690855635,53.5853968,10.0265678,Döner Queen,Jarrestraße 57,,
695548977,53.6066541,10.0119095,Sato Grill Imbiss,Heubergredder 52,22297,Hamburg
698328368,53.5728874,9.8423376,Robbys Pizza Drive,,,
699666070,53.5578974,10.0464765,Hazar Grill,Carl-Petersen-Straße 74,20535,Hamburg
699859716,53.5798531,10.0312305,Croque Factory,Weidestraße 85,22083,Hamburg
703372865,53.6501682,9.8282805,Muckefuck,Hauptstraße 39a,25462,Rellingen
705977806,53.5930926,10.0203352,Minigolf im Stadtpark,,,
710567583,53.4608839,9.9797581,Döner Queen,,,
719391895,53.6327949,9.9113477,Döner Pavillion,Oldesloer Straße 2,22457,Hamburg
728489833,53.4580027,9.9660608,Elbdöner,,,
735409821,53.6497349,10.0140161,Reina,,,
735861718,53.5733943,9.8921892,Toni Pizzeria,,,
740412872,53.5408453,9.9875949,Kaiserperle,Am Kaiserkai 47,20457,
761175803,53.562761,9.964912,Shikara QUICK,Susannenstraße 20,20357,Hamburg
761953295,53.55706,10.0105144,Asia M 43,,,
764870948,53.5616642,9.9486273,Holsten Döner,,,
767919936,53.5623716,9.9645277,Asia Imbiss WOK,Bartelsstraße 28,20357,Hamburg
767919938,53.5622755,9.9646188,Polokantine,Bartelsstraße 26,20357,Hamburg
767925894,53.5637326,9.9607314,MyAsia,Altonaer Straße 6,20357,Hamburg
768104268,53.5615161,9.9625972,La Famille,Schulterblatt 62,20357,Hamburg
768107820,53.561408,9.9626804,Fischimbiss Schabi,Schulterblatt 60,20357,Hamburg
772975136,53.6329803,10.055142,Mein Döner,Tornberg 34,22337,Hamburg
773369184,53.6088943,10.0515649,Burger King,,,
773369925,53.6029998,10.0409423,Wokman,Fuhlsbüttler Straße 412,22309,Hamburg
775947384,53.5448488,9.9713617,Nordsee,,,
776018730,53.6220845,10.1549474,HDs Imbiss,,,
811253668,53.6653891,9.9043263,City Pizza und Döner,Kieler Straße 109,25474,Bönningstedt
835615953,53.5905886,10.0152781,Stadtpark Grill,,,
835616025,53.5883877,10.0046433,Call a Pizza,Dorotheenstraße 140,22301,Hamburg
841896019,53.564409,9.9653614,Falafelstern,Schanzenstraße 111,20357,Hamburg
842577229,53.5801327,10.1038379,Söner Kebab,,,
863280541,53.541234,10.099529,McDonalds,,,
864921542,53.4204424,10.0212259,MUNDFEIN Pizzawerkstatt Seevetal,,,
874842154,53.6471411,9.9085917,Onkel Döner,,,
884705394,53.5510063,9.9298422,Mr. Dam,Mottenburger Twiete 4,22765,Hamburg
884719115,53.5534412,9.9292837,Burger Heroes,Bahrenfelder Straße 146,22765,Hamburg
897150590,53.5327508,10.1270156,Hähnchengrill Jührs,,,
898840665,53.5927343,10.0439616,Ardacan Grillhaus,,,
942928849,53.5931485,9.9437272,Kebap Lounge,Koppelstraße 45,22529,Hamburg
956350492,53.5578861,9.9630618,Imbiss bei Schorsch,Beim Grünen Jäger 14,20359,Hamburg
956788681,53.5656437,10.0575412,Saigon Food,Hammer Steindamm 53,22089,Hamburg
960159025,53.5801534,10.0813459,Pierro Croque & Pizza,Holzmühlenstraße 31,22041,Hamburg
968065687,53.5579344,10.0355229,Drive Pizza,Bürgerweide 62,20535,Hamburg
970280413,53.7126448,9.9927883,Froque Croque,Waldstraße 38,22846,Norderstedt
976181722,53.6049708,10.1582373,Dutch,,,
977466073,53.6059248,10.1185327,Burger King,Berner Heerweg 173-175,22159,Hamburg
977547420,53.6724023,9.793825,Burger Lounge,Elmshorner Straße 115,25421,Pinneberg
978789521,53.6109783,10.0580549,Ali Köz,,,
981589253,53.4573081,9.9863114,Delikato,Seevepassage 3,21073,Hamburg
981645577,53.4571985,9.9875075,Lavas,,,
982639372,53.525858,10.0203619,Imbiss Tetova,Veddeler Stieg 4,20539,Hamburg
983585381,53.5520575,10.0120247,Soulkebab,,,
984515014,53.5303762,10.125397,Arams Pizza,Steinbeker Hauptstraße 70,22117,Hamburg
984538073,53.4601305,9.9754085,Uni Grill Döner,,,
984618253,53.4440383,9.9989324,Pizza Max Harburg,Mensingstraße 3,21079,Hamburg
984794821,53.489283,10.2440731,Napoli Pizza Haus,,,
985215264,53.581912,9.7566987,,,,
986906947,53.5462063,10.0244321,Asia-Imbiss,,,
991586346,53.5725337,10.0676996,Jim Block,Wandsbeker Marktstraße 97-99,22041,Hamburg
1026535049,53.5678756,9.9442309,Ready Pizza,Kieler Straße 54,22769,Hamburg
1026535050,53.5685837,9.9438012,Priyas Food,,,
1030885635,53.6207849,10.031489,Tekin,Fuhlsbüttler Straße 761,,
1035374455,53.5748786,10.0399439,Adana Grill,,,
1055516093,53.5484027,9.932637,Masala,,,
1076972268,53.547797,9.9317056,Mai Asia Imbiss,,,
1078592709,53.5519378,9.9296094,Salman Imbiss,Ottenser Hauptstraße 33,,
1084080755,53.552603,9.929873,Green Papaya,Bahrenfelder Straße 105,22765,Hamburg
1106541797,53.5528772,9.9296276,Bey Kebab,Bahrenfelder Straße 115,22765,Hamburg
1135977375,53.5618481,9.9617975,Pizza Pazza,Schulterblatt 69,20357,Hamburg
1149418654,53.6284727,10.0237924,Kebab For Friends,Erdkampsweg 35a,22335,Hamburg
1172077827,53.580824,10.0235014,CroqueLaden,,,
1193587982,53.5667266,9.907775,burgerme,Bahrenfelder Chaussee 75,22761,Hamburg
1228036342,53.6084918,9.9035679,Quick,Eidelstedter Platz 9,,Hamburg
1256749974,53.5560344,9.8045995,,,,
1269116635,53.4981799,10.203097,MrBeef Hamburg,,,
1269116646,53.4971493,10.2042633,Taverna Alexandros,Lohbrügger Landstraße 26,21031,Hamburg
1278484419,53.4871667,10.1808287,Akropolis,,,
1280186495,53.5556486,10.0632068,Hammer Pizza,Horner Weg 66,20535,Hamburg
1304228770,53.6704968,10.0204907,,,,
1304569150,53.6483656,10.0155145,Dein Döner,,,
1306984633,53.6529483,9.8292822,Berlin Döner,Hauptstraße 61,,
1317305560,53.5748956,10.0400525,speedcroque,,,
1318030348,53.6363387,9.8399054,Görner Grillstation,Hauptstraße 49,25469,Halstenbek
1334359099,53.5818928,9.7563502,,,,
1334359100,53.5817791,9.7546392,Pizza Johlo,Rissener Dorfstraße 53f,22559,Hamburg
1334359103,53.5826284,9.7541776,Dominos,Wedeler Landstraße 58,22559,Hamburg
1343921383,53.6042492,10.1547849,Sultans Kepub,,,
1346163695,53.5508963,9.9303039,Bliss,Bahrenfelder Straße 88,22765,Hamburg
1346177410,53.6975695,10.2415628,Grillstube,,,
1379951513,53.4653152,9.9621853,Hatay,,,
1385113455,53.6792743,9.9679448,Papp Satt,Friedrichsgaber Weg 5,22848,Norderstedt
1391523601,53.5687775,9.98009,arrabiata,Grindelallee 132,20146,Hamburg
1391523618,53.5660967,9.9824643,Falafel Haus,Grindelallee 44,20146,Hamburg
1391540159,53.5654267,9.9833042,Spiesserei,Grindelallee 32,20146,Hamburg
1396884469,53.57719,10.19135,Miss Pepper,,,
1404346774,53.598322,9.849935,Döner-Burg,,,
1406915805,53.5527926,10.0414385,Serhat Döner,Eiffestraße 95,20537,Hamburg
1411316586,53.6890217,10.2592405,Blondos,Ewige Weide 6,,
1432023193,53.5763071,9.9431818,NANGLO Asia Imbiss,,,
1434216118,53.5545262,9.928462,Ottos Burger,Bahrenfelder Straße 175,22765,Hamburg
1434784142,53.5613053,9.9482158,Monsieur Alfons,Holstenplatz 15,22765,
1451126887,53.5608348,9.9480312,bock auf asia,Holstenstraße 203,,
1475015125,53.6139625,10.0756187,eatstanbul,Bramfelder Chaussee 251,22177,Hamburg
1475057819,53.6211274,10.1027775,Der Giros-Spezialist,Pezolddamm 45,22175,
1478145906,53.5980158,9.9377131,,,,
1496197257,53.5493609,9.9589603,Köz Antep Gülbaba,,,
1500705095,53.4899888,10.2058631,Pamukkale,,,
1500705988,53.4894318,10.2069216,McDonalds,,,
1500707347,53.4900335,10.2087813,Best Grill,,,
1502662568,53.5799704,9.9746642,Subway,Hoheluftchaussee 28,20253,Hamburg
1503044982,53.7234519,10.2507472,,,,
1503301949,53.57398,9.9593076,Croque du Nord,,,
1504507535,53.5801576,9.9682391,Eppendorfer Grillstation,,,
1508523202,53.5634048,10.0608498,Casa Roma,,,
1510711794,53.7298455,10.2629539,Zentrum Grill,,,
1530319607,53.4823644,10.2095475,Sis Kebap,Curslacker Neuer Deich 31,21029,Hamburg
1532564266,53.6018967,10.0623621,Sultans Kitchen,,,
1532564279,53.6019365,10.0623876,www.croxycroque.de,,,
1542144553,53.5564453,9.9883491,Jim Block,Dammtorstraße 29-32,20354,Hamburg
1562338728,53.5776886,9.9638213,Dominos,,,
1562338832,53.5841112,9.9686673,Sel Kebaps,,,
1566028446,53.6488455,9.927737,IKEA Restaurant,,,
1571347963,53.5520306,10.0111017,McDonalds,Adenauerallee 78,20097,Hamburg
1578691351,53.6742175,10.2364164,Wanted,,,
1579342339,53.5498615,10.0012152,Söhne Hamburgs,,,
1589271207,53.5732441,9.8931259,Kings Croque,Luruper Chaussee 129a,22761,Hamburg
1599630483,53.5932705,9.9447378,Pronto Pizza,Koppelstraße 49a,22529,Hamburg
1603488344,53.6117459,10.0565261,La Famille,Schreyerring 23,22309,Hamburg
1613188299,53.5595688,9.8818334,"Jayjays Bowls, Juices & more",,,
1616141938,53.5686354,10.0514335,Chinaland,Wandsbeker Chaussee 201,22089,Hamburg
1617465733,53.6024751,9.9119144,Asia Hub,,,
1618694832,53.6083252,9.9055373,Dominos,Eidelstedter Platz 24,22523,Hamburg
1618694833,53.6064786,9.9011892,Mr. Zapata,Elbgaustraße 34b,22523,
1618694835,53.6122014,9.8985156,Metaxa,,22523,Hamburg
1637627143,53.5509049,9.9815624,Anh Dao,Wexstraße 33,,Hamburg
1638404401,53.5227739,10.014399,Sallis Food Center,,,
1638974745,53.5406336,10.201318,KlienmannS Croques,,,
1639022132,53.5414122,10.2142054,Glinde Markt Kebap Haus,,,
1639582145,53.546936,10.1532397,McDonalds,Willinghusener Weg 1,22113,Oststeinbek
1639584273,53.5467282,10.1532751,Asia Fu Loi,Willinghusener Weg 1,22113,Oststeinbek
1639586663,53.5459761,10.1531815,WeZa Chicken,,,
1642126676,53.5537693,10.0654977,Akropolis,Hammer Landstraße 234,20537,Hamburg
1648287832,53.5974288,10.1022685,Asia Qing Dao,,,
1649446485,53.5465927,10.0870819,Horner Grill,Horner Landstraße 329,22111,Hamburg
1656096430,53.460485,9.9759128,Croque Master,Eißendorfer Straße 16,21073,Hamburg
1656096468,53.4601221,9.9767309,KebapWelt,,,
1664435789,53.5420698,9.9939978,Gustav Grün,,,
1670403390,53.5803557,10.0612399,Dithmarscher Grill,Dithmarscher Straße 49,22049,
1689398315,53.5620255,10.0599778,Monsieur Croque,,,
1714480798,53.5723403,9.9192628,Hagenah Imbiss,Schnackenburgallee 8,22525,Hamburg
1721795024,53.7284128,10.2590088,Babylon,Hamburger Straße 2,22941,Bargteheide
1722375571,53.5629662,10.0360292,Mundfein,Landwehr 19,22087,Hamburg
1725458216,53.7313982,9.9045607,Zilan Döner,Bahnhofstraße 116,25451,Quickborn
1725862274,53.7285572,10.2688978,Berlin Döner,Bahnhofstraße 7,22941,Bargteheide
1728060693,53.5704244,9.8625914,Nordsee,Osdorfer Landstraße 133-135,22609,Hamburg
1752628887,53.5497452,9.9606761,Mardin Döner,Reeperbahn 108,20359,Hamburg
1760346082,53.5506015,9.9603333,Pauli Pizza,,20359,
1761244792,53.5861495,10.1234851,Nonnos Pizza-Manufaktur,Tonndorfer Hauptstraße 59,22045,Hamburg
1762229021,53.5931057,10.0439267,Jim Block,Fuhlsbüttler Straße 165,22307,
1769807235,53.5920192,10.0445288,Chicken Spot,,,
1778946050,53.5971858,9.9971991,Kirat Asia Imbiss,Alsterdorfer Straße 50,22299,Hamburg
1802002365,53.6305165,9.9259635,Call a Pizza,Frohmestraße 78d,22459,Hamburg
1803233693,53.5798767,10.03104,Fresh Taste,,,
1803268233,53.552857,10.0462832,Dominos Pizza,Eiffestraße 127,20537,Hamburg
1805471320,53.6266249,10.0235743,Sushi Bravocado Fuhlsbüttel,,,
1807343478,53.607099,10.1181152,Ardacan Grill,,,
1808645945,53.7046638,10.0071612,Kalkan Kebap House,Alter Kirchenweg 33-41,22844,Norderstedt
1811595186,53.5523283,10.0413076,Quick Sushi Wok,,,
1819224651,53.5734812,10.0707447,Dominos,Wandsbeker Marktstraße 141,22041,Hamburg
1819868879,53.596723,10.072573,Food Lovers,Werner-Otto-Straße 43,,
1823162403,53.573215,10.071175,Shiraz,,,
1832080751,53.5923247,10.0753892,Balat Imbiss,,,
1843004778,53.5619303,9.9155896,Olivia,,,
1844932181,53.5663701,10.0206105,Sabai Jai,Mundsburger Damm 21,22087,Hamburg
1844940229,53.5664961,10.0208295,Mr. Hang,Mundsburger Damm 23,22087,Hamburg
1846396589,53.4885063,10.2112721,Jim Block,Sachsentor 2,,
1859083245,53.5829023,9.9481632,Döner Grillhaus,Eidelstedter Weg 68,20255,Hamburg
1860340134,53.6068381,10.1189595,Croque Crepes,,,
1862001240,53.6404014,9.9482786,Croque Point,Nordalbingerweg 17,22455,Hamburg
1873431670,53.4800631,9.8748493,Dream Döner,,,
1883795284,53.555512,9.9839197,Dominos Pizza,Valentinskamp 30,20355,Hamburg
1883795295,53.5502039,9.9807257,New City Smash Burger,Großneumarkt 54,20459,Hamburg
1884436074,53.5828822,10.0554908,Asia Imbiss,,,
1893849875,53.712737,9.9995247,Ha Long,,,
1893849918,53.7153482,9.9996077,Arkadasch Schnell-Restaurant,Ulzburger Straße 407,22846,Norderstedt
1893849968,53.719458,9.99874,Bugsy Burger,Ulzburger Straße 358,22846,Norderstedt
1900276436,53.6224006,10.1652636,Croque Insel,,,
1900289323,53.6224468,10.1660261,Meister Food,,,
1906849667,53.6079323,10.1169907,Heisse Ecke Döner,August-Krogmann-Straße 22,22159,Hamburg
1909865759,53.5492404,9.9936342,Asiahung,Kleine Johannisstraße 20,20457,Hamburg
1909906433,53.5495947,9.9936419,Green Lovers,Kleine Johannisstraße 8,20457,Hamburg
1912167932,53.5509639,9.9794205,La Croque,Markusstraße 17,20355,
1912679813,53.5547652,9.9879321,Rå,,,
1917425716,53.5826831,9.8552673,Honkong Express,,,
1918543523,53.5573896,9.9890316,Hamza Kebab,Dammtorstraße 23,20354,Hamburg
1918692856,53.5883447,9.8491547,Osdorfer Pizza & Grillhaus,,,
1925143442,53.5630183,9.9198546,Gyropolis,,,
1933620201,53.551514,9.9855427,City Kumpir,Stadthausbrücke 7,20355,Hamburg
1935772566,53.5547667,9.9892883,Arin Kebap,,,
1937223147,53.5545495,9.9900383,Five Guys,,,
1939337169,53.5940212,9.9836475,Bistro Italia,,,
1946676103,53.5917552,9.8727853,SoulKebab,Luruper Hauptstraße 138-142,22547,Hamburg
1957542913,53.5526654,10.0203528,Asia Lam,,,
1983595847,53.547697,9.9828945,Insieme,,,
1993710725,53.6230109,10.140274,burgerme,,,
1996944892,53.6299825,9.9270633,Dominos,Frohmestraße 86,22459,Hamburg
2007157340,53.6103547,10.0580773,Der Ali,,,
2019926828,53.4727285,9.853838,ÖZ Urfa,Cuxhavener Straße 342,21149,Hamburg
2027720485,53.5536786,10.0063717,GOSCH Sylt,,,
2027933013,53.5649128,10.0571417,Sultans,Hammer Steindamm 58,,
2029181892,53.6320313,9.9221887,Oliva Pizza-Döner,,,
2046299289,53.5462056,10.1063296,BE Croque,Schiffbeker Weg 68a,22119,Hamburg
2058486724,53.5591493,10.1059151,Dominos,Manshardtstraße 107,22119,Hamburg
2060681668,53.5487289,10.1086048,Hallo Pizza,Schiffbeker Weg 94,22119,Hamburg
2067126142,53.5404213,10.1011717,Patara,Billstedter Hauptstraße 43,22111,Hamburg
2070232127,53.5563271,9.9635666,Pizza Buddys,,,
2088700236,53.543009,10.0960283,# imBeef,Washingtonallee 111,22111,Hamburg
2099022421,53.4652932,9.8024413,Nikolaus Grill Imbiss,Hauptstraße 24,21629,Neu Wulmstorf
2119640222,53.5592449,10.1083477,Crazy Croque,Manshardtstraße 117b,22119,Hamburg
2137983086,53.5513216,9.9830423,dao dao Streetfood Bar,Wexstraße 23,20355,Hamburg
2139225281,53.5036853,10.2128102,Urfalim Döner,,,
2156360334,53.5468639,10.0256221,Bistro Olivio,Wendenstraße 8,20097,Hamburg
2189684282,53.5557779,10.0087239,Barış Grillhaus,Lange Reihe 1,20099,Hamburg
2194492862,53.5955534,10.049884,CroqAdeal,Herbstsweg 15,22307,Hamburg
2272451628,53.4240768,9.963253,Harburger Berge,,,
2281946907,53.6032214,10.0635272,Nonnos Pizza-Manufaktur,Fabriciusstraße 111,22177,Hamburg
2282792243,53.5772054,10.0591417,Sen Asia,Dithmarscher Straße 5,22049,Hamburg
2285426188,53.5843178,10.1338729,Anatolian Street Food,Schöneberger Straße 4,22045,Hamburg
2295492913,53.552937,10.0089758,Burger Heroes,Kirchenallee 56,20099,Hamburg
2306814447,53.5518915,9.987933,Kaiserwetter,,,
2317629227,53.5468984,10.0257471,Fresh Food Factory,Wendenstraße 8-12,20097,Hamburg
2324912842,53.552396,9.930003,Chico Malo,Bahrenfelder Straße 97,22765,Hamburg
2335487474,53.5486387,9.999351,Yoko Sushi,,,
2351855942,53.5654608,10.0366815,Huang,Wandsbeker Chaussee 23,22089,Hamburg
2368201975,53.6329201,10.0047918,McDonalds,,,
2368202021,53.628563,10.0031466,St. Pauli,,,
2368202023,53.6331079,10.0062238,scoom,Flughafenstraße 1-3,22335,Hamburg
2369030652,53.544591,9.936507,Goedeken Frischeshop,Große Elbstraße 141b,22767,Hamburg
2373561314,53.5821694,9.9712508,Sense of Taste,Hoheluftchaussee 93,20253,Hamburg
2378389056,53.5517761,10.0868171,Mr. Wok,Washingtonallee 14a,22111,Hamburg
2388732503,53.5428479,10.1028153,Call a Pizza,Schiffbeker Weg 29,22111,Hamburg
2390101799,53.5719877,9.8634586,elbe Kebap House,,,
2397789400,53.5953029,10.0002074,Dominos,,,
2400328472,53.6430532,10.0131759,Dominos,Langenhorner Chaussee 122,22415,Hamburg
2400335825,53.6497741,10.01612,Kaya,Krohnstieg 4,22415,Hamburg
2424667488,53.5454327,9.9638381,Brücke 10,,,
2433571122,53.5593754,9.9132906,Amors Pizza,Griegstraße 126,22763,Hamburg
2442305537,53.57363,10.0711939,Kumpir & Döner,,,
2446818924,53.4978089,10.0066006,Mina,Wilhelm-Strauß-Weg 1b,21109,
2449688737,53.4647429,9.9642418,Döner Connection,,,
2453934563,53.5783523,9.9512042,Golden Kebab,Stellinger Weg 10,20255,Hamburg
2453934564,53.5780822,9.9515195,Croque Francais,Stellinger Weg 8,20255,Hamburg
2456957589,53.5793562,9.9495633,antiochia Burger Haus,Stellinger Weg 28,20255,Hamburg
2476885581,53.5443526,9.9401874,Fischbeisl,Große Elbstraße 131,22767,Hamburg
2476885582,53.5443595,9.9400014,Fischmarkt Bistro,Große Elbstraße 133,22767,Hamburg
2476912940,53.5444759,9.9382023,Meeres-Kost,Große Elbstraße 135,22767,Hamburg
2477660520,53.5535331,10.0058977,CARLOS Sambrosa,Glockengießerwall 8,20095,Hamburg
2477660521,53.5534462,10.0058496,KFC,,,
2477660522,53.5534691,10.0057503,Sushi Supply,,,
2477660523,53.5536062,10.0059142,Subway,Glockengießerwall 8-10,20095,Hamburg
2478084914,53.5912491,9.8740968,Mundfein Pizzawerkstatt,Eckhoffplatz 1,22547,Hamburg
2478084918,53.5920869,9.8732909,mai-mai,,,
2487218790,53.4504803,9.9885406,Sofias,,,
2492741756,53.5509297,10.0880147,"""Pizza e Vino""",Washingtonallee 30,22111,Hamburg
2494518518,53.554524,10.0849254,Bereket Döner,,,
2496465168,53.5270428,10.1502981,Deniz-Grill,Kandinskyallee 14-18,22115,Hamburg
2513779614,53.5937474,10.0588989,Smileys Pizza Profis,Bramfelder Chaussee 1,22177,Hamburg
2518823175,53.5644104,10.056993,Hammer Döner,,,
2541615239,53.6043723,10.1542673,Köz Piazola,,,
2550319321,53.5411608,9.9923878,Kleines Bootshaus,,,
2550381544,53.5453779,9.9661422,Catch of the Day,,,
2552471449,53.5698017,10.0562404,Die Pizzabäckerei,Seumestraße 4,22089,Hamburg
2558464965,53.5603703,9.9485016,Shankra,Suttnerstraße 44,,
2562094881,53.6337144,9.9529639,Smileys,,,
2562187774,53.6405989,9.9477877,City Döner & Pizza,,,
2569406740,53.5843002,10.0229017,Dominos,Jarrestraße 24,22303,Hamburg
2590287301,53.5386989,10.1224363,Krox Billstedt,Möllner Landstraße 123,22117,Hamburg
2599961392,53.5551878,9.9878771,Subway,Gänsemarkt 36,20354,Hamburg
2603424798,53.5992517,9.9712966,Call a Pizza Hamburg Eppendorf,Offakamp 3,22529,Hamburg
2610864073,53.5596887,9.9635934,Big Food,Schulterblatt 13,20357,Hamburg
2610887751,53.5594187,9.963735,Cao,Schulterblatt 3,20357,Hamburg
2613074917,53.5621051,9.9631568,Kebaba Dein Dönermann,Susannenstraße 10,20357,Hamburg
2617920023,53.5626318,9.9645525,Asia Unique,Susannenstraße 18,20357,Hamburg
2621151364,53.6031272,10.1541454,Asia Hoang,Rahlstedter Bahnhofstraße 16,22143,Hamburg
2622672445,53.5640363,9.9652495,Falafel Factory,Schanzenstraße 101,20357,Hamburg
2622674696,53.5639926,9.9652408,Schanzen Döner,Schanzenstraße 101,20357,Hamburg
2652080223,53.5407944,10.0401373,Pizza Max,Billstraße 78,20539,Hamburg
2652350155,53.55218,9.930517,Döner Company,Ottenser Hauptstraße 24,22765,Hamburg
2674896616,53.4603948,9.9803436,ALHAYBA,,,
2685072812,53.5704047,10.1358957,Bistro Hoang Mai,Öjendorfer Damm 42,22043,Hamburg
2691571518,53.5716143,10.0651458,Extrawurst,,,
2709080220,53.5637191,9.9595722,Mamalicious,Max-Brauer-Allee 277,22769,Hamburg
2729415819,53.5153075,10.1666309,Boberg Döner Haus,,,
2766336057,53.5692184,10.1631044,Toprak Döner,Hauptstraße 35a,22885,Barsbüttel
2772044880,53.5497145,9.9594908,Ritze Curry,Reeperbahn 136,,
2772081920,53.5535325,10.0063022,ciao bella,,,
2805519203,53.5560058,9.9285739,Falafel Pyramides,,,
2820181523,53.6055204,9.8746058,Pizza Smileys,,,
2826998315,53.4573486,9.9868519,Thai Box,Seeveplatz 1,21073,Hamburg
2842835296,53.4870699,10.2123842,Pizza Max,,,
2851512488,53.5445662,9.9368553,Bistro OceaN,Große Elbstraße 139,22767,Hamburg
2863728156,53.674665,10.2386695,Big Döner,Klaus-Groth-Straße 1,22926,Ahrensburg
2863728160,53.674671,10.238573,Go-Asia,Klaus-Groth-Straße 1,22926,Ahrensburg
2877284021,53.5840466,9.9703187,Bertto`s Pizzamacherei,Breitenfelder Straße 4,20251,Hamburg
2880453379,53.5854425,10.0267422,Croque du nord,,,
2880453381,53.5847734,10.0250939,Dubara,,,
2883165102,53.5775603,9.9421305,Okay Grill,,,
2887687759,53.5752848,9.9549077,Hi Croque,Osterstraße 79,20259,Hamburg
2897896647,53.5801991,9.9640779,Le Croque,Gärtnerstraße 86,20253,Hamburg
2906123531,53.5936363,9.9888709,Perfect Pizza,,,
2942394099,53.5665684,10.041519,Asia Quick,Wandsbeker Chaussee 92,22089,Hamburg
3034379337,53.5498904,9.9953241,Salam City,Rathausstraße 12,20095,Hamburg
3045888722,53.5164214,9.9931622,Crown Pizza,,,
3062832086,53.5797362,9.9450031,Mister Croque,Müggenkampstraße 8,20257,Hamburg
3062870346,53.5701,9.9829,Trucs,,,
3073304756,53.5967715,9.9803082,Pizza Max,Lokstedter Weg 45,20251,Hamburg
3083253801,53.5795297,9.9461624,Dominos Pizza,,,
3106054547,53.5681334,9.9695958,Sallis,,,
3136541829,53.5882703,10.1238775,Pizza Max,Stein-Hardenberg-Straße 83,22045,Hamburg
3139335711,53.5829705,9.9350141,Mama Kumpir,Langenfelder Damm 90,22525,Hamburg
3139335712,53.5811319,9.9377286,Asia Wok,,,
3149807596,53.552482,10.0201863,Dadashi,,,
3149861985,53.5530006,10.0224631,döner time,,,
3149861986,53.5528762,10.0216487,Bistro Vegetario,,,
3166367896,53.5999144,9.994844,SoulKebab,,,
3177331261,53.6609643,9.7944042,Gazi Antep,Rübekamp 8,25421,Pinneberg
3207351905,53.5541791,10.0142923,Batman,,,
3211658070,53.4645104,9.9653973,Premium Food,,21075,
3232102607,53.576246,9.949663,Oster Grill,,,
3236967057,53.5701661,9.8645474,Dominos,,,
3265978815,53.5564894,9.9668,Soul Kebap,,,
3267595893,53.5435509,9.9148612,Nuggis Elbkate,,,
3275405554,53.5646073,9.9654139,emek,Schanzenstraße 115,20357,Hamburg
3332815456,53.5516583,9.9948263,dean&david,Ballindamm 40,20095,Hamburg
3334305815,53.465005,9.7938262,Urfa King,,,
3371656122,53.6076724,9.9046544,Smash Burger by Flame,Eidelstedter Platz 1,22523,Hamburg
3377883493,53.55149,9.939276,Jim Block,,,Hamburg
3386527854,53.5483541,10.0128396,Mundfein Pizzawerkstatt,Spaldingstraße 47,20097,Hamburg
3395909836,53.5469621,9.9967101,burrico,,,
3413287149,53.5832726,10.0675253,Döner-Treff,,,
3420037762,53.5585215,9.9726826,BAN BAB KEBABKLUB,Marktstraße 130,20357,Hamburg
3450868948,53.6052945,10.1561708,Konak Kebap,,,
3450868953,53.6052972,10.1564655,Viet home,,,
3465126497,53.6104026,10.0582442,Nudel Box,,,
3466341179,53.6113953,10.0577551,Hanan,,,
3507175020,53.590399,9.9744933,Doctor Fruit,Martinistraße 52,20251,Hamburg
3521363822,53.5153021,9.9935449,Best Urfa,,,
3531430825,53.5506765,9.9405794,Din Hau,,,
3570096529,53.5672221,10.0456484,Bok,Wandsbeker Chaussee 114,22089,Hamburg
3605041086,53.5816813,10.0650461,Dulsberg Kebap-Haus,,,
3606637884,53.4651517,9.9862947,Ist mir Wurst.,,,
3618244699,53.5337834,10.0387819,Dönerei,,,
3623122522,53.4622068,9.9831439,Call a Pizza,Küchgarten 18,21073,Hamburg
3636888917,53.5902042,9.9182797,Shuttle-Imbiss,,,
3640279711,53.6170176,10.0781811,Mundfein - Pizzawerksatt,Bramfelder Chaussee 296,22177,Hamburg
3640934395,53.5984179,10.1537578,Crazy Croque,Rahlstedter Straße 123,22149,Hamburg
3647740298,53.4693227,9.854194,Recall,,,
3648567931,53.4895969,10.1589181,Fleet Grill House,,,
3652520370,53.6807657,10.1916432,IMBISS,,,
3652562520,53.568112,10.0479099,Kokoro,Wandsbeker Chaussee 171,22089,Hamburg
3656262829,53.5536216,10.0120303,As Urfa,,,
3656263640,53.5520225,10.0047487,Mai-Mai,,,
3656732789,53.5440424,9.9419257,Fisch & So,,,
3656847895,53.5519941,9.9410545,Döner Time,Große Bergstraße 235,22767,Hamburg
3657153265,53.5556974,9.928318,anatolian street food,Bahrenfelder Straße 205,22765,Hamburg
3657219794,53.5912839,10.0419675,Croquewerk,,,
3658852292,53.420109,10.0211334,China Express,,,
3663810720,53.5794445,9.9454352,Grill Center,,,
3667398972,53.5559528,10.0421292,Burg Döner,,,
3671211352,53.5512446,9.9930959,mai-mai,,,
3671923077,53.578583,9.9470807,Won Chikin,Osterstraße 164,20255,Hamburg
3671923084,53.5779147,9.9471191,San Burrito,Osterstraße 165,20255,Hamburg
3672023955,53.5776193,9.9481168,Cross Sushi,,,
3672023972,53.578041,9.947933,Dominos Pizza,,,
3672330493,53.5574676,9.9700577,Bunker Döner,,,
3672341962,53.5502094,9.9675381,Bingöl Döner,,,
3672407253,53.5498252,9.9635922,McDonalds,Reeperbahn 59,,Hamburg
3673269248,53.558153,10.0120569,La Famille,,,
3673962553,53.5932511,10.0524289,Bey Kebab,,,
3686157717,53.5920335,10.043901,Fresh & Easy,Fuhlsbüttler Straße 153,22305,Hamburg
3696097569,53.5790172,9.950107,Kims Kitchen,,,
3696653188,53.5850767,9.9934333,Supper Club,Isekai 13,20249,Hamburg
3703816760,53.6601542,10.002543,Papa Johns,Langenhorner Chaussee 391,22419,Hamburg
3710974982,53.6326093,10.0260714,Istanbul Kebabhaus,Kleekamp 10,22339,Hamburg
3713145339,53.48557,10.2168913,Ika Sushi und Wok,,,
3717549368,53.5497876,10.0802955,burgerme,Horner Landstraße 193a,22111,Hamburg
3718061045,53.5664727,10.0389239,Yoko Sushi,Wandsbeker Chaussee 39,22089,Hamburg
3726686318,53.5451572,9.9697509,Ankerplatz,,,
3726686323,53.5451924,9.9693055,Underdocks Fischbude,,,
3727886207,53.545327,9.9664966,Crêpes & Mee(h)r,,,
3727886209,53.5453158,9.9671677,Fischbrötchen König,,,
3727886213,53.5452281,9.9682413,Freibeuter,,,
3727886214,53.5454035,9.9649681,Snack Corner Gate 8,,,
3729715033,53.5486251,10.0135913,Aras Kebap,,,
3733640885,53.5389006,10.1237663,Pizza Time´s,Möllner Landstraße 137a,22117,Hamburg
3740637268,53.5443732,9.9773094,Donutman,,,
3752456973,53.5805147,10.042462,the Burger Factory,,,
3760887318,53.5793186,10.0610321,Hot Pizza,,,
3761686211,53.5792085,9.9747247,Belachan Express,Hoheluftchaussee 15,20253,Hamburg
3761686212,53.5820186,9.9714063,Pink Bambus,Hoheluftchaussee 91,20253,Hamburg
3761799919,53.5826102,10.0463468,Burgerme,,,
3763096356,53.5697537,9.9748368,Pizzamax.de,,,
3763222859,53.5935363,9.9736498,Health Kitchen - N55,,,
3767201585,53.5521641,9.9640589,Köz Antep,Clemens-Schultz-Straße 26,20359,Hamburg
3767272757,53.5522843,9.9631997,Öz Antep,,,
3767412936,53.5537836,9.9633925,Asia Imbiss Kim,Hein-Hoyer-Straße 78,,
3768215917,53.5587985,9.9635488,Asia Express Food,,,
3770365659,53.5999453,9.9968887,Alster Grill-Eck,Alsterdorfer Straße 90,22299,Hamburg
3770365660,53.5997524,9.9969571,Alster Sushi,Alsterdorfer Straße 88,22299,Hamburg
3779734545,53.5481164,9.9631813,Tawan Daeng Imbiss und Karaoke Bar,,,
3779755173,53.5491694,9.9619057,Döner Company,Reeperbahn 87,,
3779755174,53.5493103,9.9622216,Lukullus,,,
3791290102,53.5553535,10.0153886,Yummies,,,
3804677828,53.5645304,9.9653944,Soul Kebab,Schanzenstraße 115,,
3804677830,53.5644666,9.965373,Falafel Kimo,Schanzenstraße 111,20357,Hamburg
3805141791,53.5506635,9.9600111,Deniz Imbiß,,20359,
3809132618,53.5729306,9.9503294,Grill-Stübchen,Fruchtallee 128,20259,Hamburg
3820756012,53.5525832,9.962404,Mini-Grill,Clemens-Schultz-Straße 79,20359,Hamburg
3840023568,53.5335275,9.8735803,Viva L´Italia,Finkenwerder Norderdeich 71,21129,Hamburg
3859604437,53.5159458,9.9876053,WilliamsBurger,,,
3872415835,53.5778079,9.9638972,Gepellos Pizza-Manufaktur,,,
3889457560,53.6031629,9.8926986,Delal Döner,Elbgaustraße 103,22523,Hamburg
3922601312,53.5052636,9.9861891,Ali Babas Kitchen,,,
3928670186,53.55376,10.0653189,Harput Döner,Hammer Landstraße 232,20537,Hamburg
3934705225,53.5629487,9.9318546,Kaya Feinkost,,,
3939879066,53.5489929,9.9601411,Kleine Haie Grosse Fische,Querstraße 4,20359,Hamburg
3942110721,53.6817074,9.9987589,Kapadokya Döner,Am Tarpenufer 2b,22848,Norderstedt
3942165409,53.6822355,9.9970408,Croquerie Norderstedt,Ohechaussee 8,22848,Norderstedt
3943681441,53.5507189,9.9824506,Kardelen,,,
3947854424,53.5643297,9.9264934,Kebab-House,,,
3954261597,53.6783005,10.001015,Kebab Lounge,Langenhorner Chaussee 662,22419,Hamburg
3969026999,53.6000871,9.9169028,Burger Legends,Kieler Straße 566,22525,Hamburg
3978869611,53.5538993,10.0851709,Volkan´s Grillhaus,Rennbahnstraße 38c,22111,Hamburg
3997153643,53.5792559,10.0416155,Simsek Imbiss,,,
4007423405,53.5592019,9.9121391,Asia Hip,Friedensallee 270,,
4018363343,53.5599147,10.1072423,Peace Love & Burgers,Manshardtstraße 113i,22119,Hamburg
4033190807,53.4895616,10.2067093,Subway,,,
4060349450,53.6887705,9.9834303,Bistro Gesundheits- und Sportpark Norderstedt,,,
4062889584,53.4615612,9.9808036,Cigköftem,,,
4066354168,53.4867937,10.1799092,Call a Pizza,Edith-Stein-Platz 1,21035,Hamburg
4067286736,53.6822998,9.998038,Asia Linh Chi,Ohechaussee 1a,22848,Norderstedt
4076467442,53.5628496,10.0327014,Dominos,Lübecker Straße 115,22087,Hamburg
4117162227,53.5930522,10.0555913,BU Kochlounge,Dieselstraße 6,,
4118530471,53.5796192,9.9311755,BARS Bäckerei & Imbiss,,,
4143599830,53.5986503,9.9405722,,,,
4144366167,53.4532254,9.9874571,Nadis Imbiss,Wilstorfer Straße 102,21073,Hamburg
4144382812,53.4569764,9.9858774,The Kumpir,Moorstraße 5,21073,Hamburg
4144382814,53.4571149,9.9859051,Zaza King,Moorstraße 7,21073,Hamburg
4144383877,53.4537977,9.9875947,Monsieur Croque,Wilstorfer Straße 96,21073,Hamburg
4144447594,53.4563005,9.985565,Dominos,,,
4144506845,53.4553121,9.9870501,Özlem Köfte,Wilstorfer Straße 72,21073,Hamburg
4144506848,53.4555147,9.9868545,Miss Tantuni & Grill,Wilstorfer Straße 68,21073,Hamburg
4144993075,53.4576383,9.9873224,,Seeveplatz 1,21073,Hamburg
4150124390,53.4563888,9.9878955,Bosporus Lounge,Hannoversche Straße 86,21079,Hamburg
4150124393,53.4562284,9.9878317,Pizza Hut Express,Hannoversche Straße 86,21079,Hamburg
4150124397,53.4564679,9.9879255,Mr. Phung,Hannoversche Straße 86,21079,Hamburg
4150124398,53.4565502,9.9879564,Pommesfreunde,Hannoversche Straße 86,21079,Hamburg
4150124399,53.4561395,9.9877951,Burger Bro,Hannoversche Straße 86,21079,Hamburg
4150195990,53.4566034,9.9876532,Ciao Bella,Hannoversche Straße 86,21079,Hamburg
4150195993,53.4565265,9.9876234,Manju,Hannoversche Straße 86,21079,Hamburg
4150195997,53.4565807,9.9870109,Subway,Hannoversche Straße 86,21079,Hamburg
4150196000,53.4563847,9.9875764,Laziz,Hannoversche Straße 86,21079,Hamburg
4150196001,53.4562789,9.9875364,Zenthai,Hannoversche Straße 86,21079,Hamburg
4155915054,53.4564555,9.9875227,McDonalds,Hannoversche Straße 86,21079,Hamburg
4155915056,53.4565345,9.986994,Mr. Clou,Hannoversche Straße 86,21079,Hamburg
4155915057,53.4564088,9.9872199,Nordsee,Hannoversche Straße 86,21079,Hamburg
4176772665,53.5408187,9.9867202,Miss Sofie,,,
4194620089,53.5834568,9.9850294,grillfrisch,Eppendorfer Baum 22,,
4194974190,53.5835818,9.9846149,"Die ""kleine"" Crêperie",Eppendorfer Baum 22b,,
4228278478,53.5967878,9.938923,,,,
4228278602,53.5958677,9.9370963,,,,
4228278604,53.5962317,9.9354804,,,,
4228352633,53.596758,9.9368065,,,,
4230927985,53.5798662,10.0311373,Firat Kebap,Weidestraße 85,22083,Hamburg
4242522094,53.5764867,9.8585829,Ready Pizza,,,
4248082207,53.5510333,10.001569,Mö Grill,,,
4252307687,53.5527304,9.9725999,Mini Golf,,,
4278761291,53.5631683,10.0330107,HHAMBURGER,,,
4288759465,53.497917,10.009768,Basak,,,
4288759763,53.4979137,10.0098669,Mai Mai,,,
4288764930,53.4970123,10.0042414,Ottensener Foodkitchen,,,
4290626222,53.6151383,9.8649843,Cruisers Food,Siebentunnelweg 14,25469,Halstenbek
4316698128,53.5846633,10.1334964,Asia Man,,,
4318841078,53.6076029,9.9023332,Cafesito,,,
4318841264,53.6076614,9.9024497,Rüya Grill,,,
4362103495,53.6256168,10.1141478,Burger Factory,Stefan-Zweig-Straße 1,22175,Hamburg
4364767514,53.5333417,9.876757,Grill @ Döner,,,
4365396892,53.5532766,10.0022054,Chen,Große Bäckerstraße 8,20095,
4367753147,53.5398147,10.1055898,ANHU Asia,Möllner Landstraße 3,22111,Hamburg
4380248484,53.6844719,9.9852681,Harpurt Kebap,,,
4399732312,53.6209744,10.0322237,HBB Bistro,,,
4404877576,53.5549652,9.8444836,Hokkaido Sushi,Nienstedtener Straße 13,22609,Hamburg
4425721080,53.5955223,9.9982683,Salat-Perle,,,
4430817931,53.5398792,10.140736,,Morsumer Weg 8,22117,Hamburg
4436620986,53.5716239,9.9789027,little Snacks & more,,,
4438798925,53.5716839,9.9788416,Dominos,Grindelallee 182,20144,Hamburg
4442873189,53.6040276,10.0428625,Mizu - Asia food & sushi,Lorichsstraße 44,22307,Hamburg
4451896303,53.5978739,9.8626552,burgerme,,,
4453295838,53.6856593,9.9867949,burger BRO,Berliner Allee 38-44a,22850,Norderstedt
4457764247,53.5717153,9.9774392,China-Thai Bistro,,,
4459064732,53.5773549,10.0202671,Sert Grill Imbiss,,,
4461727409,53.5080468,10.2511967,Berlin Döner,Sophienstraße 2b,21465,Reinbek
4471905301,53.588445,10.1238578,Krox Croque,Sonnenweg 15,22045,Hamburg
4486541341,53.6697719,9.7945726,Arnoldis Food Company,Elmshorner Straße 68-72,25421,Pinneberg
4524562369,53.5536301,10.0060601,Asiahung,Glockengießerwall 8,20095,Hamburg
4524564643,53.5536533,10.0062022,Manju,Glockengießerwall 8,20095,Hamburg
4525371821,53.6304391,10.0145736,Ready Pizza,,,
4557867747,53.6489779,10.0158669,Jim Block,,,
4558150689,53.4849587,10.0192357,,,,
4580804027,53.5562609,9.9512013,Smileys,Thadenstraße 162A,22767,Hamburg
4598036584,53.4498471,10.2960543,Kiosk im Sommerbad,,,
4614639847,53.5666874,10.0586379,4 Zeiten,Pappelallee 18,22089,Hamburg
4673281892,53.4969735,10.0038322,Dominos,,,
4692796439,53.5497101,9.9598793,Danmark-Snack,Reeperbahn 122,,
4694258592,53.5484982,9.9595586,Asia Imbiss Saigon,,,
4717146468,53.5497541,10.0803304,Bombay Bistro,Horner Landstraße 195,22111,Hamburg
4734859753,53.6304719,10.014589,Gomo Grill,,,
4761774636,53.568607,10.0509797,Smileys Pizza,Wandsbeker Chaussee 199,22089,Hamburg
4761780354,53.5693843,10.05529,Idol Döner,Wandsbeker Chaussee 271,22089,Hamburg
4767733534,53.5743686,10.0227114,Dominos Pizza,,,
4781706238,53.6048567,10.15498,asiahub,Helmut-Steidl-Platz 3-5,,Hamburg
4796670607,53.5511478,9.9500223,Pizza Max,Louise-Schroeder-Straße 27,22767,Hamburg
4807206290,53.5873843,10.0458595,Sultans,Fuhlsbüttler Straße 91,22305,Hamburg
4809323822,53.5706393,10.0623199,Burger Heroes,Wandsbeker Marktstraße 20-22,22041,Hamburg
4813756130,53.5849028,10.1005466,burgerme,Am Stadtrand 2,22047,Hamburg
4838840054,53.6237427,10.0137979,Hanse Bistro,,,
4913709374,53.6752066,10.2390156,OK-Pizza,,,
4935703064,53.4697725,9.791305,Bistro Schowittchen,Bahnhofstraße 62,21629,Neu Wulmstorf
4951486322,53.5536238,10.0128059,Chopan Kebab,,,
4958859512,53.5839153,9.9015381,Trafo im Volkspark,,,
4961888165,53.5560948,9.9626085,Pauli Döner,Wohlwillstraße 55,20359,Hamburg
5000205054,53.6268306,10.139099,Fritz Burger,Berner Heerweg 372a,22159,Hamburg
5027172960,53.5412529,9.9867021,green lovers,,,
5040711924,53.5572874,9.9654532,Schanzen Asia,,,
5048951499,53.5506174,9.9614515,Berg Grill-Imbiss,,,
5052031932,53.5401667,10.1041386,bonjour Kumpir,Billstedter Hauptstraße 5,22111,Hamburg
5056117587,53.4890091,10.2076405,Soul Kebab,,,
5075345921,53.5512166,9.9309482,Rain Cafeatery,Spritzenplatz 5,22765,Hamburg
5113281071,53.4423853,9.8854936,Futterkrippe,,,
5130988370,53.5423694,10.1070849,Capitol,,,
5131084026,53.5417353,10.1060681,Burger King,,,
5131084029,53.5418165,10.1061271,Asiahung,Billstedter Platz 29,22111,Hamburg
5132881422,53.5434822,9.9931229,La Bella,,,
5132881423,53.543474,9.9930055,Lees Sushi Bar,,,
5132892822,53.5436134,9.9928834,Chutney,,,
5132901821,53.5436226,9.9930283,Momo,,,
5132903721,53.5436188,9.9929694,Modöner,,,
5158680622,53.5710604,10.0621836,Urfam,,,
5186803222,53.5540896,10.0860667,Antep Lahmacun Döner & mehr,,,
5198472122,53.5813982,9.9339442,Sushi for Friends,,,
5201529759,53.5424462,9.9898875,Fischbrötchen,,,
5201877442,53.5478608,9.9870348,Rödings Backshop,,,
5245788691,53.4951584,10.2055026,Dominos,,,
5245788692,53.4948753,10.2057889,Soul Sushi,,,
5248147854,53.4563263,9.9875594,,Hannoversche Straße 86,21079,Hamburg
5250651263,53.488148,10.1811822,Brothers,,,
5270683656,53.5809664,10.1247919,yoko Sushi,Kuehnstraße 93,22045,Hamburg
5282350253,53.5088308,10.1861228,Miss Kebap,Mendelstraße 26b,21031,Hamburg
5282350256,53.5088301,10.1862963,Masala,Mendelstraße 26d,21031,Hamburg
5338944621,53.5510579,9.9933746,Currywurst,,,
5344562974,53.6265839,10.1387938,Dö Back Berne,,,
5353386026,53.5751085,9.8770383,Cafeteria,Notkestraße 85,22607,Hamburg
5385223129,53.6504959,10.1659428,Bistro,,,
5385223799,53.624457,9.9371751,,,,
5407725617,53.5543796,9.9514816,Bistro,,,
5407730465,53.5896577,9.9905393,Elvy,,,
5417909040,53.5669472,9.9813713,Campus Döner,Grindelallee 88,20146,Hamburg
5456469421,53.6877528,10.0392265,Vietstreet,,,
5480099724,53.5906411,9.9864969,Sushi Shop,,,
5486499535,53.5459243,10.0476842,Schmückis Trucker Treff,Hammer Deich 117,20537,Hamburg
5514319757,53.5978694,9.9474385,NDR-Kantine,,,
5517182850,53.5433516,10.1031778,Smileys,Schiffbeker Weg 37,22111,Hamburg
5517822495,53.5512824,9.9930379,Pommes,,,
5517822498,53.5509039,9.9935987,Tunnel Döner,,,
5548325893,53.4912364,10.2542621,Mundfein,,,
5553180408,53.5607533,10.0521978,Call a Pizza Hamburg Hamm,Sievekingdamm 57,20535,Hamburg
5557821022,53.5598376,9.9752575,Maui Poke Guys,Karolinenstraße 30,20357,Hamburg
5586448664,53.5557667,9.9285814,My House,Bahrenfelder Straße 224,22765,Hamburg
5592176025,53.5499853,9.9796353,Beyoglu,Großneumarkt 38,20459,Hamburg
5635849433,53.5968555,10.0212783,Grill-Imbiss,,,
5646713559,53.5666857,10.1640674,Anhu Asia,Am AKKU 9,22885,Barsbüttel
5667807955,53.5300765,10.1261411,mok kitchen,Steinbeker Hauptstraße 79,22117,Hamburg
5667826147,53.5751898,9.9554671,mok kitchen,Osterstraße 75,20259,Hamburg
5670302676,53.5584258,10.0124171,Hot Dogs,,,
5680080600,53.456611,9.9597208,Smiley´s Pizza Profis Hamburg-Harburg,Eißendorfer Straße 161a,21073,Hamburg
5709264640,53.68921,10.0001147,Siesta,,22850,
5709704187,53.4705358,9.8527776,Kaya Feinkost,,,
5726047966,53.5493966,10.0802886,China Imbiss Wu,Horner Landstraße 204,22111,Hamburg
5730622104,53.4894809,10.1814166,Kebab,,,
5744159025,53.541771,10.1060919,Hardal,,,
5756750137,53.4585246,9.9831938,Sirali Kebab,Lüneburger Straße 20,21073,Hamburg
5769013674,53.6533474,10.1146397,B+B Asia Bistro,Waldweg 8,22393,Hamburg
5774762640,53.4618496,9.9837877,Sushii Harburg,,,
5775159067,53.5798867,10.0309372,Kohldampf,Weidestraße 85,22083,Hamburg
5783045584,53.532457,9.8800729,KEBABHAUS,,,
5796486228,53.5791485,10.0391261,Bosna Imbiss,Hamburger Straße 199,22083,Hamburg
5820808964,53.6591125,10.0037029,Europa Food House,Langenhorner Chaussee 370,22419,Hamburg
5853699213,53.555275,9.9258395,China Bistro,,,
5858591546,53.6030467,10.0409302,Gyrosland,Fuhlsbüttler Straße 412,22309,Hamburg
5902708874,53.635393,10.0157182,Snoopys Pizzawerk,Langenhorner Chaussee 5,22335,Hamburg
5907994566,53.6155796,10.0007826,Sai-Gon Nhi,Sportallee 41,22335,Hamburg
5919357814,53.4702703,9.8527688,Mai-Mai,,,
5922810713,53.5459197,10.0262627,VITAMINGO,Sachsenstraße 6,20097,Hamburg
5966919495,53.6807012,10.2368905,Cottage Kitchen/Pub,,,
6003242670,53.5708996,10.0275665,Asiahung,,,
6055863153,53.6173297,10.000927,Frühling Bistro,Sportallee 60,22335,Hamburg
6055958587,53.5387611,10.1291374,Pizza Max,Möllner Landstraße 154,22117,Hamburg
6061162953,53.6735994,10.2396703,Fritz Burger,Große Straße 43,22926,Ahrensburg
6113706306,53.6067266,10.0556332,Berlin Döner Kiosk,,,
6125050175,53.6500289,10.0124552,Miss Kumpir,,,
6175011618,53.5807785,9.7952368,Asia Pham,,,
6182226991,53.6747185,10.0268939,Heidberg Döner,,,
6202085918,53.5571654,10.0112914,Moin Kumpir,,,
6219102955,53.552795,10.0109777,Köz Ocakbasi,,,
6225128167,53.6541557,10.0912388,Nordsee,,,
6236925123,53.5890294,9.904018,Grill-Pavillon,Schnackenburgallee 119,22525,Hamburg
6268145023,53.4552346,9.9765582,Dominos,,,
6310793486,53.6238024,10.1671352,Dominos,Meiendorfer Straße 109,22145,Hamburg
6314466841,53.6487152,10.167325,Bizim Döner,Wiesenhöfen 2,22359,Hamburg
6338876453,53.4598637,9.9820326,McDonalds,,,
6373725625,53.5634165,10.0608949,China Wall,,,
6391502385,53.5866736,10.086556,,Friedrich-Ebert-Damm 83,,
6415782352,53.6737487,10.2399974,Efess Grill,,,
6416284292,53.5543657,10.0124831,Shawarma Marina,,,
6434375473,53.5363896,10.0333148,Merkur Döner,,,
6441170872,53.6538502,10.2610258,Berlin Döner,Sieker Landstraße 118,22927,Großhansdorf
6445009725,53.5434674,9.9929109,El Coco,,,
6456459953,53.625322,10.1388133,Berne Kebap Haus,,,
6460938659,53.5530394,9.9582267,Babanin Yeri,,,
6461019256,53.4509648,9.9873744,Haidaris Food service,,,
6473979567,53.4075942,9.8847856,,,,
6505452906,53.5881723,10.0465138,Croque Star,Fuhlsbüttler Straße 104,22305,Hamburg
6552178718,53.5450915,10.0289815,Imbiss bei Louis,,,
6577371638,53.6076194,9.9045745,Döner by Flame,Eidelstedter Platz 1,22523,Hamburg
6682748232,53.5441725,10.0253865,Chiyo Sushi,,,
6738090562,53.4612561,9.9783681,Köz Ocakbasi,,,
6775289706,53.4749076,9.8757144,Ach Der Deniz,Rehrstieg 30C,21147,Hamburg
6783756106,53.4859714,10.2143994,Dominos,,,
6789291578,53.5760576,9.9530649,Smileys Pizza,Osterstraße 100,20259,Hamburg
6790451637,53.5515892,9.9421353,IKEA Restaurant,Große Bergstraße 164,22767,Hamburg
6799451725,53.6207109,10.1018972,Falafel Bistro,,,
6811015259,53.5572801,9.9652555,Brammibals Donuts,Neuer Kamp 3,20359,Hamburg
6812974279,53.4616292,9.9787831,Burger mit Glück,,,
6814702000,53.545465,9.9708105,Fähre 7,,,
6841205595,53.5430742,9.9963991,Dominos Pizza,Singapurstraße 4,20457,Hamburg
6855146285,53.5960452,9.9134161,Grill Imbiss,,,
6872035862,53.5536497,10.0065375,Wurst & Durst,,,
6872035863,53.5535682,10.006525,Punto Ernesto,,,
6872035864,53.5535891,10.0064316,Sallis Kebab Grill,Glockengießerwall 8,20095,Hamburg
6872035865,53.5535859,10.0062705,Sahha,,,
6872035866,53.5535046,10.0062154,Mr. CLOU,,,
6898113534,53.6066222,9.9795277,Borstel Kebab,Borsteler Chaussee 113,22453,Hamburg
6898113536,53.6066508,9.9794463,Croque Factory Groß Borstel,Borsteler Chaussee 103,22453,Hamburg
6980281662,53.5675826,9.9802916,Tài Pho,Grindelallee 83,20146,Hamburg
6981336174,53.6099185,9.974362,Smileys,Borsteler Chaussee 197,22453,Hamburg
6981345514,53.609722,9.9745525,China Express Zixin,Borsteler Chaussee 179,22453,Hamburg
6984611712,53.5995476,9.9943684,Pommes Kult,,,
7016937117,53.5537604,10.0027588,dean&david,,,
7045159480,53.5510558,9.9944769,Mr. Phung,,,
7045159481,53.5512003,9.9946197,Bo Bo Asian Fusion,,,
7045159482,53.5511159,9.9945902,La pasta Franco,,,
7045159483,53.5512334,9.9944864,Franco Due,,,
7047509218,53.5550231,9.844385,Hokkaido Sushi,,,
7063883233,53.5494855,10.0187082,Dominos,Spaldingstraße 110,20097,Hamburg
7088243950,53.6719248,10.0002853,Dominos,Käkenflur 14b,22419,Hamburg
7099441009,53.5500291,10.0362098,Wenden Kebap,,,
7114488798,53.6064752,9.9807749,Saigon Quan,Borsteler Chaussee 90,22453,Hamburg
7114589734,53.6071581,9.9793454,burgerme Hamburg Groß Borstel,Borsteler Chaussee 114,22453,Hamburg
7126306833,53.6044801,10.1582203,Thai foo,,,
7126306838,53.6052942,10.156568,Cooper`s,,,
7154933806,53.581533,10.0130121,My Kebaps,,,
7212421662,53.5920101,9.9357954,Steak House,,,
7220739941,53.503864,10.2121765,Gepellos Pizza,,,
7242008401,53.5592608,9.9280519,Asia Top,,,
7299174692,53.4604005,9.9784615,Döner Treff,,,
7299331163,53.4611965,9.9823353,Viet-Thai Gourmet,,,
7299738009,53.4611704,9.9823443,Dubara,,,
7411794411,53.7126219,9.9931893,Manavgat,,,
7465859249,53.5080737,10.2513523,Dominos,,,
7530815401,53.6930706,10.3206057,McDonalds,,,
7623149463,53.4643961,9.9786355,burgerme Hamburg Harburg,,,
7640703021,53.4704504,9.8235919,Smileys Pizza,,,
7644359502,53.6402803,9.9481764,Black Burger,Nordalbingerweg 17a,22455,Hamburg
7704999839,53.5737067,10.0714874,Kumpir & Döner,,,
7716707985,53.5453044,9.9713564,Imbiss Eck,,,
7727053109,53.6036043,9.9665774,Imbiss am Nedderfeld,Nedderfeld 15,22529,Hamburg
7741494998,53.5804096,9.9466923,Tikka Biryani,,,
7745467158,53.6030678,9.9108582,Asia Quick,,,
7805911992,53.5146894,9.9874302,Tadim Urfa,,,
7843988275,53.5730769,10.0663147,Happy Donazz,,,
7855436558,53.6490566,10.0137462,VietWOK,,,
7855436559,53.6490446,10.0135974,Kaya,,,
7896667185,53.5653357,9.9120408,Star Bahrenfelder Grillhaus,Von-Sauer-Straße 53,22761,
7923632033,53.4566127,9.9583799,Pizza Hot Chili,Eißendorfer Straße 130,21073,Hamburg
7996825330,53.6540063,10.0912736,Emilia Ristorante,,,
8000485088,53.6212089,10.0820884,Croque & Crepes,,,
8000485089,53.6213353,10.0822387,Mr. Asia,,,
8002695777,53.6205058,10.0822043,Yoko Sushi,,,
8002695781,53.6199274,10.0817,Dominos,Bramfelder Chaussee 340,22175,Hamburg
8004730460,53.6002838,9.9774723,Bobby & Fritz Currywurst & Pommes,,,
8042541560,53.48688,10.1800272,Berek Döner,Edith-Stein-Platz 3,21035,Hamburg
8044778669,53.7047761,10.0076544,,,,
8068880843,53.5671851,9.9868051,asia hub,Schlüterstraße 28,20146,Hamburg
8068923455,53.5516767,9.9459198,asia hub,Große Bergstraße 177,22767,Hamburg
8069169089,53.546082,9.9706933,Fischbrötchen Manufaktur,,,
8089055944,53.541425,10.1060509,Strandcafe,Billstedter Platz 25,22111,Hamburg
8213628405,53.6077909,10.0065337,Blondos Pizza Delivery,Alsterdorfer Straße 263,22297,Hamburg
8334928135,53.5619833,10.1186539,La Tua Pizza,Rotkäppchenweg 3,22119,Hamburg
8412006569,53.6736704,9.9035655,The Burger Brothers,Kieler Straße 185,25474,Bönningstedt
8422552389,53.5882639,9.953063,NKD Pizza,,,
8560473188,53.5401152,10.1025443,Sel Chicken,Billstedter Hauptstraße 51,22111,Hamburg
8564430295,53.6028994,9.9111176,Yoko Sushi,,,
8564430296,53.6030106,9.9109462,Çiğköfte,,,
8566216788,53.5400853,10.1026175,Sel Kebaps,Billstedter Hauptstraße 51,22111,Hamburg
8690366866,53.6342839,9.9534975,Affenfelsen Niendorf,Paul-Sorge-Straße 142b,22455,Hamburg
8824405807,53.5714713,10.0642322,Dr. KEBAP,,,
8824431071,53.570547,10.0617213,Subway,Wandsbeker Marktstraße 8,22041,Hamburg
8826266911,53.7291262,9.8974285,Dominos,Kieler Straße 67,25451,Quickborn
8881094765,53.5583143,9.9491598,Djengos Döner,,,
8888340217,53.5583344,9.9728075,Fisch Pauli,Marktstraße 21a,20357,Hamburg
8931236653,53.5151162,9.9871037,Döner Point,,21107,
8933221684,53.5511658,9.994347,Imbiss bei Schorsch,,,
8956039602,53.5492036,9.9610698,Döner Welt Getränke Welt,Reeperbahn 103,20359,Hamburg
8956039603,53.5491961,9.9612978,Burger Heroes,Reeperbahn 99,20359,Hamburg
8956039604,53.5491891,9.9615092,St. Pauli Burger & Noodlehouse,Reeperbahn 95,20359,Hamburg
8957825402,53.5941761,9.9971616,JAYJAYS,,,
8997232044,53.6161409,9.9052297,Döner 58,,22523,Hamburg
9041974663,53.57023,9.8623876,Subway,,,
9077550914,53.5499031,9.9579594,Kiez Döner,,,
9155601436,53.6222496,9.9511147,Croque Lounge - Hamburg,Paul-Sorge-Straße 5,22459,Hamburg
9171671719,53.6085635,9.9026239,Kings Döner,Lohkampstraße 11,22523,Hamburg
9221058618,53.5502046,10.0779971,Ada Döner,,,
9223580762,53.5137495,9.9872835,China Service & Sushi Zuhause,,,
9236605393,53.5516934,9.9956013,Teas,,,
9245829387,53.567989,9.9953003,Bagel Pösel,Mittelweg 25a,,
9247124097,53.6610233,9.7985035,Arin Döner,Dingstätte 11,25421,Pinneberg
9248502723,53.660467,9.8009102,Asia Pham,Fahltskamp 8a,25421,Pinneberg
9248502726,53.6609077,9.8000613,Deal Döner,Fahltskamp 1a,25421,Pinneberg
9254550192,53.5931316,9.9279385,Soul Sushi,,,
9312325224,53.5750171,9.9599529,Vy Delivery,,,
9330691049,53.5398901,10.1038081,Subway,Möllner Landstraße 3,22111,Hamburg
9342126419,53.5694556,9.9797307,Traumkuh,,,
9342138121,53.5674456,9.9803727,Çiğköftem,,,
9343920428,53.619531,10.0806602,Kelms Küche,Bramfelder Chaussee 345,,
9379907468,53.7208179,10.2743147,Frittenfee,,,
9426203249,53.5724241,10.0678232,Dil,,,
9426797287,53.5617549,9.9486794,Jasino,,,
9429503161,53.5981106,9.9743636,Long Asia,Münsterstraße 40,22529,Hamburg
9453638111,53.4610569,9.9780656,Urfa Foods,Neue Straße 1,21073,Hamburg
9476636469,53.4915764,10.2074207,Big Food Grill,Alte Holstenstraße 42,21031,Hamburg
9550580940,53.6790906,10.2606035,Onkel Curry,,,
9632210289,53.4883767,10.2085492,,,,
9632210292,53.4884315,10.2082613,,,,
9649640211,53.6257841,10.140394,Dö-Back Köz Haus,Alte Berner Straße 4,22147,Hamburg
9666226856,53.7382922,9.9816383,Manu´s Kitchen,Beim Umspannwerk 153,,
9725511097,53.6622512,9.7990835,Asia Do Anh,Friedrich-Ebert-Straße 31,25421,Pinneberg
9732957727,53.5424767,9.9981182,Was wir wirklich LIEBEN - Marktwagen,,,
9732957728,53.5905052,9.9866474,Was wir wirklich LIEBEN - Marktwagen,,,
9736074572,53.6676255,9.794174,Smileys Pizza Profis,Elmshorner Straße 46,25421,Pinneberg
9736074574,53.6697981,9.7887328,Call a Pizza,Berliner Straße 51,25421,Pinneberg
9738445215,53.6899979,9.9796779,Mekong Yensushi,Stettiner Straße 6,22850,Norderstedt
9738688914,53.7095872,10.017914,Gaumenschmaus Hähnchengrill,,,
9741695416,53.5594333,9.9672089,Salzbrenner Bistro,,,
9807274235,53.6606837,10.0824827,Pizza Hot Chili,,,
9830571318,53.5187351,10.0223378,Burger King,Georgswerder Bogen 12,21109,Hamburg
9853733641,53.5060426,9.9925714,Dominos,Georg-Wilhelm-Straße 104,21107,Hamburg
9864301827,53.597056,9.9368477,Hapiness Station,,,
9874111212,53.4908826,10.252828,Wentorf Döner,Berliner Landstraße 4-6,21465,Wentorf bei Hamburg
9941726656,53.4722287,9.886018,Kaiser´s Pizza,,,
9981708841,53.6009766,10.0715957,Steelrunner,,,
9983919333,53.5712165,9.9343728,Milano Vice | Altona Nord,,,
10032039119,53.7285336,10.2684483,Efes Grill,,,
10032353800,53.679109,10.2597338,famila Fisch,,,
10032525066,53.6737647,10.239524,Scharfe Ecke,,,
10038197432,53.6425517,10.0141239,Gisela Rodriguez,,,
10061969198,53.5111717,10.251618,Smileys,Bergstraße 6b,21465,Reinbek
10069135953,53.5747561,10.0396004,Vegan Pizza Projext,Marschnerstraße 26a,,
10087530390,53.5672097,10.0426254,Pizza Hot Chili,Wandsbeker Chaussee 57,22089,Hamburg
10089877010,53.6521647,9.791102,Istanbul Kebap Haus,Richard-Köhn-Straße 2a,,
10106353014,53.6261556,10.0305969,Thai China Wok,Wellingsbütteler Landstraße 1,22337,Hamburg
10106572763,53.6113027,10.0736718,Burger Lounge,,22177,Hamburg
10117183185,53.5758885,9.9520268,Pommes Helden,Osterstraße 119,20259,Hamburg
10127232239,53.5799212,9.9668381,Doy Doy Kebap House,Kottwitzstraße 43,,
10159106680,53.5792364,10.0194531,croque world,,,
10178108105,53.6644952,9.9053326,GaumenSchmaus,Am Markt 10,25474,Bönningstedt
10231739757,53.6513362,10.1057455,Pizza Max,Saseler Chaussee 160,,
10275333709,53.5885083,10.0510025,Real Sushi Hamburg,,,
10300593464,53.5592985,9.9364807,Brammibal‘s Donuts,Harkortstraße 79e,22765,Hamburg
10568116631,53.5987042,10.0659806,Dominos,Bramfelder Chaussee 69,22177,Hamburg
10574097658,53.57712,10.0268279,,,,
10625197353,53.6224095,10.1659624,Sushi Meister,,,
10630880494,53.5535516,10.0073278,brammibals donuts,,,
10651170695,53.4896133,10.2066217,Subway,,,
10702968488,53.5944661,10.1464426,Soul Sushi,,,
10712208147,53.4979285,10.0091332,Çiğköftem,,21109,Hamburg
10717574513,53.5524875,10.0202588,Lá Vegan,,,
10719399212,53.5880888,10.0465411,croque star,,,
10737835530,53.5608075,10.0380448,Der Urfa Döner,,,
10738153676,53.5865664,10.1254007,Yummi,,,
10746483341,53.6618778,9.7933754,,,,
10766377554,53.5641035,9.9601954,Buns Streetfood,,20357,
10771718831,53.6225625,9.9519008,Kaya Feinkost,,,
10778118028,53.5496925,9.9593344,Reeperbahn Döner,Reeperbahn 140,,
10780213038,53.5733574,10.0231657,iCroque,,,
10782522505,53.5521607,10.0338547,Solo Kitchen,,,
10787246286,53.5546751,9.9284476,the kumpir,,,
10788636564,53.5724036,10.0674145,Burger King,Wandsbeker Marktstraße 91,22041,Hamburg
10812523121,53.6814842,9.9815388,Speedys Pizzaservice,Tannenhofstraße 8,22848,Norderstedt
10860075942,53.5793967,9.949488,JayJays,Stellinger Weg 28,20255,Hamburg
10883782825,53.5564406,9.9669686,Codo,,,
10911745107,53.5913016,10.0450217,Papa Johns,,,
10974881301,53.5106453,9.9869885,Binboga Kebap House,,,
10976957794,53.5187741,9.9513502,Bobbys Bremsklotz,,,
10996914219,53.6136871,10.0780428,Frühstück & Mittagstisch Imbiss,,,
11002165769,53.5468281,10.0353612,Jasmina Restaurant,,,
11023071697,53.5829443,10.0188141,Grill-Shop Winterhude,,,
11025586067,53.5683497,9.9616287,Falafelicious,Bellealliancestraße 52,20259,
11027865890,53.6024729,10.1449574,Dominos,Bargteheider Straße 75,22143,Hamburg
11032479397,53.5670411,9.9568916,Cheeky Pies,,,
11033980993,53.5679217,9.9559759,Dominos,,,
11034562925,53.6130974,9.8980932,Smileys,Baumacker 1c,,
11039987875,53.5535609,9.9227048,Cigköftem,Große Brunnenstraße 118,22763,Hamburg
11067439214,53.4390623,9.9896672,Kaya Döner,,,
11078706764,53.5563256,9.9636309,Murder Burger,,,
11158842231,53.5635372,9.8127327,Frisch Verliebt,,22587,Hamburg
11163249937,53.5705518,10.0599346,Safi Food,,,
11197315031,53.549673,9.9615599,Zur Ritze - Curry,Reeperbahn 96,,
11219778441,53.5743855,10.0371559,Grill House,,,
11222931050,53.497849,10.0094827,Antepi Ustam Baklavalari,,,
11223050188,53.6002046,10.1178062,Most wanted Burger,,,
11237727444,53.5458226,10.0257417,LQuán,Sachsenstraße 4,,
11253705119,53.560028,9.9366049,Schulkantine,,,
11272631011,53.6514369,9.799452,burgerme,,,
11305470187,53.6179597,10.0792386,Hänsel und Gretel,Bramfelder Chaussee 308,22177,Hamburg
11305470188,53.6179032,10.0791715,Smileys Pizza,Bramfelder Chaussee 308,22177,Hamburg
11308531493,53.6206725,10.0055706,Haralds Imbiss,Geschwister-Beschütz-Bogen 3,22335,Hamburg
11310138451,53.5511695,9.9499038,Claires Croque,,,
11313723320,53.6861866,10.2390897,Yoko Sushi,,,
11343273100,53.5505392,9.9636846,Grilled cheese wonderland,Seilerstraße 40,20359,Hamburg
11343326200,53.5494656,9.9474096,Willis,Mörkenstraße 10,22767,Hamburg
11366997943,53.5485775,9.9604811,Hesburger,,,
11366997945,53.5487626,9.9611611,Kizzeria,,,
11367144302,53.5494359,9.95783,Mekong,,,
11367144303,53.5494392,9.9577669,Fish & Chips,,,
11403900630,53.4606031,9.9827882,Fat Bros,,,
11422970857,53.5454352,9.9641714,Pitaling,,,
11432454839,53.5707944,10.1237316,Der Holländer,Rodigallee 242,22043,Hamburg
11443585829,53.4598844,9.9816258,Milanese,,,
11443585830,53.4598688,9.9817413,JIN Chicken,,,
11443585832,53.4598381,9.9819665,THAI FOO,,,
11443585833,53.4598861,9.9821179,BoBoq,,,
11460634790,53.5574588,9.9890511,Fresh Green,,,
11472721010,53.5675328,9.9803334,Baborrito,Grindelallee 83,20146,Hamburg
11540262114,53.539103,10.0430947,Döner Kitchen,,,
11627785039,53.4635847,9.9675903,Big Bite,Haakestraße 3a,21075,Hamburg
11657301283,53.5564467,9.9667685,Suja,,,
11669459647,53.582252,9.9719294,La Delizia,,,
11669535914,53.5814769,9.9722191,Lookma,,,
11737310352,53.5522686,9.9346816,Chutney Indian Food,,,
11737380497,53.5521707,9.9346789,Sallis Kebap & Grill,,,
11795839225,53.5615975,10.0314065,Sushi Up,,,
11799692378,53.550177,9.95757,Original Korea Chicken,,,
11799692381,53.5505813,9.9574283,Döner Freiheit,,,
11820157089,53.568649,10.1709393,Burger Factory,,,
11824495377,53.4712938,9.8540785,Big Döner House,,,
11832182959,53.5883361,10.0450946,House of tasty HOT,,,
11835302546,53.5492452,9.9607361,Hot-Dog Station,,,
11881765525,53.6428687,9.8850145,Mr.Goldies,Waldhofstraße 7,25474,Ellerbek
11915685095,53.5386107,10.1270771,Abis Grill,,,
11935234548,53.5604465,10.0299683,My Kebaps,,,
11950662287,53.7095681,10.017931,Griechische Spezialitäten,,,
11950668653,53.709605,10.017899,Keskos Kebab,,,
11956473138,53.5552127,10.0086133,Avanti Kumpir & Falafel,,,
11958270841,53.5383086,10.1229908,Ocakbasi 27.,,,
11962981211,53.6936662,9.9948599,Pizza Max,,,
11980689170,53.5957877,10.0432421,Louis Croque,,,
11982605896,53.5928039,10.0952476,Bistro & Café Pförtnerhuus,Tilsiter Straße 162,22047,Hamburg
11988671802,53.4986475,10.0013975,Subway,Dratelnstraße 32,21109,Hamburg
12012405703,53.5474814,10.0950795,Kiss Pizza Pasta Burger,,,
12015822944,53.4610545,9.9780588,Casa Italiana Harburg,,,
12020564542,53.5529475,10.0089385,Burger Heroes,,,
12022357482,53.5902057,9.9183696,Crepes,,,
12033804625,53.6314674,9.9200541,Mr. Fresh,,,
12033949143,53.6066141,9.9018006,Gurbet Baklavalari,Elbgaustraße 32,22523,Hamburg
12073874006,53.5622495,9.9646477,Schmidt’s Bagelmanufaktur,Bartelsstraße 26,,
12108134101,53.5545735,10.0155244,Ankara Kebap Tantuni,Böckmannstraße 27,,
12115655517,53.4595969,9.9820177,Döner Royal,,,
12144212001,53.552763,10.0038759,Salli’s,,,
12148376824,53.5732786,10.0201375,Blekys,,,
12155192520,53.5389383,10.1225947,DenisGrill,,,
12177543801,53.5525528,9.9366931,Mr.Dumpling,,,
12194983855,53.3966524,10.0690933,DB Casino,Hörstener Straße 100,21220,Seevetal
12211958401,53.5463032,10.0243563,curry 73,Hammerbrookstraße 73,20097,
12212058014,53.5018945,10.0088035,Döner Center,,,
12228456969,53.6657536,10.1206693,Mundfein,,,
12230458912,53.7080784,10.1086973,Döner Platz,,,
12231056486,53.7156075,9.993682,Mensa Schulzentrum,,,
12285233828,53.5961209,9.9353463,FischHütte,,,
12285919361,53.6312887,10.0063061,Sashimi Sushi,,,
