id,name,street,zip_code,lat,lon,geojson_feature_id
277932850,Kieser Training,Krohnstieg 41,22415,53.6487772,10.0128702,04413432
277932851,Kieser Training,Kritenbarg 4,22391,53.6536763,10.0896006,05511519
277932852,Kieser Training,Winterhuder Marktplatz 6-7a,22299,53.5942372,10.0006659,04405409
277932870,Kieser Training,Weidenbaumsweg 139,21035,53.4815074,10.2001724,06602602
304490927,McFit,,,53.5938461,9.9241167,03309321
312427995,JOHN REED Fitness,Am Werder 1,21073,53.4627635,9.9834819,07701702
361140358,Kieser Training,Heußweg 37d,20255,53.5769159,9.950748,03301303
778236536,McFIT,Kieler Straße 147,22769,53.5733626,9.9402729,03309321
831971781,Eisenhauer Training,Am Neumarkt 30,22041,53.5750745,10.0896165,05502508
928371756,McFit,Eiffestraße 664,20537,53.5496609,10.0657302,01108125
1337748595,Elan,Georg-Sasse-Straße 12,22949,53.6781321,10.1490654,0
1589271234,Holmes Place,,,53.5619181,9.9190842,02205216
1613188287,25 Minutes,,,53.5595898,9.8826147,02206218
1708446947,Lady Fitness Center,Schillerstraße 44,22767,53.5512307,9.9385573,02201203
1912192520,25Minutes,,,53.5547917,9.9807361,01103107
2144446964,ELB GYM,Gorch-Fock-Wall 3,20354,53.557723,9.9853068,01103108
2268142634,Hochschulsport Hamburg,,,53.5557365,10.0233955,01105113
2274544112,Mrs. Sporty,,,53.4725521,9.8492001,07714715
2652360954,FitX,Große Bergstraße 156,,53.5516753,9.9435666,02201203
2664230567,Well You,Curslacker Neuer Deich 44,21029,53.4809859,10.2071131,06602603
2672107964,Figurella - Fitness für Frauen,,,53.4602701,9.9761521,07701701
2867411651,Animo Studio,Müggenkampstraße 1,20257,53.579415,9.9455298,03301301
2909009109,youpila,,,53.5936039,9.9874776,04402403
3062745803,OHANA,Bäckerbreitergang 14,20355,53.5547506,9.9825407,01103108
3453832163,VIMODROM Hamburg Eppendorf,Hoheluftchaussee 60,20253,53.581658,9.9726787,03304315
3656262460,Fitness First,,,53.5536636,10.0037254,01101101
3656847908,FITX,Große Bergstraße 160,22767,53.5516941,9.9432454,02201203
3710411779,,Heußweg 98,20255,53.5794326,9.9561346,03301305
3711772874,Kieser Training,,,53.6318258,10.0059935,04412431
3791405160,omya,,,53.7315873,10.0834823,0
3896759457,McFit,Baurstraße 2,22605,53.5575355,9.9005613,02207219
3933531388,Fitness First,Rödingsmarkt 9,20459,53.548204,9.9873849,01101102
3942090547,Schmuggel-Ladies,,,53.6807621,9.9999811,04413432
4060461686,Mrs. Sporty,,,53.6853769,9.987345,0
4062351848,Mudō Werkstatt,Weidenstieg 18,,53.5711217,9.960377,03301308
4086544768,FitX Hamburg-Steilshoop,Schwarzer Weg 28,22309,53.6079919,10.052494,05508516
4111266908,GORILLA GYM Hamburg,,,53.556741,9.9669329,01104111
4143215789,Clever Fit,,,53.4729729,9.8523813,07714715
4293785001,FitX,Röntgenstraße 28,22335,53.6233394,10.0163077,04411430
4360503652,Crunch Fit Fitnessstudio,,,53.6826452,9.9873588,0
4362103496,Raum für Bewegung und Stille,Pezolddamm 156,,53.6247856,10.1150093,05506514
4396100511,beneFit,Hörgensweg 5,22523,53.615311,9.905461,03308320
4427661183,form-fit,Cuxhavener Straße 293b,21149,53.4712443,9.8620166,07714715
4451845503,VitaShape,,,53.5570445,10.0218619,01105113
4453281366,elbgym,,,53.5595227,9.9944017,03302312
4558787796,Fitness World,,,53.6090075,9.8416274,0
4581965977,Glückspilze,Habichtstraße 124,22307,53.5955884,10.0478005,04410428
4585504194,Praxis Wirkner-Thiel,,,53.5687912,10.0966096,05503511
4602711447,FitX,Schnackenburgallee 43 - 45,22525,53.5786196,9.917562,02205215
4639629789,SANBAO-Schule für Taichi und Qigong,,,53.5552337,9.9279659,02204213
4659594876,Villa Fit,Kaiser-Wilhelm-Allee 10,22926,53.668562,10.2468592,0
4760054204,Meridian Spa,Fuhlsbüttler Straße 405,22309,53.6038297,10.0394103,04410429
4843506123,FIT/ONE Hamburg-Harburg,Lüneburger Tor 8,21073,53.4591522,9.9841643,07701702
4845110621,Sportspaß,,,53.4597815,9.9844401,07701702
4845149344,EasyFitness,,,53.4642302,9.9858057,07701702
4845152878,Trust Gym,,,53.4615922,9.9850483,07701702
4860612046,McFit,,,53.562417,10.03131,04407417
4937565769,Tai Chi Schule Daniel Grolle,Eppendorfer Weg 64,20259,53.5729339,9.9604418,03301308
4951486023,Olympic Fitness,,,53.5569302,10.0192652,01105113
5037345747,CrossFit,Lotsestieg 6,,53.4674172,9.9861659,07701702
5128031001,Lorenzen Training,Holsteinischer Kamp 1,22081,53.5749745,10.0374418,04408422
5233553017,TSG Sportzentrum Bult,,,53.4877047,10.2169946,06602603
5262248222,On Stage Training Center,Krohnskamp 33,22301,53.5883082,10.0075793,04405410
5484681218,Fitness First,Gorch-Fock-Wall 1a,20354,53.5577907,9.9871859,01103108
5626998395,FitnessCenter-Niendorf,Krähenweg 9,22459,53.6330695,9.9552316,03306318
5764297924,CrossFit,,,53.5861407,10.0480097,04410427
5825121088,BOX1.Hamburg,Hamburger Straße 181,,53.5785773,10.0383738,04408421
5861050599,EMS Fitnessstudio fitbox,Fuhlsbüttler Straße 396,22309,53.6023012,10.0410891,04410429
5861133409,NAYOKi,Hartzlohplatz 17,22307,53.6028159,10.0456209,04410429
5899981751,gymaholic.de,,,53.5803677,10.042302,04408423
5901418253,beneFit,Überseering 32-34,22297,53.6028861,10.0165072,04405408
5914861524,Körperformen,Bramfelder Chaussee 239,22177,53.6131729,10.0749966,05507515
6125050116,FIT/ONE Hamburg-Langenhorn,Langenhorner Markt 1-18,22415,53.6500909,10.0132944,04413432
6130513084,EVO,Blankeneser Landstraße 2,,53.5633598,9.8121499,02211224
6187788955,Sporteve,,,53.5946434,9.9864836,04402403
6189747885,Odissi Tanz Atellier,Gaußstraße 136,22765,53.5591194,9.9300163,02204211
6208794759,25MINUTES,,,53.6514954,10.0961343,05511519
6323071012,Body Focus,,,53.5531431,10.0022762,01101101
6395667898,Klimmzugstangen,,,53.6681701,10.0947893,05511519
6668054918,Hansa Yoga,Saarlandstraße 7,22303,53.5859647,10.0331224,04405411
6749249135,McFit,,,53.6787066,10.0009132,04413432
6833068501,Studio Mohnblume,Kurt-A.-Körber-Chaussee 5,21033,53.4887846,10.202381,06602602
6933092385,Yoga Glow,Dorfstraße 11a,25373,53.7288802,9.7784089,0
7070471817,Active Woman,Bahnhofstraße 11,25451,53.731097,9.8995413,0
7195649434,TRU Fitness,Krüsistraße 7,22305,53.5878385,10.0450238,04410427
7216455024,Die Fitness Insel,Neuhöfer Straße 23,,53.5104085,9.984953,01116137
7236067462,Adhuna Veda Hamburg,August-Krogmann-Straße 2b,,53.6069831,10.1187564,05506514
7477310916,Fitness First,Wandsbeker Marktstraße 2,22041,53.5704862,10.061476,05503510
7622963906,fitness Lounge,,,53.4613687,9.9856308,07701702
7655276840,Sportsfreund fitness Hamburg,Willinghusener Weg 1,22113,53.5459392,10.1526717,0
7890878599,Urban Yoga,Rostocker Straße 4,20099,53.5552038,10.0127039,01105114
7948594971,Elixia,Essener Straße 4,22419,53.6678369,9.994227,04413432
8071204453,Fitness First,,,53.585643,9.9719393,04401402
8113416642,Movimental Bewegungsspielträume e.V.,,,53.585301,9.9693462,04401402
8147575305,Devah Yoga e.V.,Pilatuspool 11a,20355,53.5537886,9.9791542,01103106
8381611461,Elbgym,,,53.5512921,9.9872019,01103108
8510292166,Hama Studio,Pappelallee 16a,22089,53.566534,10.0587384,05501504
8662559266,Mrs. Sporty,Elmshorner Straße 43,25421,53.6661576,9.7932798,0
8824393360,Fusion Gym,,,53.5716414,10.0643392,05502505
8837891751,Fitness First,,,53.5629243,9.9321787,02205215
8990657876,Yogibude,Fuhlsbüttler Straße 228,22307,53.5960738,10.0437626,04410428
8998071774,Körper Formen,Fuhlsbüttler Straße 225,22307,53.5957476,10.0432567,04410428
9004760408,FIT/ONE Hamburg,Schnackenburgallee 50,22525,53.5795673,9.9186595,02205215
9035873139,EVO Fitness Clubs,,,53.5611332,9.9671132,02202207
9131956039,[jo:ga],Kieler Straße 147,22769,53.5734923,9.9401605,03309321
9207303912,N.U. Crossfit,Lornsenstraße 136,22869,53.6098847,9.8400996,0
9209611342,Urban Bodies,Christoph-Probst-Weg 26,20251,53.5964924,9.9758877,04402405
9221631037,Club Pilates,,,53.5828575,10.017491,04405412
9422789680,fit4thegame,,,53.5632458,9.9307833,02205215
9423663323,John Reed,Walddörferstraße 140-142,22041,53.580613,10.0797056,05502506
9427886188,Mrs. Sporty,,,53.5657874,9.9821338,03302311
9442383065,Yogaschule Claudia Mahler,,,53.5824052,9.965709,03304316
9442431767,moves,,,53.5839415,9.9535928,03305317
9603502913,Yoga-Connection Hamburg,,,53.5736922,9.9711601,03301309
9687018756,VIMODROM Hamburg Bramfeld,Bramfelder Dorfplatz 10,22179,53.6132254,10.0773315,05507515
9687018757,VIMODROM,Bramfelder Dorfplatz 4 D,22179,53.6131379,10.0769466,05507515
9788810517,Boxclub Epeios,,,53.5619851,9.9676518,02202207
9872165967,Jonja Yoga,Groot Enn 4,21149,53.4719446,9.8531207,07714715
9907523145,Urban Heroes Hamburg Fitness,Valentinskamp 88,20355,53.5558758,9.9846811,01103108
9980659021,Hongkong Studios Yoga,Hongkongstraße 5-6,20457,53.5425977,10.0016874,01102104
10041411104,Mrs. Sporty,Ottenser Hauptstraße 43a,,53.5514832,9.9284158,02204213
10048120985,VIMODROM Hamburg Langenhorn,Langenhorner Chaussee 680,22419,53.6799332,10.0007531,04413432
10137633522,Elbgym Winterhude,,,53.5747405,10.0248452,04408418
10215127165,CrossFit,,,53.5652224,9.9266427,02205215
10255215309,EASYFITNESS Hamburg-Rahlstedt,,,53.6057626,10.1848925,05518526
10255225909,juka dojo Fitness Club Rahlstedt GmbH,Schweriner Straße 8-12,22143,53.6050312,10.157487,05518526
10259334936,WYSH.Fitness,Rütersbarg 50,22529,53.6048164,9.9566406,03305317
10279070885,Athlevo CrossFit,Dusiplatz 8,21035,53.4842312,10.1989228,06602602
10568196073,Alsterfit,,22309,53.6055323,10.0539821,05508516
10575964091,MANOMAYA,Rathausquartier 9,25469,53.6339587,9.8418772,0
10696894515,VIMODROM® Hamburg Blankenese,Blankeneser Bahnhofstraße 14,22587,53.5598565,9.8109856,02211223
10745163338,well you Fitness,,,53.6617481,9.7932373,0
10764703203,Mrs.Sporty,,,53.6189278,9.9514212,03306318
10895385045,SRS Sport- und RückenSchule,Biedenkamp 3 F,21509,53.5465853,10.2295516,0
10908586357,Juka Dojo sportcenter,,,53.5566021,9.848063,02210222
10951924835,Sporteve,,,53.5827629,10.033833,04408421
11019914147,Meridian Spa,,,53.5796876,9.961625,03304316
11022661401,Tribe Yoga Base,Weidenstieg 17,,53.5713117,9.9606901,03301308
11055002705,Benefit,,,53.6013077,10.018568,04405408
11162618115,Body Street,,,53.5594199,9.8874194,02206218
11165519587,Bodystreet,,,53.5808559,10.0191384,04406414
11230637488,Vitalife,,,53.6082154,9.9143476,03308320
11385489245,gym4us Premium,Am Redder 1,22941,53.721105,10.2737985,0
11385489249,La Vida,Hammoorer Weg 24,22941,53.7233278,10.2709842,0
11691279674,Clever fit,,,53.5824993,9.8551408,02209221
11739452158,Evo Fitness Club,,,53.5518855,9.9845762,01103107
11811792429,VIMODROM,Baakenallee 28,,53.5377751,10.0114441,01102104
11824495379,EMS-Square,,,53.4709992,9.8540899,07714715
11835678771,Center of Gravity,,,53.5503693,9.9600035,01104110
11953413251,The Ray,Sechslingspforte 15,22087,53.5605852,10.0218426,04407416
11965897340,Kieser Training,Hannoversche Straße 83,21079,53.456474,9.9904203,07701702
11980655290,Fitness First,,,53.5534701,10.0040583,01101101
12043824450,DAmato Gym e.V.,,,53.5140332,9.984526,01116137
12050136947,ISY Innersmile Yoga,Ditmar-Koel-Straße 23a,20459,53.54545,9.9742714,01103105
12106707136,TOUGH GYM,Max-Brauer-Allee 155,22765,53.5586898,9.9486297,02203210
12190001610,momentum,,,53.5637381,9.8148607,02211223
12204990950,Body Street,,,53.5873671,9.9817718,04402403
12235712484,Wübke,,,53.5588712,9.9306136,02204211
12367567725,Shentir,,,53.5734839,9.9605004,03301306
12438789588,Justfit,,,53.5637869,10.0336037,04407417
12438827819,"1,2,3 fit",,,53.5618745,10.0324982,04407417
12473779554,Sports Club Schenefeld,Kiebitzweg 2,,53.6031186,9.8367172,0
12487385819,EMS Studio GYMOLLA,Holstenstraße 157,,53.5597793,9.9495471,02201206
12487385820,Tai Chi Quan Schule,,,53.5597745,9.9497912,02201206
12612276360,Fitness First,Ballindamm 39,20095,53.5519297,9.9953292,01101101
12703418306,Pilatespeople Pilates Studio,Schulweg 30a,20259,53.5737391,9.9590836,03301306
12723833013,Smartfit,Fuhlsbüttler Straße 456,22309,53.6045787,10.0404471,04410429
12725980318,justfit,Fuhlsbüttler Straße 460,22309,53.6048376,10.0403308,04410429
12739546158,Sports club,,,53.5394588,10.0004644,01102103
12749945765,SteenkampYoga,Steenkamp 29,,53.5701074,9.8865072,02205217
12797947252,Fitnessland,,,53.5706323,10.0270308,04408418
12806318694,Elbgym,Straßenbahnring 8,20251,53.5813978,9.9766769,04401401
12819997476,Mrs. Sporty,,,53.4973955,10.2040843,06601601
12848027109,ESN Gym by Prime Time fitness,Großer Burstah 18,,53.5485128,9.9894325,01101102
12857332212,sporting live,Robert-Koch-Straße 26,20249,53.5891316,9.9851743,04402403
12944791646,FT-Club,,,53.5616028,9.9164999,02205216
12956357398,Fitbox,,,53.6342362,9.9191483,03307319
12961609798,vitafit,,,53.5816473,9.7604313,02214227
13017210189,Brooklyn fitboxing,,,53.5789732,10.0193081,04408418
13061360410,Fitnessfabrik Rellingen,Hauptstraße 39,25462,53.6504783,9.8291084,0
13064004502,LeFit,Jessenstraße 4,22767,53.5512139,9.9453473,02201203
13123644335,Sports Club Hafencity,New-Orleans-Straße 6,,53.5394291,10.0004579,01102103
