id,name,street,zip_code,lat,lon,geojson_feature_id
21627414,West See Palast,,,53.5207517,10.2770653,0
25745452,Schweinske,August-Krogmann-Straße 25,22159,53.6080733,10.1164404,05506514
29262146,Zollenspieker Fährhaus,Zollenspieker-Hauptdeich 141,21037,53.3989587,10.1852546,06606607
55104007,BLOCK HOUSE,Alte Elbgaustraße 9,22523,53.6067274,9.9030378,03308320
69150516,Block House,Groten Hoff 12,22359,53.6476044,10.1642128,05517525
103602223,Glantz & Gloria,Hamburger Straße 2b,22941,53.7058481,10.2517314,0
170780405,Das Bauernhaus,Nansenstraße 82,,53.5805153,9.9055684,02205216
244134270,Oktober Harburg,Schloßmühlendamm 23,21073,53.463016,9.9815331,07701702
245564414,Hünkar,,,53.4622481,9.9819453,07701702
252537944,Casa Vecchia,,,53.4861811,10.2134134,06602602
253398267,Schweinske,Möllner Landstraße 2,22111,53.5394918,10.1040249,01112130
253659932,Taverna Metaxa,Straßburger Straße 23,22049,53.5817607,10.0633549,04409425
254446740,La Rucola,Volksdorfer Damm 188,22359,53.6696493,10.1429076,05516524
256044321,Paulaners,Großneumarkt 1,20459,53.5505024,9.9809707,01103107
256362586,Entourage - Grill Eventcenter Club,,,53.5995471,10.1558123,05518526
258521580,Spicy - Hotpot & Hunan cuisine 辣师傅,Lübecker Straße 133,22087,53.5636292,10.0333115,04407417
258521618,Schweinske,Lübecker Straße 84,22087,53.5610317,10.0312569,04407417
258527808,BLOCK HOUSE,Schloßstraße 48,,53.5715814,10.0699098,05503510
258962008,LüttLiv,Maurienstraße 19,22305,53.5857798,10.0449119,04410427
261041923,T.R.U.D.E.,Maurienstraße 13,22305,53.5850016,10.0450945,04410427
263906880,Herzstykke,Mühlenstraße 95,25499,53.6952819,9.8509227,0
266671332,Olympiade,Rugenbarg 18,,53.5749593,9.8472885,02209221
267622930,Ethio,Rothestraße 38,22765,53.549477,9.9274846,02204214
267623160,Trattoria Toscana,Holländische Reihe 25,22765,53.5475906,9.9292942,02204214
267624203,La Casita Azul,Spritzenplatz 4,22765,53.5512302,9.9307274,02204214
270901000,,,,53.6603171,9.7385467,0
271393344,Blaue Adria,Marckmannstraße 74,20539,53.5351344,10.0415824,01114133
272717405,Casino,,,53.5439736,9.8415381,01120141
272717465,Marché,,,53.5424727,9.8440744,01120141
272719780,Kantine,,,53.5447527,9.8383286,01120141
272723510,Bistro,,,53.5418369,9.8374524,01120141
273425544,Messologi,,,53.5815574,9.7635383,02214227
274262342,Rindocks,Lohbrügger Landstraße 119,21031,53.5028763,10.1930725,06601601
274349224,Haerlin,Neuer Jungfernstieg 9-14,20354,53.5557185,9.9916858,01103108
274951874,Najis Mittelmeer Bahnhof,,,53.469024,10.2778372,0
277050398,Piccolo Paradiso,Brüderstraße 27,20355,53.5514359,9.9809243,01103107
277504583,Restaurant Adria,Letzter Heller 21,22111,53.5447491,10.0895845,01111128
277790194,Orchideen Palast,Fuhlsbüttler Straße 236,22307,53.5966438,10.0435783,04410428
277800972,Maurizio,Berner Weg 31,22393,53.6496648,10.1176109,05510518
278487889,Kamiros,Fuhlsbüttler Straße 256,22307,53.5977583,10.0428056,04410428
280699564,Erikas Eck,Sternstraße 98,20357,53.5610678,9.9675684,02202207
280699565,La Sepia,Neuer Pferdemarkt 16,20359,53.5589306,9.9645671,02202207
280702772,Pamukkale Köz,Susannenstraße 35,20357,53.5624282,9.9634528,02202207
280702922,Souperia,Bartelsstraße 21,20357,53.5617024,9.9648113,02202207
280702925,Schanzenstern Bio-Restaurant,Kleine Rainstraße 24,22765,53.5536162,9.9302063,02204213
280709543,Hatari,Schanzenstraße 4,20357,53.5593936,9.9645183,02202207
280740265,Asia House,Schulterblatt 10,20357,53.5597713,9.9639605,02202207
282221637,Serways,,,53.6942525,10.3241986,0
282506264,Bamboo,,,53.5013399,10.07993,06611612
286289546,Schweinske,Eißendorfer Straße 95,21073,53.4580638,9.9676249,07709710
286450954,Viet No1,,21073,53.4602015,9.9757022,07701701
286660842,China-Restaurant Ming Dynastie,,,53.5728594,10.0635049,05502505
288309550,Mensa Blattwerk,Von-Melle-Park 5,20146,53.5656295,9.9852309,03302312
288309624,Gran Sasso,Schlüterstraße 12,20146,53.565001,9.9869465,03302312
288794107,Rönneburger Park,,,53.437008,10.0042944,07705706
288858596,Jam Jam,Wandsbeker Marktstraße 141,22041,53.5734328,10.0705985,05502507
289296176,Ni Hao,Wandsbeker Zollstraße 25-29,22041,53.5752095,10.0744829,05502507
289296201,Rodizio Rio,Wandsbeker Zollstraße 25-29,22041,53.5754515,10.0751321,05502507
290079059,Das Peace,Marktstraße 14,20357,53.5585523,9.9751236,01104109
290079105,Variable,Karolinenstraße 23,20357,53.5591638,9.975182,01104109
290337463,Moorkathen,,,53.4823142,9.9296654,07711712
290608315,Inos,Carl-Petersen-Straße 124,20535,53.5572346,10.0525774,01108122
290633829,Blattgold,Schulterblatt 83,20357,53.5627701,9.9608184,02202207
291167508,Feldstern,Sternstraße 2,20357,53.5579557,9.9674188,01104109
291167509,La Casita,Neuer Kamp 30,20357,53.5575054,9.9676474,02202207
291595910,KDW,Egenbüttelweg 123,22880,53.5926808,9.7459264,0
292290707,Rosenhof,,,53.5634018,9.9813691,01104109
292746412,Marathon Grill,Hallstraße 55,25462,53.6438377,9.8420294,0
292829392,Tarifa,Große Rainstraße 23,22765,53.5531624,9.931217,02204213
292856260,Mama Rosa,Heckscherstraße 1 A,20253,53.5801832,9.9615764,03304316
293728104,Taverna Lefkas,Von-Essen-Straße 36,22081,53.5729398,10.0443965,04408422
294325610,Attika,Bäckerstraße 3,25469,53.6380131,9.8424927,0
295309730,Leuchtturm,,,53.4507444,9.9809799,07704705
296087739,Peter Pane,Lange Reihe 107,20099,53.5595059,10.0136866,01105113
296936722,Casse-Croûte,ABC-Straße 44-46,20354,53.5545585,9.9861813,01103108
297503265,Quán 99,Eilbeker Weg 199,22089,53.5745095,10.0586561,05502505
298515059,Hellas,Am Stühm-Süd 86,22175,53.6247099,10.0991764,05507515
298579408,Restaurant LAurora,Hummelsbüttler Hauptstraße 47,22339,53.6408795,10.0366726,05512520
298801385,Restaurant & Café Seehof,Fabriciusstraße 288,22177,53.6176611,10.0734614,05507515
300393858,Restaurantkneipe Hardys,Tresckowstraße 14,,53.5744652,9.9637627,03301308
300394130,Das Lokal,Bismarckstraße 60,20259,53.5752192,9.9662217,03301308
300394226,Herzstück Eimsbüttel,Osterstraße 10-12,20259,53.5739746,9.9618109,03301308
300395898,Ristorante Terzetto,Bundesstraße 31,20146,53.5657138,9.9792639,03302311
300548840,Heemann,Eppendorfer Weg 159,20253,53.5789044,9.964622,03304316
300549453,SVAAdish,Weidenallee 69,20357,53.5691429,9.9634498,03301310
300560627,Chamant,Basselweg 102,22527,53.5967297,9.9326875,03309321
300562453,Apollon bei Pano,,,53.5994624,9.922237,03309321
300595143,Cupn Go,Grindelhof 1,20146,53.5675449,9.9812512,03302311
300595271,Kinh Do,Grindelallee 91,20146,53.5680405,9.9799345,03302311
301573031,Fischereihafen Restaurant,Große Elbstraße 143,22767,53.5444951,9.9358863,02201202
301993961,Das Feuerschiff,,20459,53.5435215,9.9789345,01103105
302672421,Abaton Bistro,Grindelhof 14 a,20146,53.567628,9.9818536,03302312
302713199,Sala Thai,Am Kaiserkai 1,20457,53.5411869,9.992861,01102103
302714078,Surfkitchen,Am Kaiserkai 1,,53.5411613,9.992955,01102103
302716652,Vietnam Town,,,53.5414305,9.9908822,01102103
302717401,Al Lido,Am Kaiserkai 13,20457,53.5414885,9.9917193,01102103
303345585,Kumkapi,,,53.5886724,9.8754543,02208220
303380925,Akari,Papenhuder Straße 67,,53.5685948,10.0179007,04406415
303734750,Kleine Waldschänke,Sandmoorweg 149,22559,53.5962378,9.7461077,02214227
304013749,Kosta & Evi,,,53.6468514,10.0433631,05512520
304199120,Hornbachers Goldener Engel,,,53.4645438,9.9824658,07701702
306272557,Betriebssportcasino,Wendenstraße 120,20537,53.5479824,10.0308402,01106117
306526200,D - Hamburg - Il Vicolo,,,53.4636244,9.9807444,07701702
306526211,Shukria Restaurant,Lämmertwiete 2,21073,53.4634512,9.9814646,07701702
306526215,Bei Fernando,,,53.4633969,9.9816832,07701702
307875902,Schönes Leben,Alter Wandrahm 15,20457,53.5455304,9.9976168,01102103
307966855,Montenegro bei Sabina,Ellerbeker Straße 27,25474,53.6620568,9.8986984,0
308016756,A Vila,Kieler Straße 108,25474,53.6662527,9.9041441,0
308260850,Dill sin Döns,Elbuferweg 95,22609,53.5503035,9.8428964,02210222
308608553,El Tequito,,,53.546044,9.9537841,02201201
308906104,Sushi for Friends,,,53.464057,9.9672483,07710711
308906495,Golden City,,,53.4599698,9.978589,07701701
308906535,Dubrovnik,,,53.4602091,9.979819,07701702
308907810,Silo16,Schellerdamm 16,21079,53.4650249,9.9859337,07701702
308908629,momento di,Veritaskai 3,21079,53.4663175,9.9869637,07701702
309651671,BLOCK HOUSE,,,53.4619433,9.9807446,07701702
309652121,Restaurant Scharf,Harburger Schloßstraße 2,21079,53.4640686,9.9825916,07701702
309744457,Maihan,Eppendorfer Weg 240,20251,53.5829187,9.9753311,04401401
309755435,Gasthof Schwarzenbeck,,,53.5252965,10.1683713,0
309757838,Zur Havighorster Nesthenne,,,53.5197144,10.1737023,0
309795393,Mangold,,,53.5629788,9.9187575,02205216
309819839,Castello,Sportplatzring 47,22527,53.5926147,9.9297722,03309321
309837584,Burger Lounge,Am Centrumshaus 2,21073,53.4601374,9.9793485,07701702
309839831,Meson Galicia,Maretstraße 60,,53.4528603,9.9822897,07701702
311931369,Vasco da Gama,Lange Reihe 67,20099,53.5578894,10.0116622,01105113
311932220,Deli Indo,Barcastraße 8,22087,53.5621481,10.0171116,04407416
311932375,Casa Romana,Lange Reihe 12a,20099,53.5553859,10.0088494,01105114
312744075,Canton,Osdorfer Landstraße 218,22549,53.5731964,9.8474922,02209221
314879482,Iranisches Molana,Danziger Straße 14,20099,53.5558052,10.0152141,01105113
315107300,Beira Rio,,,53.5459198,9.9729233,01103105
315107896,Big Bull,Großneumarkt 24,20459,53.550945,9.9796445,01103106
315347450,Ola Lisboa,Ditmar-Koel-Straße 18,,53.5460212,9.9752488,01103105
315347506,Porto,Ditmar-Koel-Straße 15,,53.5457976,9.97533,01103105
315347574,Casa del Sabor,Reimarusstraße 9,20459,53.5456541,9.9753488,01103105
315348044,D. Jose,Ditmar-Koel-Straße 11,20459,53.5459028,9.975904,01103105
315348295,O Farol,,,53.546143,9.975869,01103105
315348357,Casa Madeira,,,53.5460974,9.9756454,01103105
315348605,Mehndi Restaurant & Bar,Rambachstraße 20,,53.5458858,9.9762129,01103105
315348809,Panthera Rodizio,Ditmar-Koel-Straße 3,20459,53.5461603,9.9769651,01103105
315349265,Nello,,,53.5458381,9.9742866,01103105
315353424,Old Commercial Room,,,53.5481753,9.9779081,01103106
315969882,Peking Haus,,,53.5423093,10.168935,0
318099040,Il Siciliano,Johannes-Brahms-Platz 11,20355,53.5550049,9.9802903,01103107
318099227,Riads,Johannes-Brahms-Platz 7,20355,53.5548491,9.9800543,01103107
318106353,Kleinhuis Cafe&Weinstube,,,53.5512754,9.9773362,01103106
318355004,Taverna Petros & Marietta,,,53.7055555,10.1066278,05514522
318364231,Giardino dItalia,Duvenstedter Damm 45,22397,53.7078787,10.108119,05514522
318374689,Zum Bäcker,Herrenhausallee 9,22397,53.7099799,10.1319684,05515523
319778015,September,,,53.556689,9.9748728,01104109
319779633,Restaurant Békaa,Rentzelstraße 50,20146,53.5650457,9.9775912,03302311
321197866,Mama Trattoria,Lehmweg 44,20251,53.584592,9.9806334,04401401
322582203,YONG korean,Schulterblatt 92,20357,53.562776,9.9614866,02202207
325963600,Archilleon II,,,53.4011878,10.1686925,06606607
326118622,Meşhur Adıyaman Çiğ Köftecisi,,,53.5177754,9.9866895,01116137
327547147,Ristorante da Lui,Hudtwalckerstraße 37,22299,53.5945771,9.9982416,04405409
327636232,Irodion,Ohlsdorfer Straße 12,22299,53.5952194,10.0000747,04405409
328705065,Mamma Leonne,Eppendorfer Weg 201,,53.5811053,9.9696468,03304316
332366571,Gyo Sushi,,,53.6349387,9.9191926,03307319
333695775,Rio Grande,Dockenhudener Straße 2,22587,53.5618202,9.8200222,02211223
336700300,Il Cristallo,,,53.563131,9.9489125,02203208
337446644,Panjaab,Grindelhof 39,20146,53.5688397,9.9832316,03302311
341788134,Casa Di Roma,,,53.5579898,10.0123232,01105113
344620471,Mahlzeit Bistro,Neumühlen 11,22763,53.544074,9.9237024,02204214
344623992,Il Gambero,Elbchaussee 94,22763,53.5464189,9.9222532,02204214
347280334,Tarantella,Stephansplatz 10,20354,53.5584999,9.9903117,01103108
351360866,Nostalgia bei Sotiris,Eulenstraße 49,22765,53.550202,9.926919,02204214
351521856,Flying Market,Eulenstraße 38,22765,53.5504244,9.9272788,02204213
351561176,Farina di Nonna,Ottenser Hauptstraße 9,22765,53.5520897,9.9319939,02204213
351578410,BOK,Ottenser Hauptstraße 1,22765,53.5520783,9.9332358,02204213
353310110,Farina meets Mehl,Gaußstraße 190,22765,53.5591667,9.9249321,02204211
355242188,La Maison d´Avignon,Arnoldstraße 2,22765,53.549683,9.9303866,02204214
356744233,Hoppe’s Restaurant,Övelgönne 6,22605,53.544623,9.9132769,02207219
356744981,Café Elbterrassen,Övelgönne 1,22605,53.5445322,9.9140735,02207219
356750258,Zum alten Lotsenhaus,,,53.5449087,9.9120362,02207219
356809795,China Restaurant Mongolei,Marktplatz 3-5,22844,53.7040618,10.008724,0
360807119,Osteria La Botte,Bahrenfelder Steindamm 109,22761,53.5635806,9.919318,02205216
363390989,Kalliopea,Neue Wöhr 14,22307,53.5982403,10.0379638,04410429
363579305,Mr. Kebab House,Sophienstraße 7,21465,53.5086287,10.2527291,0
363658590,Leandros,Meiendorfer Mühlenweg 35,22393,53.6424537,10.1295672,05510518
364142790,Loving Hut,Markusstraße 2,20355,53.5517302,9.9802985,01103106
364428604,Hellas,,,53.598338,9.8587833,02208220
366731509,Asia Lam,Rahlstedter Bahnhofstraße 41,22143,53.6026462,10.1546528,05518526
366969210,Malik Pizza,Sandweg 1,20257,53.5722971,9.9500405,03301307
367004365,Grilltaverne Hellas,,,53.6004876,9.8735746,02208220
367029080,China Restaurant Lee Hoo Fook,Ulzburger Straße 398,22846,53.7223433,9.9983999,0
369815345,Miri‘s Restaurant,Buchenstraße 1,22885,53.56856,10.1746306,0
369986450,Der Kebap,Billhorner Röhrendamm 94,20539,53.5367134,10.033745,01114133
370256242,Mr. Hoh,,,53.6080983,9.8404348,0
371757818,Dionysos,,,53.5336461,9.8720851,01120141
372530675,Taverna Korfu,Neugrabener Bahnhofstraße 27,21149,53.469629,9.854674,07714715
372733213,buddhas kitchen,Große Elbstraße 133,22767,53.5442408,9.9392066,02201202
372734691,am kai,Große Elbstraße 145b-d,22767,53.5445569,9.9343431,02201202
373241542,Entennest,,,53.4491354,9.9836556,07704705
377987457,Anleger 1870,Hartwicusstraße 7,22087,53.5657249,10.0191581,04406415
378819328,Sachsenwald,,,53.4696254,10.2868486,0
383594339,Maquis,Thedestraße 2,22767,53.5514051,9.9489419,02201205
384616603,Tunici,Luruper Chaussee 2,22761,53.5716706,9.8980627,02205217
384642088,Pandas Küche,Bahrenfelder Chaussee 178,,53.5710198,9.8991944,02205216
385090860,Opposti,Altonaer Chaussee 61,22869,53.5990664,9.8458704,0
385090862,Anatolia Kitchen Altona,Große Bergstraße 199a,22767,53.5519122,9.9439957,02201204
386177280,Asia-Küche,Hermann-Balk-Straße 120,22147,53.6252064,10.1404681,05518526
386574568,Schweinske,Jahnring 21,22297,53.6000436,10.0119373,04405408
386887151,Burger Lounge,Wentorfer Straße 20,21029,53.4870798,10.2185451,06602603
387134886,Lily,,,53.4723112,9.8520969,07714715
387443219,Henssler & Henssler,Große Elbstraße 160,22767,53.5445995,9.9430573,02201202
387843463,Schweinske,Barmbeker Markt 19,22081,53.5822365,10.0434948,04408421
387846090,BLOCK HOUSE,,,53.6753883,10.2403738,0
388299642,Taverna Santorini,Wendlohstraße 13,22459,53.6226155,9.9510158,03306318
389677413,Senkoi Am Hafen,Große Elbstraße 14,22767,53.5452292,9.9513983,02201201
389793242,Restaurant Stover Strand,Stover Strand 10,21423,53.4243717,10.295403,0
390986310,Dammanns,Groß Hove 2,,53.5191381,9.7313864,0
391538765,Casa Mia Ristorante,Harksheider Weg 111,25451,53.726423,9.9154333,0
391539679,La Famiglia,An der Retloh 1,25451,53.7288543,9.8970965,0
392678216,Rodeo,,,53.6020363,9.8367788,0
393186761,Campana,,,53.6726163,9.7746312,0
403189763,Giovanni,Wohlwillstraße 29,20359,53.5542591,9.9620853,01104110
405838971,„c’est si bon“ der Bio-Kiosk am Dahliengarten,Luruper Chaussee 178,22761,53.5800009,9.8857178,02205217
409233540,HENNYs,Hans-Henny-Jahnn-Weg 1,22085,53.5791474,10.0138637,04406414
409233542,Cucina by Ciao Bella,Hofweg 104,22085,53.5793228,10.0135953,04406414
409233545,Chingu,Körnerstraße 1,22301,53.5796848,10.0127571,04405413
409233547,Pitarello,Mühlenkamp 8,22303,53.5803758,10.0126782,04405412
409233559,Sushi Yama,,,53.5812311,10.0083052,04405413
409233561,Alkiony,Abendrothsweg 55,20251,53.5842424,9.9751408,04401401
409233564,La Bruschetta,Dorotheenstraße 35,22301,53.5814749,10.0090701,04405413
409233573,Gallo Nero,Sierichstraße 46,22301,53.5810869,10.0076226,04405413
409233576,Mangia e Bevi,,,53.5806824,10.0079497,04405413
409382645,Pizza social club,Mühlenkamp 29,22303,53.5813638,10.0114654,04405413
409382647,VOUS,Gertigstraße 7,22303,53.5814729,10.0128148,04405413
410213288,Bahar,,,53.5415951,10.0507529,01114132
410439699,Maybach,Heußweg 66,20255,53.5778716,9.9533956,03301305
410637871,Cafe Restaurant Ferien auf der Heid,,,53.4060943,9.7745337,0
411016977,Baris,Lerchenfeld 48,22081,53.5700016,10.0279222,04406415
411016980,Inos,Finkenau 1,22081,53.571335,10.0302686,04406415
411016988,Falafel Factory,Barmbeker Markt 40,22081,53.5795062,10.0408825,04408423
411017006,Daddy Pizza,,,53.5904196,10.0546865,04410426
411017021,Goldener Drache,,,53.5780158,10.0385387,04408421
411687630,Café Lüküs,Falkensteiner Ufer 101,22587,53.5644251,9.7675313,02211223
412469205,Olympia Grill,Ohechaussee 110,22848,53.6746553,9.9867797,0
413504586,mOlaga,Grindelallee 159,20146,53.570799,9.9781736,03302311
414101691,Peking-Enten-Haus,Laufgraben 16,20146,53.5660056,9.9771067,03302311
415293531,Laufauf,Kattrepel 2,20095,53.5489956,9.9996401,01101101
418956988,Spacca Forno,Poelchaukamp 27,22301,53.5808965,10.0078041,04405413
419847310,Lumberjack,,,53.661276,9.7870233,0
420393477,Kronos,,,53.6511538,9.7913222,0
420393544,Bon Chi Chi,Richard-Köhn-Straße 48,,53.6473181,9.7925178,0
422559749,Pasta Friends,Hammerbrookstraße 92,20097,53.5443686,10.0252249,01106116
425614429,Restaurant Fesstos,Cuxhavener Straße 415,21149,53.471845,9.8372443,07714715
428168826,Alte Schule,Hauptstraße 44,22962,53.6319471,10.2971687,0
428746597,Schullers Bistro und Bar im TC Siek,,,53.6417069,10.2935727,0
430464427,La Fée,Hofweg 50,22085,53.5726609,10.0157023,04406414
430464429,Fardi,Hofweg 72,22085,53.5749295,10.0151288,04406414
431171384,Mio,Jungfernstieg 58,20354,53.5529768,9.9937604,01103108
432429124,Da Caio,,,53.5609297,10.0147238,01105113
433297059,Seehaus Hamburg,An der Alster 10a,20099,53.5611226,10.0124593,01105113
436345275,Palazzo,Rothenbaumchaussee 185,20149,53.5772999,9.9884581,03303313
436345617,toto,,,53.5772082,9.9884582,03303313
439294599,Ristorante da Franco,,,53.5898565,9.9873511,04402404
440624352,Die Brücke,Innocentiastraße 82,20144,53.5789243,9.9786354,03303314
440712135,PATIO,,,53.58065,10.0068587,04405413
441058008,Achilleon,,,53.482874,10.2218996,06602603
441066958,ono,Lehmweg 17,20251,53.5808166,9.9782492,04401401
441217141,Campus am Isemarkt,Klosterallee 80,20144,53.5797242,9.9802155,03303314
441266951,An An,,,53.55532,10.0087479,01105114
441297257,KiMs Norderstedt,Friedrichsgaber Weg 290,22846,53.7023403,9.9796812,0
441298293,Ionios,Rathausallee 83b,22846,53.7080142,9.9837719,0
442137112,Jim Block,Jungfernstieg 1,20095,53.5517033,9.9941727,01101102
442443906,Leon,Koppel 1,20099,53.5566977,10.0084883,01105114
444215032,Bootshaus zur Außenmühle,,,53.4482068,9.9813813,07704705
444714198,Der Grieche,Hammer Landstraße 70,20537,53.5551536,10.0507955,01108124
444841486,Rio Grande,Schmiedestraße 2,25462,53.6499721,9.8305156,0
446093164,Il Nonnino,Mundsburger Damm 45,22087,53.5683952,10.0236822,04406415
446934690,Thats Amore,Weidenstieg 24,20259,53.5708391,9.9608172,03301308
447449851,Vo Uu,Grindelhof 17,20146,53.5680789,9.9820548,03302311
448903885,Iô,,,53.5896806,9.9889997,04402404
450198391,Tsubaki,Schaapkamp 5,22927,53.6632088,10.2863654,0
450198393,Bosco,Eilbergweg 2,22927,53.6624118,10.2839136,0
450394271,Reeperbande,Reeperbahn 157,20359,53.5494865,9.9565241,01104112
450652000,Doris Diner,Grindelhof 43,20146,53.5691191,9.9834408,03302311
450652003,Wen Cheng,,,53.5698814,9.9841968,03302311
450652005,Casa Mia,Grindelhof 65,20146,53.5701025,9.9843375,03302311
452648710,Sahlings Gasthaus,,,53.4519584,9.9548577,07709710
452908288,Namaste Hamburg,,,53.590633,9.907658,03308320
454401970,Zur Pulvermühle,,,53.4171597,10.035003,0
454587663,Lokmam,Susannenstraße 16,20357,53.562414,9.963972,02202207
455482288,Flame,,,53.7130759,10.0004796,0
455566050,Lava Grill Döner,,,53.5930037,9.9875149,04402403
456732791,Apple & Eve,Grindelallee 34 A,20146,53.5655488,9.9831922,03302312
457008706,Mama Trattoria,,,53.5706951,9.9953543,03302312
457009532,BLOCK HOUSE,,,53.5718049,9.9949652,03302312
457329684,Kouros,An der Alster 28,20099,53.5597584,10.011158,01105113
458869717,Schützenverein Brunsbek,,,53.6007842,10.2754094,0
463176847,Alte Rader Schule,Rader Weg 209,22889,53.7336482,10.1266617,0
467064278,BLOCK HOUSE,Heegbarg 32,22391,53.6550388,10.0934197,05511519
471135383,Köz Urfa,Paul-Nevermann-Platz 2-4,22765,53.5526195,9.9362809,02203210
473850224,Berlin Milljöh,Große Straße 15a,,53.6748021,10.2402515,0
473850262,Rockefeller,,,53.669827,10.236103,0
473850265,La Villa Rossa,,,53.6727962,10.2397062,0
476565546,Lenz,Poppenbütteler Chaussee 3,22397,53.7082349,10.1055728,05514522
482087787,Food court,Hammerbrookstraße 47,20097,53.548447,10.0228225,01106117
482150317,Cosmos,Spritzenplatz 12,22765,53.5514623,9.9309799,02204213
482150318,Kypros,Spritzenplatz 18,22765,53.551714,9.9306085,02204213
482516702,Takumi Ramen,Schulterblatt 114,20357,53.5645046,9.9600434,03301310
483330754,Zur Gondel,,,53.5848732,10.030565,04405411
483342630,Pho Hanoi,,,53.5871635,10.0381421,04410427
484262671,Lencis,Rathausallee 35,22846,53.7069835,9.9899266,0
489564008,Raj Mahal,Borstelmannsweg 145,20537,53.5473373,10.0506228,01108127
489656852,Bich Ngoc,Spadenteich 4-5,20099,53.5559169,10.0083509,01105114
490185859,Thai Food,Herrengraben 22,20459,53.5478762,9.9830365,01103105
490185869,Rialto,Michaelisbrücke 3,20459,53.5492719,9.984733,01103107
490185874,Marinehof,,,53.5491812,9.9850662,01103107
493873276,Rindocks,Bremer Straße 343,21077,53.4349948,9.9342116,07708709
495158599,Ashoka,Budapester Straße 25,20359,53.5531752,9.9653235,01104111
497828595,Mehfil Indian Food,,,53.7340936,9.9890094,0
498846686,Wiwa,,,53.5194992,10.1743948,0
513876261,Opatija,Am Sportplatz 98a,,53.5490016,10.2184354,0
518525074,Zur Rennbahn,Stover Strand 4,21423,53.4287295,10.3034211,0
518587058,Tunicis Restaurant Zwölf Apostel,Holsteiner Tor 2,22043,53.5693329,10.1460976,05504512
525166100,Hoyers Gasthof,Hauptstraße 102,25497,53.6817912,9.7510077,0
528775993,Dolcetto,Große Bäckerstraße 2,,53.5489464,9.9923572,01101102
536391122,Yemen Resturant,Steindamm 71,20099,53.5557063,10.0164654,01105113
536391125,Pho Duc,Steindamm 103,20099,53.5569135,10.0190274,01105113
540131057,Hoang-Bistro,,,53.5652808,9.9418995,02203209
540290067,Kavikos,,,53.6140169,10.135819,05518526
541393167,Ahoi,Spitalerstraße 12,20095,53.5519341,10.0020998,01101101
544381445,The Greek,,,53.5446559,9.9761012,01103105
556010409,Frau Miller,Friedrich-Ebert-Straße 52,25421,53.663416,9.7937074,0
556372720,Remise,Möllner Landstraße 55,21509,53.5401073,10.2100023,0
558754009,HHLA Kantine,,,53.545244,9.9987752,01102103
559208899,Halle 13,Hellbrookstraße 2,22305,53.5903187,10.0349437,04410427
559953634,The Cube,,,53.5558605,10.0015752,01101101
568338174,Köz Adana,August-Krogmann-Straße 1a,22159,53.6064199,10.1188999,05506514
571446557,Blaue Blume,Harkortstraße 95,22765,53.5604383,9.9386408,02203210
574262595,Salut,Moorfuhrtweg 9,22301,53.5844659,10.0089599,04405410
575909163,Gasthaus von Deyn,,,53.4103753,10.1438802,0
576979766,La Locanda,,20355,53.5510423,9.9820722,01103107
588086674,Rio Grande,,,53.7089081,10.1061934,05514522
588969390,Achtern Diek,Kirchwerder Mühlendamm 75,21037,53.4083049,10.2084681,06606607
590885307,Ciao Bella,,,53.6182233,9.9507977,03306318
590885317,Han Yang,Zum Markt 1,22459,53.6220267,9.9535976,03306318
596344091,Dulfs Burger,Eimsbütteler Chaussee 25,20259,53.5668488,9.9571226,03301310
598123154,Zum Bergstedter,Teekoppel 9,22395,53.6712922,10.1339805,05516524
598465494,Eat The Film,Kleiner Schäferkamp 36,,53.566533,9.9675308,03301309
600025688,Landhaus Ohlstedt,,,53.6956243,10.1384279,05515523
601012675,Tandoor,,,53.7133046,9.9996637,0
601149869,Pilio,Tibarg 33a,22459,53.6215337,9.9517212,03306318
601149877,Schweinske,Tibarg 40,22459,53.6207639,9.9527898,03306318
602372007,Il Porcino,,,53.6228374,9.9512428,03306318
603001309,Ciao Bella,Hudtwalckerstraße 13,22299,53.5935219,9.9941146,04405409
603106273,La Terrazza,Adlerhorst 18,22459,53.6321692,9.9558755,03306318
603106274,Naoussa,Paul-Sorge-Straße 142a,22455,53.6346631,9.9531389,03306318
606157808,Casino,,,53.5699887,10.1052844,05503511
610574653,Ristorante Italiano,Lehmweg 58,20251,53.5829298,9.9804371,04401401
610574692,iL Cantuccio,Eppendorfer Landstraße 36,20249,53.5870116,9.9847997,04402404
610574718,Stüffel,Isekai 1,20249,53.5852401,9.9887114,04402404
611334615,S.A.X,,,53.4895691,10.1589408,06614615
613106746,Hanami,Barmbeker Straße 165-167,22299,53.5921484,10.0029749,04405409
614135357,Daniel Wischer,Steinstraße 15a,20095,53.5499271,10.0025738,01101101
617018034,Rickmer Rickmers Gastro,,,53.5446352,9.9727558,01103105
621101995,Belmondo,Bundesstraße 40,20146,53.5661686,9.9792365,03302311
621101996,Umami Kimchi,Rentzelstraße 11,20146,53.5663196,9.9802217,03302311
621101998,Quan 19,Rentzelstraße 6,20146,53.5668351,9.9803061,03302311
621769334,Schifferbörse,Kirchenallee 46,20099,53.5537592,10.0087824,01105114
623573362,Vistro - Café - Pizzeria - Bar,Bramfelder Chaussee 265,22177,53.6152153,10.0759188,05507515
623573391,Restaurant Am Dorfplatz,,,53.613333,10.0790298,05507515
626332461,Le Jus Deli,Eppendorfer Baum 28,20249,53.5840288,9.983661,04402404
627576767,Vapiano,Kurze Mühren 20,20095,53.5531444,10.0026926,01101101
628628797,Osteria Tarantino,,,53.5824304,10.1112833,05505513
631645839,Kosch,,,53.6491749,10.2777673,0
631831412,Goldherz,Mittelweg 31,20148,53.5685951,9.9951723,03302312
631941968,Die Taverne,Wandsbeker Chaussee 47,22089,53.5669365,10.0398434,05501501
636058221,Schweinske,,,53.5520034,9.93313,02204213
642270054,Hellas Grill Eilbek,Papenstraße 65,22089,53.5655042,10.0457975,05501503
642552204,Elbblick,,,53.544616,9.8219353,01120141
644163401,Restaurant Dubrovnik,,,53.4496881,9.9371847,07709710
650416268,Brook,Bei den Mühren 91,20457,53.545351,9.9936697,01101102
650416277,Bella Italia,Brandstwiete 58,20457,53.5464497,9.9967884,01101102
650416280,Shen Yan,Brandstwiete 36,20457,53.5471859,9.9966151,01101102
651386182,Schweinske Eimsbüttel,Kieler Straße 284,22525,53.5829966,9.9342041,03309321
654039908,Schweinske Lurup,Luruper Hauptstraße 164,22547,53.5927674,9.871403,02208220
654039911,Redox House,,,53.5968232,9.8667251,02208220
659019629,Zur alten Flöte,Koppel 6,20099,53.5563314,10.0083274,01105114
661180910,Taverna Olympiade,,,53.460011,9.9351048,07710711
662211468,Novo,,,53.4858528,10.2173189,06602603
662891033,Kochlounge Pinneberg,,,53.644262,9.8110521,0
663428631,D.E.S. Bergedorf,,,53.5436528,9.9146286,02204214
670500809,Casa Grande,Bornbarg 31,25495,53.6948252,9.7869858,0
671534388,Wein- und Friesenstube,,,53.4757261,10.0829642,06607608
671764559,Köz Bingöl,Langenhorner Chaussee 655,22419,53.6782421,10.0004218,04413432
674041908,Et-Öz Döner,Fuhlsbüttler Straße 110,22305,53.5889067,10.0459811,04410427
677043927,Eichenhof,,,53.7104351,10.0989563,05514522
677298670,Peter Pane,Schäferkampsallee 1,20357,53.5674586,9.9692932,03301309
677298672,Palü,Rothenbaumchaussee 63,20148,53.5684545,9.9880473,03302312
677298674,Der Etrusker,Grindelhof 45,20146,53.5692918,9.9836429,03302311
677551990,Ristorante & Pizzeria Al Lago,Lauweg 4,21037,53.4451753,10.1310044,06606607
679671133,Ammos,Riesserstraße 11,20535,53.5619526,10.0482986,01108121
679897632,Bella Vita,Kollaustraße 125,22453,53.6096957,9.9581942,03306318
684220902,Alexandros,Wendlohstraße 90,22459,53.629644,9.942502,03306318
684237389,Waldcafé Corell,Niendorfer Gehege 50,22453,53.6157703,9.9323447,03306318
687060246,Südhang,Susannenstraße 29,20357,53.5629165,9.9645712,02202207
687710196,Tiefenthal,Isestraße 77,20149,53.5836642,9.9855599,03303314
687710203,Positano Osteria,Isestraße 147,20149,53.5839529,9.9931645,03303314
689097202,kaalia,Rentzelstraße 13,20146,53.5662499,9.9800811,03302311
692085309,Burger Boss,,,53.5889538,10.0459661,04410427
692085317,Lezzet,Fuhlsbüttler Straße 173,22307,53.5942828,10.0437839,04410428
695548952,Cao,Heubergredder 30,22297,53.60783,10.0094883,04404407
696719531,Marschländer Elblounge,Spadenländer Elbdeich 40,21037,53.4783285,10.0629447,06613614
697106463,BLOCK HOUSE,Andreasstraße 57,22301,53.5828466,10.0078871,04405413
697679073,Thessaloniki,Gluckstraße 75,22081,53.5742558,10.048457,04408422
698543476,Olympia Grill,,20535,53.5629329,10.0590091,01108123
699032204,Schleßelmann,Hauptstraße 31,25462,53.6491374,9.8297705,0
701741908,Fährhaus Tatenberg,,,53.4951806,10.0836346,06612613
702453336,Hanoi deli,Colonnaden 39,20354,53.5569329,9.9900916,01103108
703704390,Andronaco,Halskestraße 48,22113,53.5200175,10.0830901,01113131
706251236,Cast Iron Grill,,,53.5546437,9.986851,01103108
707708973,Omnu,Oldesloer Straße 33,22457,53.63585,9.9166077,03307319
708822142,Chalon,Adlerhorst 8,22459,53.6313431,9.9553238,03306318
708822155,7days Restaurant,Krähenweg 31,22459,53.632184,9.9589854,03306318
710338257,Kleinhuis,Fehlandtstraße 26,20354,53.5572234,9.9912193,01103108
710559339,As Urfa Harburg,Moorstraße 2,21073,53.4566148,9.9858324,07701702
710920177,Jacobs Restaurant,Elbchaussee 401,22609,53.5504351,9.8441854,02210222
711911678,Bistro am Fleet,,,53.5494206,9.9862078,01103107
718603241,Kaspar Schmauser,Valentinskamp 18,20354,53.5555081,9.9856707,01103108
719260807,Hellas,Riekbornweg 16,22457,53.6334098,9.9146279,03307319
724276520,Alexandros,Alsterdorfer Straße 274,22297,53.6077209,10.0077442,04404407
725591166,Va Veloce,Süderstraße 30,20097,53.5446485,10.028973,01106117
726304482,Jazz Cafè Volksdorf,Im Alten Dorfe 36,22359,53.6487754,10.1670682,05517525
728582384,di candele,,,53.4633165,9.9811755,07701702
734685934,Vezos Greek Restaurant,Walddörferstraße 49,22041,53.5793017,10.0722381,05502507
735861737,Kalivrisi,Fuhlsbüttler Straße 466,22309,53.6062435,10.0396309,04410429
735861770,Mokka,Bahrenfelder Chaussee 29,22761,53.5642961,9.9163168,02205216
737968534,Zum Hufschlag,Fahrenkrön 56,22179,53.6109368,10.0944893,05507515
739423994,Kleine Brunnenstraße 1,Kleine Brunnenstraße 1,22765,53.5508084,9.9271486,02204213
740412870,Feinkost Hafencity,Am Kaiserkai 27,20457,53.5413564,9.9901019,01102103
740412877,CARLS Bistro,,,53.5409386,9.9858875,01102103
740412879,Chili Club,Am Sandtorkai 54,20457,53.5428684,9.9929301,01102103
740412882,Restaurant VLET,Am Sandtorkai 23,20457,53.5435409,9.9930579,01102103
741321892,Kaisers,Am Kaiserkai 23,20457,53.5410737,9.9901133,01102103
746580384,Ciao Mamma,Am Sandtorkai 40,20457,53.5429309,9.9853428,01102103
746580430,Oh its fresh,Am Sandtorkai 40,20457,53.5429075,9.9849684,01102103
747148870,Naxos,,,53.6486918,9.8984313,0
747434495,Dialog,,,53.6484534,10.0163129,04413432
748041896,Rhodos,Hauptstraße 22,25462,53.6476915,9.8313235,0
751148276,am Holstenwall,Holstenwall 19,20355,53.551976,9.9755153,01103106
752352124,DieFrischeKantine,Kornkamp 8,22926,53.6832478,10.2591271,0
761349782,Ristorante Pomanti,Sternstraße 125,20357,53.562235,9.9677899,02202207
761660908,Shukria Restaurant,Eppendorfer Marktplatz 8,20251,53.5933661,9.9895103,04402404
762658822,Il Cammino,Schulterblatt 82,20357,53.5622619,9.9620346,02202207
766832810,Samui Thai Cuisine,,,53.5775893,10.0327616,04408420
767994755,Kkokki,Schanzenstraße 36,20357,53.5609811,9.9655547,02202207
768054941,Tunici Restaurants Barmbek-Süd,Adolph-Schönfelder-Straße 49,22083,53.5779958,10.0324453,04408420
768058095,Balutschistan,Schulterblatt 88,20357,53.5626218,9.9616245,02202207
768058096,Super Mercato Italiano,Schulterblatt 82,20357,53.5622026,9.9620896,02202207
768124916,Taverna Romana,Schulterblatt 53,20357,53.5611357,9.9624992,02202207
768996259,Ciccio e Franco,Rehagen 29,,53.6489569,10.0514122,05512520
770919552,Chez Xinh,Dorotheenstraße 33,22301,53.5812406,10.009239,04405413
773371303,Restaurant Athen,Fuhlsbüttler Straße 527,22337,53.6089121,10.037961,04411430
775207570,Goldener Buddha,Glüsinger Straße 54,21217,53.4165354,10.0194401,0
775866015,Lavastein,,,53.4889372,10.2083485,06602602
783189387,Nagel,Kirchenallee 57,20099,53.5527761,10.0089813,01105114
784485286,Il Buco,Zimmerpforte 5,20099,53.5553855,10.0123306,01105114
790290575,Zum Eichbaum,,,53.4879971,10.1047205,06609610
797563614,Trinity,,,53.5520115,10.0177918,01105114
798573995,Zum Falkenstein - aktuell dauerhaft geschlossen,,,53.5673408,9.7799516,02211223
800524504,Mäxx,,,53.576047,10.0302602,04408420
800825210,Clubhaus SC Condor,,,53.6078911,10.122878,05506514
802087826,Am Falkenberg,,,53.4643535,9.8656118,07714715
811669705,Mansaaf,Eppendorfer Weg 208,20251,53.5820867,9.972862,04401401
822628836,La Hacienda,Im Alten Dorfe 38,,53.6489658,10.1679318,05517525
822804677,Salt & Silver Levante,St. Pauli Hafenstraße 140,20359,53.5465424,9.9584386,01104112
827787263,Rindocks,Hamburger Straße 190,22926,53.6576635,10.2113298,0
831246045,Crazy Croque,Friedrich-Ebert-Damm 160a,22047,53.5886637,10.0993792,05505513
833340200,Piccobello,Schenkendorfstraße 30,22085,53.5768573,10.0189025,04406414
835986787,Q-Bar,,,53.580884,9.9460693,03301301
840456430,Olive,,,53.6473563,10.1692649,05517525
840723845,Villaggio,Im Alten Dorfe 40,22359,53.6492359,10.1678625,05517525
841884238,Azeitona,Beckstraße 19,20357,53.5588137,9.9653269,02202207
843506743,Mittagsfisch,,,53.6484829,10.1648809,05517525
845288060,Lindenhof,Heimfelder Straße 44,21075,53.4639742,9.9554794,07710711
848860163,Restaurant Hintze,Leeswig 106,21635,53.531984,9.7647014,0
857477383,Restaurant Finkenwerder Elbblick,Focksweg 42,21129,53.5387533,9.8736721,01120141
865211028,Minas Restaurant,Friedrich-Ebert-Damm 91,22047,53.5869647,10.0878756,05502509
877754751,Il Grappolo,Barkholt 65,22927,53.6533655,10.2812247,0
880214026,Restaurant FISCHclub Blankenese,Strandweg 30a,22587,53.5560524,9.8043614,02211223
880222844,Restaurant Ahrberg,Strandweg 33,,53.5570606,9.8046472,02211223
880630983,Sushi Company,,,53.5602734,10.025759,04407417
880806052,La Classe Capanna,Langenfelder Damm 86b,22525,53.5827258,9.9358088,03309321
880883828,Kleine Heimat,Am Freibad 4,25451,53.7318005,9.8993932,0
881795538,Gennos,Hammer Steindamm 102,20535,53.5616521,10.0554415,01108122
881841755,La Venezia,Hammer Steindamm 113,20535,53.5629476,10.0566248,01108123
882841521,Dubrovnik,Kieler Straße 407,22525,53.5915797,9.9293399,03309321
890170988,Pane e Vino,Pezolddamm 1,22175,53.6203358,10.0976615,05507515
891522830,Old MacDonald,Stellinger Weg 33,,53.5791426,9.949101,03301303
891522831,Corfu Grill,Hellkamp 43,,53.579332,9.9486475,03301303
896984224,Eisenstein,Friedensallee 9,22765,53.5543826,9.9270487,02204213
897042706,Hatari,Eulenstraße 77,22763,53.5506701,9.9252957,02204214
897237325,Pfeffersack,,,53.5500764,9.9918267,01101102
903994258,Aretea,,,53.6423441,10.0479448,05512520
905000737,Café Sommerterrassen,Südring 44,22303,53.5914384,10.0306364,04405409
913543724,"Bei Manzels, Guten Tag & Abend",,,53.5962332,9.9877006,04402405
913543729,Die Pizzeria,Eppendorfer Landstraße 163,20251,53.5960368,9.9876657,04402405
914202214,Sala Thai,Brandsende 12,20095,53.5540375,10.001775,01101101
914321867,Strandhof,,,53.5568359,9.8058108,02211223
914414795,Maral,Eppendorfer Baum 22,20249,53.5837493,9.9847037,03303314
914427281,Bistro Tati,Bellealliancestraße 35,20259,53.5680133,9.9597256,03301307
914427288,Mareas Tapas Bar,Bellealliancestraße 44,20259,53.5681278,9.9609204,03301310
914427292,Bistrot Vienna,Fettstraße 2,,53.566583,9.9636742,03301310
914806974,Restaurant Alexandros,Bramfelder Straße 87a,22305,53.5880726,10.0520853,04410426
923905048,Sushi für Hamburg,,,53.6013608,9.8881082,02208220
930541684,mai-mai,Wandsbeker Chaussee 288,22089,53.5702421,10.0604304,05503510
936818228,güvens kebap haus,,,53.5175782,9.9865397,01116137
939112332,Mendelssohns,,,53.5942632,9.9461214,03305317
945252311,Kantine,,,53.5217812,9.9003247,01119140
945479416,Sushi für Hamburg,Walddörferstraße 51,22041,53.5793211,10.0728028,05502507
947250420,Santorini Grill,Dithmarscher Straße 2,22049,53.5765397,10.0595206,04409424
954800297,Jannis,Walddörferstraße 115,22047,53.5797049,10.0815877,05502508
955311357,Steakhouse Cabana,Friedrich-Ebert-Damm 28,22049,53.5838912,10.0764721,05502506
960536350,Papillon,Niendorfer Straße 55-59,22529,53.606345,9.9560318,03305317
961719829,Schnitzelhus,Luetkensallee 1,22041,53.5783758,10.0940249,05502508
961736636,China Restaurant Mongolei,,,53.5782094,10.0857629,05502508
963480403,Le Marrakech,Gert-Marcus-Straße 10,22529,53.6030448,9.9747041,04403406
963617942,Il Tramonto,Grelckstraße 13,22529,53.6005095,9.9565536,03305317
965057885,Mozart Stuben,,,53.5782217,10.0218963,04408418
966551395,Sencha,Osakaallee 2-4,20457,53.5433397,9.9979206,01102103
971078090,The Klub Kitchen,Großer Burstah 29,20457,53.5482527,9.989393,01101102
972782182,Zum alten Bahnhof,Odemanns Heck 5,21039,53.4485168,10.2215574,06603604
973501659,Central,,,53.5569952,10.0109792,01105114
973646519,Panorama,Grachtenplatz 11,,53.4832306,10.1749787,06614615
974460417,Viet Bowl,Gertrudenstraße 13,20095,53.5532644,9.9990854,01101101
975918081,"Bei Hadjia, Afrikanisches Restaurant",Repsoldstraße 49,20097,53.5486084,10.0134725,01106115
982620401,Pizza Time´s,Kurt-A.-Körber-Chaussee 53,21033,53.4887431,10.1948536,06602602
982639374,Pikasa,,,53.5260236,10.0209098,01115134
983452213,Ristorante Romantica,Am Tarpenufer 8,,53.6812776,9.9973165,0
984794819,Zur Alten 16,Hamburger Landstraße 28b,21465,53.4890015,10.2473639,0
984999460,Speise Stube,,,53.5169064,9.9887083,01116137
985216769,Sakana Sushi Lounge,,,53.5815342,9.7584328,02214227
989367852,Achilion,,,53.4583965,9.9492096,07710711
990127250,Luna Sel,Bahrenfelder Straße 86,22765,53.5507932,9.9302802,02204214
990145642,Zum Spätzle,Ottenser Hauptstraße 35,22765,53.5516628,9.9274294,02204213
1004006274,Pizzeria Alt Hamburg,,,53.5487815,9.9605831,01104112
1012079011,Schweinske,Schweriner Straße 8-12,22143,53.6050573,10.1590953,05518526
1013598167,Lisas Asian Fusion,Holländische Reihe 26,22765,53.5477718,9.9292928,02204214
1014523283,Castello,Dorfstraße 8,21509,53.542398,10.2107522,0
1015892194,Der Goldbeker,Schinkelstraße 20,22303,53.5841653,10.0118066,04405412
1067448108,Mexiko Strasse,Detlev-Bremer-Straße 43,,53.5505659,9.965016,01104111
1067456409,Han-Mi,Kleine Seilerstraße 1,20359,53.550711,9.9673121,01104111
1077489885,El Iberico,Friedensallee 34a,22765,53.5554128,9.9264559,02204211
1078576284,Yoko Sushi Altona,Eulenstraße 42,22765,53.5504024,9.9270068,02204213
1078579554,Drei Sommer,Eulenstraße 57,22765,53.550376,9.9264178,02204214
1079075362,Dal Fabbro,Blankeneser Bahnhofstraße 10,,53.55937,9.811272,02211223
1081849609,Weinhaus Röhr,Blankeneser Landstraße 29,22587,53.5637718,9.8079767,02211223
1084080755,Green Papaya,Bahrenfelder Straße 105,22765,53.552603,9.929873,02204213
1091273938,Mitri Saliba,Springeltwiete 7,,53.5496604,10.0032663,01101101
1091293003,Ciao Bella,Burchardstraße 8-14,20095,53.5488218,10.0038371,01101101
1107515514,Alte Schmiede,Quickborner Straße 71,,53.6865798,9.8087207,0
1123404629,Underdocks,Neuer Kamp 13,20359,53.5573516,9.9659058,02202207
1148132685,Va Bene,Erdkampsweg 52,22335,53.6301057,10.0223799,04412431
1149418516,La Trattoria Italiana,Erdkampsweg 33,22335,53.6282455,10.0240634,04412431
1162424649,Bocca al Lupo,Bernadottestraße 20,22763,53.5482344,9.9230375,02204214
1168740804,Poletto Winebar,Eppendorfer Weg 287,20251,53.5851319,9.9808748,04401401
1172077778,Annam,Weidestraße 129,22083,53.5807792,10.0240506,04408419
1191289194,KÖZ LEZZET,,,53.5177548,9.9858065,01116137
1199204622,China Restaurant Hong Kong,Gärtnerstraße 103,20253,53.5797884,9.9642755,03304316
1201130626,Canton,Fahltskamp 65a,,53.6570787,9.8081547,0
1201130630,Rindocks,Hindenburgdamm 67-69,25421,53.6623576,9.8054911,0
1204970516,Ribling,Fuhlsbüttler Straße 755-757,22337,53.6205536,10.0332188,04411430
1209170149,Trattoria Mondello,Kramer-Kray-Weg 1,22399,53.6657114,10.0785828,05511519
1239635818,,,,53.4317029,9.9831504,07706707
1243684288,Nach Amerika,Veddeler Bogen 2,20539,53.5204462,10.0160717,01115134
1258383079,Farinelli da Franco,Hofweg 68,22085,53.5741794,10.015371,04406414
1263360605,La Sorpresa,,,53.5748843,10.019924,04406414
1269081658,Holstenhof,,,53.4983425,10.2032956,06601601
1269081664,Alt Lohbrügger Hof,,,53.5024581,10.2058152,06601601
1269116638,Kolossos zu Rhodos,,,53.4976345,10.2039217,06601601
1269116654,Taverna Nostos,Lohbrügger Landstraße 1,21031,53.4945588,10.206069,06601601
1270976559,Trattoria Lili,Holstenstraße 119,22765,53.5594716,9.9492462,02201206
1273317462,BSV-Treff,,,53.6087665,10.0811934,05507515
1277163007,Alsterdorfer Kesselhaus,Alsterdorfer Markt 14,22297,53.6129482,10.0246152,04404407
1281745332,BLOCK HOUSE,,,53.5594781,9.8866364,02206218
1282070023,Kronos,,,53.5490995,10.2397527,0
1288267197,Phönix,Seemoorweg 3,25469,53.6280382,9.8679518,0
1288267204,Lodge,,,53.6596501,9.7699397,0
1291420821,Pappenheimer Wirtschaft,Papenhuder Straße 26,22087,53.5667111,10.0195345,04406415
1291423176,Speisewirtschaft Opitz,Mundsburger Damm 17,22087,53.5649644,10.0183395,04407416
1291501877,Nido,,,53.5460708,9.9887613,01101102
1291656937,Il Ristorantino,Wohldorfer Straße 30,,53.576919,10.0429151,04408422
1294186369,Kartoffelkeller,Deichstraße 21,20459,53.5462429,9.9875731,01101102
1297301262,Taverna Knossos Palace,,,53.4990789,10.0246799,01116136
1304347564,China Restaurant Zum Grenzkrug,Grenzweg 28,21465,53.5535325,10.2432792,0
1306984558,Lindos Grill,Hauptstraße 53,22869,53.6010464,9.8220349,0
1313996186,asia corner,Heidestraße 94-96,25462,53.6308439,9.8720732,0
1314554080,Take Home,Möllner Landstraße 4,21465,53.5525362,10.2510521,0
1315967523,Via Cafélier,Paul-Dessau-Straße 4,22761,53.5634813,9.9153601,02205216
1317462961,Trattoria Pirandello,Nordalbingerweg 17,,53.6402826,9.9479718,03306318
1318030347,Dolce Vita,Poststraße 3,25469,53.6363855,9.8408388,0
1323820936,Gasthaus Offen,Lemsahler Dorfstraße 39,22397,53.6864752,10.104751,05513521
1329447976,Scottys,Bahrenfelder Steindamm 101,22761,53.5628044,9.9203107,02205215
1357756659,1900 Asia Fusion-Sushi-Grill,Bahrenfelder Straße 170,22765,53.5542526,9.9287954,02204213
1359644851,Urfa Tadi,Bahrenfelder Straße 120,22765,53.5526314,9.9301204,02204213
1362534994,Röperhof,Agathe-Lasch-Weg 2,22605,53.5535231,9.8966374,02207219
1376676140,Taverne Galini,Schaapkamp 3,22927,53.6630436,10.2859082,0
1379109990,Sepideh,Hammer Straße 5,22041,53.5698418,10.0614889,05503510
1384209628,le-su,,,53.5588675,10.0129005,01105113
1384359328,Konfuzius,Langenhorner Chaussee 660,22419,53.6778117,10.0011212,04413432
1391523547,Asia Lounge,Grindelallee 146,20146,53.569374,9.9797857,03302311
1391523601,Levant Oriental Kitchen,Grindelallee 132,20146,53.5687775,9.98009,03302311
1391523608,Saito Sushi,Grindelallee 44,20146,53.566133,9.9824131,03302312
1391540147,Mimis Crepes,Grindelallee 24,20146,53.5649588,9.9838261,03302312
1393721521,Helena,Am Rosenplatz 6,21465,53.5119771,10.2508895,0
1393721523,Great Asia House,Bergstraße 1-9,21465,53.5111979,10.2511434,0
1393721526,Clubhaus der TSV Reinbek,Theodor-Storm-Straße 20,21465,53.5160761,10.242379,0
1393721527,Sparks,Hermann-Körner-Straße 49,21465,53.5216529,10.2432707,0
1400367311,Pergola,Pinneberger Chaussee 4,22523,53.6089427,9.903965,03308320
1413814418,Taverne Olympia,Marquardtsweg 3,21217,53.4112077,9.9884863,0
1415799081,Bei Thomas,Altonaer Chaussee 1,22869,53.598102,9.853854,0
1418010406,DNV Kantine,,,53.5442413,9.9998019,01102103
1425782430,Finkwarder Klönstuv,,,53.5332599,9.8776356,01120141
1429100736,Landhaus Scherrer,Elbchaussee 130,22763,53.5462333,9.9166163,02207219
1430074786,jam jam,Eiffestraße 78,20537,53.5523106,10.0391956,01107119
1434959085,Yafa,,,53.5510508,10.035921,01107119
1436396649,Quellental,Quellental 36,22609,53.5526833,9.8584725,02210222
1442007176,Arizona Steakhouse,Barmbeker Straße 150,22299,53.5934274,10.0006579,04405409
1445704139,Jimmy Elsass,Schäferstraße 26,20357,53.5683274,9.9660811,03301309
1446965715,Hacker-Pschorr,Lange Reihe 97,20099,53.5589249,10.012957,01105113
1451621594,Tassajara,Eppendorfer Landstraße 4,20249,53.585129,9.9821747,04402404
1451621596,Deseo,Eppendorfer Landstraße 10,20249,53.5854226,9.9825459,04402404
1454125747,Giros King,,,53.4499807,9.9663981,07709710
1455182261,Ziyade,,,53.4591707,9.9825523,07701702
1455182499,Brasserie,,,53.4590601,9.9846862,07701702
1457137466,Soul Sushi Norderstedt,Ulzburger Straße 332b,22846,53.7162531,10.000048,0
1469247247,da Barone,Große Straße 9C,22926,53.6756894,10.2408563,0
1482097663,BLOCK HOUSE,,,53.5516082,9.9942517,01101102
1482104700,Primavera,Hopfensack 18,,53.5484676,9.999332,01101101
1482105472,Sugarfree,Mohlenhofstraße 4,20095,53.5497382,10.0011985,01101101
1484793708,GZeiten,Bramfelder Chaussee 302,22177,53.6175364,10.0787288,05507515
1491747983,China Ente,,,53.6921322,10.1687085,0
1502029210,Brasserie Flum,Rothenbaumchaussee 10,20148,53.5634104,9.9900453,03302312
1502662514,BLOCK HOUSE,Hoheluftchaussee 2,20253,53.5791406,9.9757229,03304315
1502662571,Shichi,Hoheluftchaussee 28,20253,53.5800419,9.9746441,04401401
1503301945,Mezedes,Osterstraße 2,20259,53.5736263,9.9631755,03301308
1503302190,Charm Thai Street Kitchen,Osterstraße 4,20259,53.5736796,9.9628575,03301308
1503302192,Zum Olymp,Bismarckstraße 40,20259,53.5742486,9.9641868,03301308
1504507573,Moto 59,Eppendorfer Weg 204,20251,53.5819717,9.9724428,04401401
1504507697,Trattoria Calabria,Gärtnerstraße 76,20253,53.5809055,9.9645456,03304316
1504507714,Sushi Up,Gärtnerstraße 68b,,53.581246,9.964945,03304316
1505478474,LOEWEN Edelsatt,Eppendorfer Weg 264,20251,53.5838831,9.9785092,04401401
1505478475,Gooddy,Löwenstraße 22,20251,53.5841375,9.9779055,04401401
1508604273,Chinarestaurant Mei Moon,Bremer Reihe 10,20099,53.5535128,10.0091867,01105114
1508604420,Ristorante Capri,Kirchenallee 53,20099,53.5531704,10.008894,01105114
1513517639,Der Chinese Am Fleet,Borstelmannsweg 77,20537,53.5509922,10.053718,01108125
1524336596,Bullerei,Lagerstraße 34 B,20357,53.5631311,9.9661488,01104109
1525291969,Frank und Frei,Schanzenstraße 93,20357,53.5631223,9.9652728,02202207
1525292000,Omas Apotheke,Schanzenstraße 87,20357,53.5628854,9.9652949,02202207
1528073301,Maharaja,Detlev-Bremer-Straße 41,,53.5506654,9.965068,01104111
1554863776,Rondell,,,53.5713863,10.0690131,05503510
1561370936,Hofbräuhaus,Esplanade 6,20354,53.5575446,9.9920472,01103108
1561370940,Matsumi,Colonnaden 96,20354,53.5575673,9.9901324,01103108
1561370944,Stadtküche,,,53.55427,9.9839613,01103108
1561538987,Bottega Italia Restaurant,Lange Reihe 41,20099,53.5569964,10.0104417,01105114
1561538991,San,,,53.558786,10.0116047,01105113
1562338715,S&S Grill & Döner,,,53.5830502,9.9665248,03304316
1562385901,Brüdigams,Eppendorfer Weg 98,20259,53.5746782,9.9624342,03301308
1562385902,Moraba,Susannenstraße 6,20357,53.5619695,9.9628656,02202207
1564055696,DaliBar,Reimarusstraße 17,20459,53.5451669,9.9754422,01103105
1564055769,Picasso Hamburgo,Rathausstraße 14,20095,53.549896,9.9956535,01101102
1564056620,Thämers,Großneumarkt 10,20459,53.5508928,9.9808026,01103107
1566016236,Adyton,Sachsenweg 78,22455,53.6434856,9.9609535,03306318
1566016315,Lington,,,53.6421423,9.95943,03306318
1567810326,El Brujito,Amundsenstraße 25,22767,53.5466196,9.9479016,02201202
1571194414,Kombüse,Bernhard-Nocht-Straße 51,,53.5469434,9.9605214,01104112
1571347879,XIV Heilige,,,53.554705,10.0128463,01105114
1572646381,Wohlers,Thadenstraße 148,22767,53.5572468,9.9548469,02201206
1574464372,Balutschistan,,,53.5543619,9.9284589,02204213
1575382531,Rio Grande,Lokstedter Steindamm 7,22529,53.5983535,9.9657586,03305317
1575382532,Taverna Arhontiko,Troplowitzstraße 2,22529,53.585973,9.967264,03305317
1578708603,Das Treibhaus,Reinbeker Redder 53,,53.5134008,10.1746847,06601601
1579342162,Herr Kwong,Burchardstraße 16,20095,53.549312,10.0012204,01101101
1579347994,Quan Ngon,Springeltwiete 1,20095,53.5488615,10.003248,01101101
1580788010,Ristorante Vito,Bleickenallee 43-45,22763,53.5509345,9.9122158,02204212
1580803988,Darbari,,,53.5938289,10.1449406,05518526
1583360236,Serres,Öjendorfer Damm 66,22043,53.5726412,10.1365786,05504512
1588914337,LEuropeo,,,53.5658714,9.894733,02206218
1589271240,Croque Master,,,53.5711374,9.9232268,02205215
1592197715,TYO TYO,Barmbeker Straße 2,22303,53.5823149,10.0198574,04405411
1594677143,Oh its fresh,Carsten-Rehder-Straße 71,22767,53.5445506,9.9466087,02201201
1595376655,LOsteria,Große Elbstraße 49,22767,53.5441628,9.9467672,02201201
1595376656,Hamburger Elbspeicher,Große Elbstraße 39,22767,53.5441286,9.9488079,02201201
1597348920,Tims,,,53.5443574,9.9502952,02201201
1597348924,Rado am Hafen,Große Elbstraße 38,22767,53.5450606,9.9507017,02201201
1597349442,Elbperle,Große Elbstraße 6,,53.5452778,9.951962,02201201
1599630584,Taverna Omiros,,,53.5924966,9.9463138,03305317
1600859210,Linde,Dockenhudener Straße 12,22587,53.5622399,9.8183119,02211223
1603797690,Porter House,,,53.4651328,10.2016026,06603604
1604586006,Oktober,Wiesendamm 10,22305,53.5874415,10.0410794,04410427
1604921402,Seoul 1988,Mohlenhofstraße 7,,53.5495532,10.0016215,01101101
1609562933,Schweinske Wandsbek,Wandsbeker Marktstraße 149-151,22041,53.5736581,10.0713132,05502507
1611785406,O Atlantico,Veringstraße 26,21107,53.5161949,9.9876337,01116137
1613188107,L italiano Bistro & Vinotec,,,53.5593726,9.8861668,02206218
1616141930,Feuervogel,Wandsbeker Chaussee 303,22089,53.5700428,10.0577499,05501504
1616141935,Taverna Mykonos,Roßberg 35,22089,53.5653957,10.0503504,05501503
1618694831,Il Tesoro,Kieler Straße 702,22527,53.6077121,9.9061471,03308320
1623988820,,,,53.5568288,10.0216891,01105113
1631200361,Remter,Holstenwall 12,20355,53.5533019,9.977222,01103106
1633400952,Kaminski,,,53.6581443,9.9577302,0
1639024785,Tapas-y-Mas,,,53.5338352,10.2250775,0
1640165888,Aegeon,,,53.6525118,10.1860933,05517525
1641501235,Zimmer,Zimmerstraße 34,22085,53.5747578,10.0182266,04406414
1642126679,Schweinske Hamm,Hammer Landstraße 242-244,20537,53.553378,10.0671266,01108125
1642977832,Chios Grill,Tonndorfer Hauptstraße 176,22045,53.5925221,10.1373244,05505513
1645228082,Luisenhof & Dubrovnik,Am Luisenhof 1,22159,53.607168,10.1165409,05506514
1650215040,Votra Kaffee & Bistro,,,53.5234487,10.0150749,01115134
1650215042,Pizzeria Piccola,Wilhelmsburger Platz 14,20539,53.523541,10.0154513,01115134
1652155354,Ristorante Angelo,Wandsbeker Marktstraße 170,22041,53.5737607,10.0729684,05502507
1652155436,LEOS,,,53.5625003,10.0949775,01111129
1652773482,Bistro Fellini,Lornsenstraße 5-7,22869,53.5993157,9.848518,0
1652802962,Il Posto,Schönningstedter Straße 2,21465,53.512823,10.2532552,0
1657200835,Restaurant Eichenhof,Bremer Straße 320,21077,53.4358767,9.9335165,07708709
1664429802,Dahan Restaurant,,,53.5425084,9.9947153,01102103
1667537396,Mylos,Ziethenstraße 12,22041,53.575916,10.0993837,05502508
1670132590,Tapas y Más,Schanzenstraße 72,20357,53.5621916,9.9662331,02202207
1670407184,Fisch Haus LOOP,,,53.5810264,10.0608916,04409424
1673829870,Schweinske,Nebenbahnstraße 3,22523,53.6097794,9.9043455,03308320
1683751789,Khorshid,Alsterdorfer Straße 537,22337,53.6187174,10.0291817,04404407
1684518615,Das Erdgeschoss,Alte Wöhr 13a,22307,53.5976362,10.0382286,04410428
1696448174,Gasthaus,Thedestraße 61,,53.553456,9.9492539,02201205
1696450480,Taverna Priamos,Max-Brauer-Allee 80,,53.554985,9.9420865,02201204
1696704113,cHHurrinos,,,53.5577524,9.9669964,02202207
1697687700,Trattoria Cento Lire,,,53.5582952,9.9751598,01104109
1700274332,Restaurant Fischerhaus,St. Pauli Fischmarkt 14,20359,53.5458919,9.9557134,02201201
1700738403,Blockbräu,Bei den St. Pauli-Landungsbrücken 3,20359,53.5456447,9.9699067,01104112
1705687533,Peacetanbul auf Kampnagel,Jarrestraße 20,22303,53.5832094,10.0209965,04405411
1709289449,Lades,Steindamm 70,20099,53.5546463,10.015315,01105114
1714290451,Delhi Heights,Neue Straße 29,21073,53.4621235,9.9791381,07701701
1719420560,Trattoria Roma Sparita,Lobuschstraße 24,22765,53.55009,9.933,02204214
1722375559,La Piazzetta,Wandsbeker Chaussee 64,22089,53.5660969,10.0392835,05501501
1722375562,Talento,Wandsbeker Chaussee 70,22089,53.5663449,10.0400517,05501501
1722375568,Gute Stube,Wandsbeker Chaussee 40,22089,53.5653707,10.037545,05501501
1724278716,Ændrè,Schlüterstraße 86,20146,53.5712482,9.986075,03302312
1724295426,Akdeniz,Grindelallee 81,20146,53.5676431,9.9802476,03302311
1744112679,Rindock’s,Schweriner Straße 23,22143,53.6052528,10.1605163,05518526
1748373630,Myu Myu,Claus-Ferck-Straße 9-11,22359,53.6493346,10.1633173,05517525
1748697724,Wohldorfer Mühle,Mühlenredder 38,,53.7099374,10.1301567,05515523
1749260390,CTA Kantine,,,53.5085141,9.9284301,07712713
1752703636,Unico,,,53.730784,9.902076,0
1757759034,Trattoria,Hansaplatz 12,20099,53.5550372,10.0125132,01105114
1759716928,BGW Kasino,Pappelallee 35,22089,53.5667532,10.0580026,05501504
1761244782,Asian Fusion,,,53.5856174,10.1238861,05505513
1761244783,New Vietnam,Tonndorfer Hauptstraße 61,22045,53.5860421,10.1239182,05505513
1761447528,Herakles,Berner Heerweg 90,22159,53.5987132,10.1176193,05506514
1762155853,Xenios bei Themi,Osterstraße 46,20259,53.5751095,9.9576811,03301305
1762228827,BLOCK HOUSE,Fuhlsbüttler Straße 165,22307,53.5931869,10.0439294,04410428
1774101764,Hofbräu Wirtshaus Speersort,,20095,53.5495464,9.9981874,01101101
1776032122,Asien Perle,Hauptstraße 35,21629,53.4639845,9.80016,0
1777821713,Cornelia Poletto,Eppendorfer Landstraße 80,20249,53.590291,9.9875056,04402404
1778895829,Ginya,Lattenkamp 8,22299,53.5976125,9.9963789,04405408
1778942821,Oniro,Lattenkamp 29,22299,53.5988898,9.9952157,04405408
1778947096,Ristorante Arabella,Alsterdorfer Straße 44-46,22299,53.5969151,9.9972277,04405409
1780361901,Anno 1905,Holstenplatz 17,,53.5609526,9.9479024,02201206
1781081235,Westminster,Steinhöft 11,20459,53.5447181,9.9826795,01103105
1795244180,Annam,,,53.5738043,10.0696706,05502507
1800860261,O ren Ishi,Kleine Reichenstraße 4,20457,53.5484489,9.9979521,01101101
1802002407,Asia Crown,Frohmestraße 91,22459,53.6301771,9.9276328,03307319
1802833262,Pizzamacher Trattoria,Eppendorfer Weg 244,20251,53.5830824,9.9761018,04401401
1804823036,Café Fritz,Fuhlsbüttler Straße 758,22337,53.6231316,10.0331224,04411430
1805656164,asiahub,Merkenstraße 41,22117,53.5435357,10.1273932,01112130
1806664789,Haus 5,Seewartenstraße 10,20459,53.5481099,9.9689086,01104112
1809976763,Zum Wattkorn,Tangstedter Landstraße 230,22417,53.6637794,10.0237393,04413432
1811012215,Der Grieche Pavlidis,Veringstraße 159,21107,53.5052535,9.9858307,01116137
1811412925,SaRonn,Wegkoppel 3,22117,53.5399399,10.135084,01112130
1812248865,Zum Krokodil,Tangstedter Landstraße 232,22417,53.6642192,10.0238579,04413432
1812258338,Panda Palace,Tangstedter Landstraße 244,,53.665156,10.024345,04413432
1813245794,criss studio Polish-Jamaican,Moorkamp 6,20357,53.5696572,9.9676824,03301309
1815055927,"Tavernaki ""i"" Akropolis",Am Felde 51,21217,53.4230101,10.0297071,0
1815055928,Poseidon,Bürgermeister-Heitmann-Straße 34c,,53.422761,10.0153682,0
1817385162,Miniatur Wunderland Restaurant,Kehrwieder 2-4,20457,53.5437423,9.9891176,01102103
1821312296,Kantine,,,53.5749675,9.8766782,02205217
1830281233,Noory,Jarrestraße 17,22303,53.5843525,10.021617,04405411
1836191802,pistachio,Barmbeker Straße 70-72,22303,53.5892394,10.0156075,04405410
1843163059,Curry Lounge,Steindamm 79,20099,53.556156,10.017445,01105113
1846396590,Bergers am Serrahn,Serrahnstraße 2,21029,53.4895172,10.2092711,06602602
1859844999,Stellauer Steak & Fischhaus,Stellauer Hauptstraße 22,22885,53.5894515,10.2350606,0
1861252382,Palma,Wandsbeker Chaussee 112,22089,53.5672097,10.0455436,05501503
1861253705,Restaurant Cafe Rossio,Wandsbeker Chaussee 117,22089,53.5675472,10.0453047,05501502
1862085493,Simple Kitchen,Rudolf-Klug-Weg 9,22455,53.6405247,9.9473867,03306318
1863515993,Italia Ristorante und Hotel,Am Mühlenteich 3,21521,53.53052,10.3120107,0
1868318261,Pastaria,Adolph-Schönfelder-Straße 67,22083,53.5793701,10.0318633,04408420
1868653103,Di An Di,Bachstraße 145,22083,53.580843,10.0202133,04408418
1868739176,District 45,Bellealliancestraße 45,20259,53.5683716,9.9608403,03301307
1883774190,Ristorante Opera,,,53.5568266,9.9878851,01103108
1883798368,Edelcurry,Große Bleichen 68,20354,53.5522531,9.9863202,01103108
1887413556,Copper House,Davidstraße 37,20359,53.5477965,9.9629175,01104112
1891826639,Alitalia,Hammerbrookstraße 93,20097,53.5451713,10.025466,01106117
1893849853,Sushi Dreams,Ulzburger Straße 302,22846,53.7121051,9.9999726,0
1900275268,Adria,,,53.6224996,10.1650078,05518526
1903775612,BeLaMi,Holtenklinker Straße 26,21029,53.4846961,10.218696,06602603
1909864468,I Vigneri,Große Bäckerstraße 13,20095,53.549053,9.993638,01101102
1909865562,Le Plat du Jour,Dornbusch 4,20095,53.549079,9.994276,01101102
1909867251,Mr Kao,Neß 1,20457,53.5487448,9.9928621,01101102
1909868024,Pasta Authentica by Jill,Börsenbrücke 5-7,20457,53.5487772,9.9926744,01101102
1909870857,o cafe central,Große Bäckerstraße 4,20095,53.5489305,9.9926267,01101102
1909870898,Hamburger Deel,Große Bäckerstraße 6,,53.5489089,9.9930057,01101102
1909876428,estancia steaks,Große Reichenstraße 27,20457,53.5483262,9.9956544,01101102
1909881246,La Tavola Calda,Kleine Johannisstraße 15,20457,53.5493795,9.9939237,01101102
1909891466,Parlament,,,53.5501738,9.9930938,01101102
1911101433,Fürst Bismarck Mühle,Mühlenweg 3,21521,53.5309542,10.3108756,0
1911101435,Waldesruh am See,Am Mühlenteich 2,21521,53.5313408,10.3136673,0
1911335503,Vineria Capriccio,Thielbek 12,20355,53.551224,9.980417,01103106
1912131358,Pasteleria Mococo,,,53.5523628,9.9805164,01103107
1912670942,Beets & Roots,Gänsemarkt 43,20354,53.555824,9.9881405,01103108
1912676461,Mad about Juice,Dammtorstraße 29-32,20354,53.556079,9.9881058,01103108
1912682288,Da Lui,Ahrensfelder Weg 10,22927,53.6523261,10.2602324,0
1912718261,Edmondo,Hohe Bleichen 17,20354,53.5534736,9.9870867,01103108
1914040900,Alte Liebe,Koreastraße 1,20457,53.5432538,9.9999693,01102104
1914040901,coast by east,Großer Grasbrook 14,20457,53.539839,9.9931975,01102103
1918543534,Poké Bar,Gänsemarkt 44,20354,53.5555729,9.9884402,01103108
1918681280,Morellino,Falkenried 54,20251,53.5832859,9.9753622,04401401
1923585458,Ti Breizh,Deichstraße 39,20459,53.5456544,9.9871062,01101102
1925268202,LOsteria,Dammtorstraße 12,20354,53.5570241,9.9879749,01103108
1925268203,Green Papaya,Stephansplatz 6,20354,53.557805,9.9892275,01103108
1930588301,Hellas Stube,Eppendorfer Weg 247,20251,53.583329,9.9757899,04401401
1931973729,Tom Som Thai,Bahrenfelder Straße 211,22765,53.5559526,9.9282078,02204213
1934912946,China Stube,,,53.5638325,9.8147721,02211223
1935146338,Ukitchen,Colonnaden 3,20354,53.5550142,9.9905754,01103108
1935146343,USUMI,,,53.5552462,9.9905103,01103108
1935146348,Franziskaner,Große Theaterstraße 9,20354,53.5563148,9.9906745,01103108
1935146380,Tiffany,Colonnaden 37,20354,53.556706,9.9900996,01103108
1937305233,Sicilia Antica,Colonnaden 47,20354,53.5574202,9.989859,01103108
1937305263,La Pergola Due,Colonnaden 72,,53.5572293,9.9902715,01103108
1937305289,Die Kartoffelstube,Colonnaden 45,20354,53.5572896,9.9899153,01103108
1937305293,Matsumi,,,53.5574867,9.9901523,01103108
1937305297,Helo do Brasil,Colonnaden 104,20354,53.5576539,9.9900945,01103108
1937305302,Fischfeinkost Delikatessen des Meeres,,,53.5576835,9.9900812,01103108
1939965545,Pierro Bistro Restaurant,Schulstraße 36,21465,53.5160137,10.2475336,0
1940123429,Zur Ratsmühle,Ratsmühlendamm 2,22335,53.6264324,10.0295222,04411430
1942718735,Die Leckermacher,Meessen 38,,53.5502888,10.1664515,0
1942791858,Bodhi,Borgweg 11,22303,53.5902669,10.0153236,04405410
1956683753,Café Altamira,Thomasstraße 4,22761,53.5598319,9.9271149,02205215
1979037086,Chen,,20095,53.5488977,9.9931279,01101102
1982847267,Mario,Robert-Koch-Straße 36,20249,53.5898366,9.9861869,04402403
1983158538,petite TORTUE,Neuer Wall 88,,53.5500899,9.9866467,01103108
1983595833,Marleys,Schaarsteinweg 4,20459,53.5461894,9.9813126,01103105
1983595847,Yamato,Herrengraben 22,,53.5477714,9.9829635,01103105
1987132947,Käthners 23,Käthnerort 23,22083,53.5817462,10.0375198,04408421
1987651462,Casa Nova,Hofweg 22,22085,53.5703079,10.0173018,04406415
1993355500,Farina di Nonna,Lange Reihe 19,20099,53.5562528,10.0094201,01105114
1997009825,HD Asia Wok,,,53.4699121,9.8536856,07714715
2009644356,Clubheim & Restaurant,,,53.6760907,10.2050917,0
2015075186,DAILY,Hammerbrookstraße 89,20097,53.5454707,10.0249283,01106117
2021680850,Mr. Cherng,Speersort 1,20095,53.5497029,9.9987798,01101101
2026500257,ANAN Streetfood,,,53.5508433,9.9820964,01103107
2026503502,vin o vin,Kornträgergang 31,20355,53.553064,9.9832987,01103107
2026506230,Noahs Taverna,,,53.5501034,9.9805582,01103107
2027864541,China Restaurant Ho Schnelsen,Frohmestraße 7,22457,53.6357304,9.9185545,03307319
2028032424,Joks,Frohmestraße 11,22457,53.6353741,9.9189155,03307319
2028523411,Costa Smeralda,,,53.6338754,9.9200277,03307319
2032408997,Restaurant Dubrovnik,Wählingsallee 8,22459,53.6317454,9.9200398,03307319
2035479573,Råbowls,Große Johannisstraße 19,,53.5492688,9.9921415,01101102
2035479576,Hanoi Deli,Schauenburgerstraße 49,20095,53.5494061,9.9929437,01101102
2035479579,mama,Schauenburgerstraße 44,20095,53.5495872,9.9933726,01101102
2035513664,Kazoku Sushi,Großer Burstah 42,20457,53.5485061,9.9886218,01101102
2046314973,Corfu Grill Imbiss,Schiffbeker Weg 66,22119,53.5459799,10.1062593,01112130
2058117420,Karlsons,Rutschbahn 15a,20146,53.571279,9.9806749,03302311
2060678955,Tunici,Schiffbeker Weg 96,22119,53.5488986,10.1087362,01112130
2061754475,Maza dOr,Billstedter Hauptstraße 34-36,22111,53.5403343,10.0998299,01112130
2063152881,Söbentein,,,53.676895,10.2402738,0
2063612223,Galego,Vorsetzen 70,20459,53.5441635,9.9765538,01103105
2068108804,Café de Artistes,Gerhart-Hauptmann-Platz 70,20095,53.551946,9.9986344,01101101
2070264168,Ume No Hana - Pho vs. Ramen Bar,Thadenstraße 15,22767,53.5563628,9.9616672,01104110
2070276519,Gekreuzte Möhrchen,,,53.5570831,9.9582799,02201206
2070334067,Mahadosa,Hein-Hoyer-Straße 60,20359,53.5528205,9.9630827,01104111
2084280778,six tables,Alsterdorfer Straße 285,22297,53.6085472,10.0092943,04404407
2087001844,AuthenTikka,Schäferkampsallee 41,20357,53.5687245,9.9664511,03301309
2103221947,Taverna Nico,Hauptstraße 35-37,25462,53.6499451,9.8294944,0
2103962213,Elenas Santorini,Fannyhöh 9f,22926,53.6757276,10.2479014,0
2117796143,,Ernst-Merck-Straße 4,20099,53.5550746,10.0073719,01105114
2121657208,Gandhi,Eppendorfer Marktplatz 21,20251,53.5938955,9.9887352,04402404
2124838272,Restaurant Naxos,Ulzburger Straße 279,22850,53.7055712,9.9959691,0
2125700212,Katana Sushi,,,53.5501345,9.9806048,01103107
2125700213,Mezedes bei Alexandros,Großneumarkt 58,20459,53.55027,9.9809356,01103107
2125700215,Sushi 153,Großneumarkt 38,20459,53.5498907,9.9795642,01103106
2127253818,Taverna Corfu,,,53.4855907,10.2178021,06602603
2127574515,Twenty Six,Mittelweg 26,20148,53.5681183,9.9952944,03302312
2130803523,Thai Gourmet,Rentzelstraße 52,20146,53.5649528,9.9775304,03302311
2135142108,Achtzehn93,,,53.5553669,9.9103988,02204212
2135382865,L Amira,Neusurenland 101,22159,53.616537,10.1137989,05506514
2137983081,La Chance,Wexstraße 33,20355,53.5509392,9.9816821,01103107
2137983090,Luna,Wexstraße 31,20355,53.5510045,9.9818502,01103107
2137983094,Zum Spätzle,,,53.5509638,9.9817496,01103107
2137983098,Mimosas Brunch Club,Wexstraße 27,,53.5511264,9.9823409,01103107
2138018959,Trattoria da Enzo,,,53.551057,9.9815432,01103107
2141386444,N6 Kitchen&Bar,Poststraße 6,20354,53.5524979,9.9909396,01103108
2145288742,Mala Kitchen,,,53.5964589,9.9975247,04405409
2145647399,Krögers Kastanie,Specksaalredder 14,,53.7051587,10.1152678,05514522
2148879535,Port Island,Veringstraße 14,21107,53.5170629,9.9877365,01116137
2148881572,Dionysos,,,53.5490231,9.9253163,02204214
2148881592,il Locale,Große Brunnenstraße 41,22763,53.549923,9.9250729,02204214
2148881594,Karls,Keplerstraße 17a,22763,53.5500691,9.9250475,02204214
2156413457,Griffatos,Lübecker Straße 85,22087,53.5612577,10.0306634,04407417
2157224892,Trattoria Rocco,Dockenhudener Chaussee 20,25469,53.6292905,9.8354335,0
2158647585,Flavours Steakhouse Restaurant,Leuschnerstraße 72,21031,53.5016355,10.205903,06601601
2171287613,Jacky Chang,,,53.6058637,10.1189474,05506514
2185921330,das BISTRO,Alsterdorfer Straße 37,22299,53.5965,9.9971463,04405409
2185960319,Hellas Pizza House,Eiffestraße 181,20537,53.551907,10.0536371,01108124
2192467742,Caspars – Café & Bistro,Jarrestraße 60,22303,53.5853412,10.0275621,04405411
2200731784,Daruma,Stadtdeich 1,20097,53.5457162,10.0078593,01106115
2213582098,La Puglia,,,53.4884752,10.211586,06602602
2225763182,New Long,,,53.6748764,10.2389444,0
2244762521,Schweinske,Krieterstraße 18,21109,53.4982312,10.0110424,01116136
2251321879,Taj Mahal,Max-Brauer-Allee 248,22769,53.5623554,9.9568643,02203208
2251321880,Taverne Ägäis,,,53.5649878,9.9538387,02203208
2264537253,Goot,,,53.5485248,10.0006508,01101101
2270039477,Asia Snack,,,53.7293464,10.2603032,0
2270039481,Pizzeria Bargteheide,,,53.7286794,10.2593041,0
2272407301,Rasthof Harburger Berge,,,53.4239458,9.9665434,07707708
2273082633,Mata Hambre,Methfesselstraße 102,20255,53.5819679,9.947911,03301302
2275119397,Balutschi,Grindelallee 33,20146,53.5657047,9.9822495,03302311
2275620479,Mersin Tantuni,Alte Holstenstraße 47,21031,53.4913657,10.207831,06601601
2277940560,Down Under,Grindelallee 1,20146,53.5642198,9.984035,03302311
2280745470,WRAP sache,,,53.5950949,10.0006901,04405409
2285426198,Zum goldenen Engel,Schöneberger Straße 10,22045,53.5843085,10.1348001,05504512
2290064747,Vagueira,Lange Reihe 51,20099,53.5573368,10.0108864,01105114
2291479672,Trattoria Amarone,,,53.5859361,10.1236688,05505513
2293526943,Quán Đỏ,Georgsplatz 16,20099,53.5533771,10.0025431,01101101
2293912585,MO - Restaurant,Eppendorfer Marktplatz 12,20251,53.593521,9.98961,04402404
2295492914,BLOCK HOUSE,Kirchenallee 49-51,20099,53.5532393,10.0088968,01105114
2297053562,Gaststätte Schützenhof,Quickborner Straße 122,25494,53.7026156,9.8300748,0
2297267349,Yamass,Segeberger Chaussee 51A,22850,53.6831251,10.0079815,0
2301142981,Schweinske,Bergedorfer Straße 112,21029,53.4874712,10.2098632,06602602
2302165434,Hee-Yang;Hee-Yang Sushi & Bar,Kirchenallee 55/56,,53.5529918,10.008928,01105114
2302166171,Das Dorf,Lange Reihe 39,20099,53.5568812,10.010275,01105114
2302169864,Baumanns Bier-Bar,,20099,53.5531242,10.0089235,01105114
2302169865,Vesuvio,Kirchenallee 55,20099,53.5530318,10.0089503,01105114
2304911355,H2O,,,53.5562938,9.9826036,01103108
2305470286,Taverne Antigone,,,53.4222497,10.0113811,0
2306291185,Hala mignon,Rutschbahn 17,20146,53.5711122,9.9814419,03302311
2306837953,Makuri,Steckelhörn 12,20457,53.545737,9.9929265,01101102
2306851008,mama trattoria Hamburg Hafencity,,,53.5429514,9.9938926,01102103
2306851014,pan con tomate,,,53.5429351,9.99366,01102103
2309515919,Tunici Restaurants Rahlstedt,Rahlstedter Bahnhofstraße 48,22143,53.6003994,10.15197,05518526
2311068315,Restaurant Beiti,Alsterdorfer Straße 76,22299,53.5985273,9.9970736,04405408
2314314974,Lusitano,,,53.5450521,9.9761067,01103105
2315881565,Mitri Saliba,Gertrudenstraße 2,20095,53.5529707,9.9998734,01101101
2317640377,Jawa,Wendenstraße 29,20097,53.5472855,10.0263456,01106117
2318172225,Mr. Kebab,,,53.5563972,9.9626853,01104110
2322460447,HIKARI,,,53.4883602,10.2084829,06602602
2324859657,Odysseus,Hellkamp 1,20255,53.5767686,9.9458189,03301303
2324866925,OSole Mio,Methfesselstraße 44,,53.5786955,9.9450891,03301303
2326322190,Alto,Neuer Steinweg 26,20459,53.5500587,9.9759761,01103106
2326340591,Petit Bonheur,Hütten 85-86,20355,53.5504192,9.9755853,01103106
2327851369,Neu Hue,Kaiser-Wilhelm-Straße 51,20355,53.5534179,9.9829216,01103107
2330876452,Alster Lagune,,,53.5535198,9.9967375,01101101
2335487478,Einstein,Schopenstehl 32,20095,53.5486817,9.9975987,01101101
2339746661,Saymai,,,53.5554896,9.9824167,01103108
2341650865,Da Vincenzo,,,53.5929338,10.0030774,04405409
2341650873,Lupo,Dorotheenstraße 182a,22299,53.5915618,10.0022374,04405409
2341650874,Portomarin,Dorotheenstraße 180,22299,53.5913111,10.0023496,04405409
2341650879,Burger Vision,Grindelallee 91,20146,53.5678933,9.9800472,03302311
2351651755,The Locks,Marienhof 6,22399,53.6573,10.0870867,05511519
2368175804,Qrito,Lange Reihe 68 -70,20099,53.5575866,10.0116507,01105114
2376932676,Balducci,Heegbarg 31,,53.6547773,10.0922317,05511519
2377688551,Strandhalle Over,Sandberg 7,,53.4428927,10.0909674,0
2380479362,Amaranto Tapas & Vino,Winterhuder Weg 146,22085,53.5781665,10.0153283,04406414
2398721704,yorisa,,,53.5942515,9.9980174,04405409
2398721726,Ham An,,,53.5939501,9.9964193,04405409
2399713055,Kulinaria,Spökelbarg 20,22117,53.5376609,10.1117494,01112130
2399922951,Alberts Restaurant,,,53.5053519,10.0900052,06611612
2410713702,Casa Nostra,,,53.5572968,10.011536,01105114
2411750692,Neumann|s,Lange Reihe 101,20099,53.5591424,10.0130728,01105113
2414317847,Pizzamatrosen,Fischmarkt 11,,53.5456604,9.9518581,02201201
2415664792,La Bottega,Mittelweg 24,20148,53.5677438,9.9953895,03302312
2418969269,,,,53.4728545,9.9255948,07710711
2430131292,Port,,,53.5467278,9.9690756,01104112
2438733953,WASSERSCHLOSS,Dienerreihe 4,20457,53.5455547,10.0000397,01102103
2439119352,La Casetta,Rantzaustraße 136,,53.6670102,10.221695,0
2439265402,Barolo,Segeberger Chaussee 241,22851,53.6908152,10.0411775,0
2441784664,Rudolphs,Poggenmühle 5,20457,53.5449071,10.0027973,01102103
2453934562,Restaurant Zeus,Stellinger Weg 16,20255,53.5786414,9.9507549,03301302
2454221869,Ciao Ana,Ditmar-Koel-Straße 8,20459,53.5462381,9.9762693,01103105
2465058856,Pho Tinh,Altstädter Straße 23,20095,53.5494038,10.0016606,01101101
2478824420,Gallo Bianco,Himmelstraße 18,22299,53.5969085,10.000609,04405409
2490900022,Taverna Elia,Friedensallee 57,22765,53.5557797,9.9218921,02204211
2496465166,Artemis,Mümmelmannsberg 80,22115,53.5295686,10.1492406,01112130
2497020543,Restaurant Engel,,22609,53.5464004,9.8635655,02210222
2499750255,Curry Pirates,,,53.5779909,10.0213265,04408418
2501587048,Alt Helgoländer Fischerstube,Fischmarkt 4 a-c,20359,53.5458954,9.952972,02201201
2506214967,Mongolei,Friedrich-Ebert-Damm 143-145,22047,53.5890374,10.0980556,05502509
2520339753,Aroma,Fuhlsbüttler Straße 227,22307,53.5960103,10.0431605,04410428
2524030540,La Boca - Steaks & More,Glüsinger Straße 123,21217,53.4082399,10.01629,0
2524460088,Soul Sushi Sasel,Saseler Chaussee 63,22391,53.6383778,10.0940186,05509517
2531229922,Dos Amigos,Serrahnstraße 9,21029,53.4887999,10.2081193,06602602
2531920521,Luigis,Ditmar-Koel-Straße 21,20459,53.5456347,9.9745558,01103105
2543781201,Haus 5 Bistro,,,53.5488767,9.9686877,01104112
2544019164,San Lorenzo,,,53.5476111,9.9364612,02201203
2544020916,Barcelona Tapas,Max-Brauer-Allee 12,22765,53.5471769,9.9364862,02201202
2550319322,Bootshaus,Am Kaiserkai 19,20457,53.5410897,9.9909836,01102103
2552237865,Croccizz,,,53.4582039,9.9669338,07709710
2558473153,MẬU,Martinistraße 14,20251,53.5927583,9.9868437,04402403
2561134300,La Catalana,Holstenstraße 200,,53.5607729,9.9475039,02203210
2569402430,LOrient,Jarrestraße 22,22303,53.5841718,10.0224048,04405411
2569441696,BistroKitchen 53°Nord,Gottschedstraße 13,22301,53.5885033,10.0112791,04405410
2571598043,Piazza,Schulterblatt 84,20357,53.5623434,9.9619409,02202207
2571598053,Napoli,Schulterblatt 84,20357,53.5623802,9.9619026,02202207
2571620325,Diwan,,,53.5627207,9.9641942,02202207
2573624742,Tazzi Pizza,Rendsburger Straße 14,20359,53.5519945,9.9645477,01104111
2575312064,Spanische Treppe,Armgartstraße 7,,53.5654751,10.0191272,04407416
2584251305,Taj,Stadtbahnstraße 39d,22393,53.6529816,10.1034019,05510518
2587704912,Russanos,,,53.5593778,9.8827232,02206218
2590257263,Palastküche,Öjendorfer Weg 30a,22119,53.5418258,10.1109845,01112130
2590568297,Meram,Billstedter Hauptstraße 47,22111,53.5402357,10.1018453,01112130
2597367050,Sushi Lô,Rothenbaumchaussee 105,20148,53.5714085,9.9882259,03302312
2599412838,Shalimar Gardens,Johnsallee 64,20146,53.5664668,9.9879383,03302312
2599412841,Cucina DElisa,Rothenbaumchaussee 101,20148,53.5711662,9.9882876,03302312
2608322478,Pinakas,Grindelhof 64,20146,53.5706634,9.9851567,03302312
2610882352,Sushi Lô,Schulterblatt 3,20357,53.5593276,9.9637837,02202207
2613336386,Home Sweet Home,Haldesdorfer Straße 36 b,,53.5972117,10.0708648,05507515
2619705663,Piri Piri,Schulterblatt 63,20357,53.5614902,9.9621816,02202207
2621136414,Bacchus,Ellerneck 58,22149,53.5913862,10.1453659,05518526
2621306492,Piment,Lehmweg 29,20251,53.5820995,9.979474,04401401
2637058583,Kaiser-Pavillon,,,53.4724766,9.849819,07714715
2638783730,Restaurant Mâitre,Hamburger Straße 1,21465,53.5108391,10.2507121,0
2644305058,HENRIKS Bar & Restaurant,Tesdorpfstraße 8,20148,53.5635549,9.9921098,03302312
2652355241,Klippkroog,Große Bergstraße 255,22767,53.5522663,9.9391517,02201204
2657909235,Brückenstern,,,53.561624,9.9540737,02203208
2660258868,Paros Grill,,,53.4574188,9.9791258,07701701
2684081114,Thai-Gourmet-Imbiss,Eppendorfer Weg 107,20259,53.574462,9.9616041,03301305
2684098214,Kim Chi,Fahrenkrön 146,22179,53.6193509,10.0974517,05507515
2697618614,Memory,Sülldorfer Landstraße 222,22589,53.5807372,9.7930466,02213226
2709275276,Pizzeria al Volo,Eppendorfer Weg 211,20253,53.5814907,9.9704127,03304316
2711784417,Viet Quán,,,53.574542,10.0733116,05502507
2712484817,Taverna Pegasus,Friedrich-Ebert-Allee 3-11,22869,53.6086422,9.8414889,0
2712484819,Dubrovnik,Lornsenstraße 111 a,22869,53.6078266,9.8401686,0
2713620703,Casa Franco Caramba,,20459,53.5451374,9.9760789,01103105
2715894596,Saloon,Kapellenstraße 22,22117,53.5361789,10.11795,01112130
2721194223,Mi Pho,,,53.6324759,9.9090683,03307319
2732927720,Gasthof Hitscherberg,,,53.4376001,10.197401,06606607
2736146008,Restaurant 10°5,Große Brunnenstraße 105-107,22763,53.5531412,9.9227298,02204213
2740989836,ARIA – ristorante italiano,Bergkoppelweg 70,22335,53.6338249,10.0225021,04412431
2745623307,HÀ DĂNG,Bergedorfer Straße 152,21029,53.4858969,10.2148072,06602603
2747521451,Momento Di Due Königsberg,Reeseberg 178,21079,53.4414439,10.0034514,07704705
2754546949,Tibet,Sülldorfer Landstraße 230,22589,53.5807734,9.7920419,02213226
2768538722,Zur Post,,,53.5348368,9.7784998,07717718
2772661832,Hummer Pedersen,Große Elbstraße 152,22767,53.5446029,9.9436057,02201202
2774660923,Ma Maison Tapas Bar,,,53.4873001,10.213375,06602602
2779032057,Sushibar,Bergedorfer Straße 138,,53.4862333,10.2131557,06602602
2790798388,Cuneo,Davidstraße 11,20359,53.5479178,9.9625365,01104112
2791433888,mama,Wellingsbüttler Weg 119,22391,53.6416595,10.0806106,05509517
2791494038,Dai Nam,Beim Schlump 1,20144,53.572357,9.9780037,03303313
2795329720,Peperonico,Bahnhofstraße 11,25451,53.7313469,9.899068,0
2820089466,east Restaurant,Simon-von-Utrecht-Straße 31,20359,53.5512059,9.9659906,01104111
2829541801,Jim Burritos Cantina,Schulterblatt 12,20357,53.5599547,9.9637965,02202207
2833526955,La Villetta,Hamburger Straße 2,21465,53.5104947,10.2511789,0
2836400406,Karofisch,Feldstraße 32,20357,53.5574736,9.9699334,01104109
2839302162,Man Wah,Spielbudenplatz 18,20359,53.549239,9.9648019,01104112
2839302163,Thai Town,Taubenstraße 23,20359,53.5489619,9.9649012,01104112
2839642074,Shikara,,,53.5488236,9.9649205,01104112
2845607721,Huang,,,53.5499368,10.0027183,01101101
2855485902,Kartoffelhaus Papas,Bahnhofstraße 39,21629,53.4681529,9.7912329,0
2861525550,Trattoria Campo,Ludolfstraße 43,20249,53.5928378,9.9921741,04402405
2863208624,mama trattoria,Gertigstraße 61,22303,53.5829238,10.017927,04405412
2867190188,Gasthaus Q21,Fuhlsbüttler Straße 405,22309,53.6035609,10.0395239,04410429
2880453378,Lus Asian Food,,,53.5853073,10.0261404,04405411
2897519348,Trattoria Remo’s,,,53.5538898,9.963075,01104111
2901706591,Cafe Vivet,,,53.5518174,10.0027038,01101101
2906123529,Morgenmuffel,Eppendorfer Landstraße 144,20251,53.5939321,9.9883968,04402404
2907499344,La Stella,Am Rosenplatz 2,21465,53.5115125,10.251587,0
2908869601,Pizzeria Palermo,Hein-Hoyer-Straße 11,20359,53.5505276,9.9619991,01104111
2909009114,Dametto,Erikastraße 70-72,20251,53.5941401,9.9874383,04402403
2909009120,Taverna Symposion,Erikastraße 74,20251,53.5943822,9.9875138,04402403
2909042316,Marathon,Roman-Zeller-Platz 2,22457,53.6472889,9.910053,03307319
2912604662,asiahub,Sülldorfer Kirchenweg 2,22587,53.5641301,9.8130479,02211223
2918515629,Raw Like Sushi,Martinistraße 5,20251,53.5922537,9.9872161,04402403
2919467708,Ilncontro da Cosimo,Weidenallee 25,20357,53.5667829,9.9648928,03301310
2919467721,Trattoria da Leandro,,,53.5678926,9.9642426,03301310
2923284581,Schweinske,Alte Holstenstraße 2,21031,53.4940787,10.2066606,06601601
2923482309,Huang,Alte Holstenstraße 42,21031,53.4915204,10.2074321,06601601
2923998473,Tibet,Harkortstieg 4,22765,53.5585304,9.9394787,02203210
2928971748,Schlachterbörse,,,53.5608016,9.9679653,02202207
2938763386,Schönes Leben,Deichstraße 37,20459,53.5457329,9.987144,01101102
2938809801,Neumanns,Grindelhof 77,20146,53.5708905,9.9848171,03302311
2939052495,Madrigal,Semperstraße 4,22303,53.583703,10.0106304,04405413
2939054203,Menmō,Mühlenkamp 54,22303,53.5834835,10.0100221,04405413
2944710607,Pizzeria am Schlump,Beim Schlump 53,,53.5685663,9.972252,03301309
2960060293,Ristorante Mamma Mia,Am Güterbahnhof 17e,21035,53.4850938,10.1990972,06602602
2984811363,Villa Veranda,Möllner Landstraße 53b,22113,53.5423336,10.1653495,0
2989193822,Küchenfreunde Kraftwerk,Leverkusenstraße 54,22761,53.5657091,9.9327866,02205215
2997154298,Imbiss Frascati Platz,Neuer Weg 64a,21029,53.483846,10.2111897,06602603
3008724783,ROLIN,Fahltskamp 48,25421,53.6579048,9.8067875,0
3008761183,STRAUCHS FALCO,Koreastraße 2,20457,53.5429328,10.0004819,01102104
3009954132,Authentikka,Schinkelstraße 2,22303,53.5818779,10.0139502,04405412
3032022520,Körri Speisekontor,Springeltwiete 2,20095,53.5486529,10.0039123,01101101
3032052910,Im Sprinkenhof,Burchardstraße 8,20095,53.5486202,10.0032809,01101101
3034379336,De Marco,,,53.5498885,9.9954289,01101102
3034488739,Il Cortile,,,53.5700592,9.8966223,02205217
3035314035,New Saigon,Jarrestraße 24,22303,53.5842197,10.0225849,04405411
3054397314,Bella Italia,,,53.6938495,10.0277604,0
3059330834,Hobenköök,Karlshöhe 60D,22175,53.630536,10.1105189,05507515
3062832088,Hot Buffalo Chicks,,,53.5799805,9.9461707,03301301
3067939229,Lust auf Sizilien,Voßbarg 12,25421,53.6382381,9.7871063,0
3077517874,Parea,,,53.5806951,9.9425507,03301301
3088860065,Le Plat du Jour,Milchstraße 3-4,20148,53.5706734,9.9964923,03302312
3116289817,The Bowl,Große Rainstraße 13,22765,53.5527852,9.9306901,02204213
3117553207,Mahajivan,Hein-Hoyer-Straße 10,20359,53.5500939,9.9624213,01104111
3125094806,Ristorante L´Ancora,Karpfangerstraße 20,20459,53.5453933,9.9759234,01103105
3132045666,Mar Salgado,Reimarusstraße 4,20459,53.5461018,9.9749291,01103105
3139335723,Seoul 1988,Müggenkampstraße 86,20257,53.5806517,9.9389875,03301301
3140569514,AlsterCliff,,,53.5740167,10.0021864,03303313
3142668476,Pasta Pasta,Am Kaiserkai 19,20457,53.5410144,9.9910382,01102103
3148220802,LOrient,Bahrenfelder Straße 172,22765,53.5544075,9.9288154,02204213
3161205462,Karlsons,Alter Steinweg 10,20459,53.55047,9.9821161,01103107
3163925859,Das Joy,Winterhuder Weg 69,22085,53.5775082,10.0178817,04406414
3164658617,San Daniele,Langenhorner Straße-Ost 7,22399,53.6635597,10.0747345,05511519
3176624396,Jahreszeiten Grill,Neuer Jungfernstieg 9-14,20354,53.5555409,9.9915198,01103108
3197246864,Tunici,Fuhlsbüttler Straße 388,22309,53.6019839,10.0411411,04410429
3198447641,Yoshi,,,53.5529069,9.9905334,01103108
3204701130,Nissis Kunstkantine,Am Dalmannkai 6,20457,53.5416403,9.9955998,01102103
3206732066,Taverna Jota & Jorgos,Gustav-Falke-Straße 30,20144,53.5707379,9.9713255,03301309
3206749001,Hong Kong Wok,Kielmannseggstraße 63a,22043,53.568443,10.0920078,05503511
3208323809,Clubhaus,,,53.5794577,9.8730171,02205217
3222189144,cantinetta ristorante,,,53.5437552,9.9954557,01102103
3232092126,ănici,Emilienstraße 22-24,20259,53.5756697,9.9552853,03301305
3232092127,L´Orient,Osterstraße 146,20255,53.57733,9.9483165,03301303
3232112583,HATARI Pfälzer Stube,Eidelstedter Weg 1,,53.5804351,9.9571122,03301302
3232734266,Brimborium,Frohmestraße 110,22459,53.6287006,9.9311966,03307319
3248392178,Restaurant Yang-Zi,Europaallee 21,22850,53.682397,9.9872833,0
3265265482,Fantasia bei Alberto,Rathausallee 10,22846,53.7067724,9.9961022,0
3265265487,Hopfenliebe Brauhaus,Rathausallee 60,22846,53.7074917,9.9935586,0
3265978813,Markt Koenig,,,53.5568782,9.9660757,01104111
3266553360,Burgerlich,Speersort 1,20095,53.5497036,9.9989738,01101101
3267185486,Mina,,,53.4978283,10.0095916,01116136
3267189781,kofookoo,,,53.5568986,9.9655155,01104111
3267561311,Das weisse Haus,Neumühlen 50,22763,53.5446758,9.9152103,02204214
3267580879,övelgönner fährhaus,Neumühlen 53,22763,53.5446861,9.9148128,02204214
3268903192,"Speisenwirtschaft, Bed&Breakfast und Café",Hauptstraße 1,25474,53.6575144,9.8699059,0
3276628438,Trattoria 500,Paul-Roosen-Straße 19,22767,53.5529526,9.9586228,01104110
3276691064,Eat Restaurant,,,53.5543439,9.9894716,01103108
3280277161,Pizza Al Taglio,,,53.5565298,9.9280171,02204211
3280992082,waterkant,Bernhard-Nocht-Straße 97,20359,53.5472005,9.9631652,01104112
3281180299,Novo2,,,53.5589612,10.0253025,04407416
3282509813,BENTOSushi & Asian cuisine,Hermannstal 37,22119,53.5539294,10.0905101,01111129
3294909267,Catch of the Day,Koreastraße 1,20457,53.5431815,9.9996197,01102104
3295500274,Steils Hope,,,53.6097719,10.0523635,05508516
3301111866,Dubrovnik,Am Ladenzentrum 4,21465,53.5105981,10.2347551,0
3308509865,Brooklyn Burger Bar,,,53.5486556,9.9964863,01101102
3319732476,Alexandros,,,53.549642,9.994757,01101102
3319762847,Green Table,Schauenburgerstraße 55,20095,53.5493857,9.9927848,01101102
3334305818,Thanh Thanh,,,53.4649541,9.7934796,0
3340558794,IVY,Hopfensack 8,20457,53.5483047,10.0000134,01101101
3358599864,Grill Royal Hamburg,Ballindamm 17,20095,53.5539757,9.9986067,01101101
3380243647,Ginza,,,53.5524823,10.0013289,01101101
3386527866,Shudu,,,53.552283,10.0051795,01101101
3387957398,Wabisabi Ramen,Karolinenstraße 6,20357,53.5575879,9.9752241,01104109
3387957403,anong,Karolinenstraße 16,20357,53.5586839,9.9752068,01104109
3387957406,XeÔm Eatery,Karolinenstraße 25,20357,53.5593151,9.9752084,01104109
3389827578,Indian Temple,Fuhlsbüttler Straße 159,22305,53.5924109,10.043956,04410427
3396311416,Mövenpick,Sternschanze 6,20357,53.5645217,9.9705714,02202207
3409011528,Küchenfreunde,Grindelhof 64,20146,53.5705082,9.9851073,03302312
3409018130,Küchenfreunde,Lehmweg 30,20251,53.5822289,9.9795363,04401401
3409690335,Anker & Angus Restaurant,Reimerstwiete 20;21;22,20457,53.5452038,9.9912842,01101102
3414382744,Zur Elbaussicht,Elbstorfer Straße 59,21423,53.4215118,10.287247,0
3416303643,Meyrs Bistro,Glinder Weg 25,21465,53.5151686,10.2277302,0
3423593371,BLACK ROCK Bar&Grill Hamburg,,,53.4667313,9.9708621,07701701
3427301039,El Toro,Kleiner Schäferkamp 21,,53.5668825,9.968811,02202207
3431286435,Le Jardin,,,53.5751885,9.8893799,02205217
3442741798,Samos,Osterstraße 150,,53.577555,9.9481174,03301303
3446416114,Eat Indisch,Appenstedter Weg 38c,21217,53.4176578,10.0267108,0
3446774039,MAZZA,Moorkamp 5,20357,53.5699353,9.9667206,03301309
3446783254,MAZZA,Poppenbütteler Weg 236,22399,53.6581542,10.0854775,05511519
3447352522,Salentino,Poelchaukamp 1,22301,53.5816651,10.0108784,04405413
3447369806,Liman Fischrestaurant,Mühlenkamp 16,22303,53.5808992,10.0122611,04405412
3448986380,Caramba Especial,,,53.5449213,9.9763762,01103105
3448986387,Casa Ricardo,,,53.5452204,9.976038,01103105
3449380611,NebenanNahDran,,,53.6013284,10.1543305,05518526
3450868953,Viet Home Restaurant,Schweriner Straße 3,22143,53.6052972,10.1564655,05518526
3450972376,Ciao Bella,,,53.6044854,10.1556479,05518526
3451768810,San Michele,Kanalstraße 22,22085,53.573059,10.0184558,04406414
3453728616,Leos Juice & Burger,Hemmingstedter Weg 140,22609,53.5655567,9.8566076,02209221
3460269184,İskele Fisch Grill Haus,,,53.6051904,10.1609284,05518526
3461615693,Taverna Kreta,,,53.5958651,10.151082,05518526
3461615694,LyLy Restaurant,,,53.595628,10.1497668,05518526
3462066541,A Varina,Karpfangerstraße 16,20459,53.5454016,9.9766785,01103105
3462081564,Pastalozzi,Reimarusstraße 10,20459,53.5456295,9.9750663,01103105
3470966059,Badshah Restaurant,Bremer Reihe 24,20099,53.5539718,10.0112904,01105114
3471968813,Mama Trattoria,,,53.5622249,9.8125195,02211223
3475307581,Bistro Carmagnole,Juliusstraße 18,22769,53.5613215,9.9606332,02202207
3486403709,Shukria Quick,Heinickestraße 1,20249,53.5932612,9.9894725,04402404
3487675902,Hoång Deli,,,53.5770368,9.9522818,03301305
3487675903,La Pergola,Osterstraße 100,20259,53.5760315,9.9531918,03301305
3487675904,Alpenkantine,Osterstraße 98,20259,53.576003,9.95333,03301305
3494420101,Café Mexico,Weidenallee 6,,53.5664808,9.9655635,03301309
3511002579,Mitarbeiterrestaurant UKE,,,53.5919359,9.9733259,04402403
3517593395,Claudios,,,53.557979,9.975836,01104109
3518176998,Deliberger Restaurants,,,53.4933467,10.1979627,06601601
3523865993,Petit Amour,Spritzenplatz 11,22765,53.5514099,9.9310617,02204213
3528147948,Kroatien,,,53.6803225,10.2351347,0
3530661294,Texs Bar-b-q,,,53.5502836,9.968043,01104111
3544816798,Restaurant FUGU by Sushi Factory,Große Elbstraße 212,22767,53.5448087,9.9392334,02201202
3544912393,Poke Bar,,,53.5448446,9.9386106,02201202
3544921594,The Big Balmy,Große Elbstraße 117-133,22767,53.5443387,9.9403667,02201202
3548251371,Morgenland,Pestalozzistraße 19,22305,53.5875175,10.0471943,04410427
3550761677,Mensa HCU,,,53.5401777,10.0047392,01102104
3556504881,Hanseatic,,,53.5494518,9.8527069,02210222
3558110295,Dim Sum Haus Restaurant China,Kirchenallee 37,20099,53.5546544,10.0084813,01105114
3565698197,Caruso,Weidestraße 49,22083,53.5800277,10.0360247,04408421
3575403208,Hafen Diner,Seewartenstraße 9,20459,53.5467367,9.969359,01104112
3586836375,Meadi,,20249,53.5925113,9.9922167,04402404
3586836381,Yoko Sushi,Ludolfstraße 41,20249,53.5929673,9.9918318,04402405
3588227827,Carlos Coffee,Bahrenfelder Straße 169,22765,53.5544677,9.9284699,02204213
3590832805,Mavi,Am Kaiserkai 46,20457,53.5415042,9.9876131,01102103
3590832812,Cantinetta Ristorante & Bar,Pickhuben 3,20457,53.5441443,9.994497,01102103
3616139231,lam vegan,Kleiner Schäferkamp 14,,53.5672862,9.9690142,03301309
3616139233,Williamine,Kleiner Schäferkamp 16,,53.5671891,9.9688372,03301309
3618318680,Stulle Plus,,,53.5496614,10.0253789,01106117
3656582501,Lust auf Italien,Große Elbstraße 133,22767,53.5442542,9.9388303,02201202
3656732790,Yin Seafood,Große Elbstraße 133,22767,53.5444227,9.9388857,02201202
3656732791,Marseille,Große Elbstraße 164,22767,53.5445848,9.9424234,02201202
3656847901,Ali Baba Döner & Tantuni,Große Bergstraße 243,22767,53.5520257,9.9404884,02201204
3656956598,Alem do Tejo,Max-Brauer-Allee 53,22765,53.5525971,9.9370138,02203210
3656956602,The Saloon Steakhouse,,,53.5524893,9.9376838,02201204
3662142433,Theaterkeller,,,53.5544245,10.008576,01105114
3662142434,Stadt Restaurant,,,53.5547941,10.0084204,01105114
3662352854,A Casa Do Benfica,,,53.545224,9.976325,01103105
3663057935,Little Buddha,,,53.5772229,9.9467142,03301303
3663771376,Chào Bạn,Stellinger Weg 43,20255,53.5799794,9.9478978,03301303
3664754339,Happenpappen,Feldstraße 36,20357,53.5574472,9.9703757,01104109
3664989234,Chango,,,53.5463351,9.9893898,01101102
3665902020,La Quesadilla,Falkenried 30,20251,53.582387,9.9773818,04401401
3670810380,Thiemanns,,,53.5525124,9.9844226,01103107
3670861244,beets&roots,,,53.5483132,9.9966584,01101102
3670861245,Perle,,,53.5485037,9.9988435,01101101
3671923088,Biang Biang Noodles,Osterstraße 165,20255,53.5778507,9.9471841,03301303
3671923090,Tokio Sushi,Osterstraße 167,20255,53.5779709,9.9470659,03301303
3672195544,Andronaco HafenContor,,,53.543672,9.9972082,01102103
3672330500,Seoul 1988,Karolinenstraße 1,20357,53.5567561,9.9750604,01104109
3672359336,Holy Kitchen,,,53.548472,9.9629465,01104112
3672359339,Gassenhauer,,,53.5487603,9.9634226,01104112
3673293489,Freudenhaus,Hein-Hoyer-Straße 7-9,20359,53.5502465,9.9620664,01104111
3673299756,Restaurant Nil,Neuer Pferdemarkt 5,20359,53.5562983,9.9633511,01104111
3675478218,Sakura Udon,Rosenstraße 8,20095,53.5525312,9.9998507,01101101
3675478219,Smietana,,,53.5533184,9.9989951,01101101
3676373841,Ashirwad,Bahrenfelder Chaussee 27,22761,53.5642087,9.9163201,02205216
3679386456,Krameramtsstuben,,,53.5479704,9.9804079,01103107
3686116363,Soulkebab,Fuhlsbüttler Straße 97,22305,53.5878452,10.0457672,04410427
3686157709,DO Friends,Fuhlsbüttler Straße 151,22305,53.5918552,10.0438712,04410427
3693852642,New Mongolei,,,53.6757549,10.2402208,0
3695929853,The Table,Shanghaiallee 15,20457,53.5426486,10.0029903,01102104
3696097569,Kims Kitchen,Stellinger Weg 20,,53.5790172,9.950107,03301302
3700035433,Nordmeer,Wandsbeker Chaussee 155,22089,53.5679294,10.0470447,05501502
3710972195,Shanghai,Kleekamp 1,22339,53.6321518,10.0255554,04412431
3710974981,Wilder Kaiser,Kleekamp 5,22339,53.6325436,10.0256472,04412431
3710985305,Vamos Napoli,Ratsmühlendamm 30,22335,53.6266775,10.02318,04412431
3711775640,Burger Factory,,,53.6303768,10.0145664,04412431
3712609521,Prego,Lilienstraße 36,,53.5517883,10.0009813,01101101
3715827359,Sushi Yama,Mühlenkamp 19,22303,53.5808711,10.0118709,04405413
3715979925,Mai Asia,Rödingsmarkt 43,20459,53.5459743,9.9852117,01101102
3718968876,Santa Fe,Geibelstraße 12,22303,53.5824981,10.0173252,04405412
3719045851,W die Weinbar,Dorotheenstraße 180,22299,53.5913837,10.0023395,04405409
3719069074,Ky Lan,,,53.5918797,10.0021879,04405409
3722036276,Qasr,Lübecker Straße 119,22087,53.5629893,10.0328441,04407417
3726158393,Fischpfanne,,,53.5453139,9.9673737,01104112
3726158394,"Steak, Fish und Schnitzel House",,,53.545386,9.9659128,01104112
3726686319,Captains Dinner,,,53.5451817,9.9695011,01104112
3726686320,Dockline,Bei den St. Pauli-Landungsbrücken 1-2,20359,53.5449946,9.9708451,01104112
3727886210,Fischkajüte,,,53.54525,9.9679289,01104112
3727886212,Hafenwirtschaft Hamburg,,,53.5454275,9.9643528,01104112
3730326116,Zensai,Pinneberger Straße 28,22457,53.6335688,9.9068673,03307319
3733653407,Mash,Große Elbstraße 148-150,22767,53.5445503,9.9440426,02201202
3737034810,Delhicious,,,53.5498676,10.035543,01106118
3744020247,Pizza Bande,Lincolnstraße 10,20359,53.54893,9.9575482,01104112
3749718615,La Rosa,,,53.5494844,10.0224216,01106117
3758950381,Wat Dat Pho,Veringstraße 157,21107,53.5054566,9.9858564,01116137
3759350407,Gröninger Brauhaus,,,53.546294,9.9961373,01101102
3763238296,Pizza Pasta Bar,,,53.5920139,9.9730668,04402403
3764329457,Tam Quan,Hoheluftchaussee 90,20253,53.5837845,9.9702443,03304316
3767320892,Piceno,Hein-Hoyer-Straße 8,,53.5499415,9.9624705,01104111
3769323219,SomeDimSum,Weidenallee 60,20357,53.5690723,9.9640527,03301309
3770365683,echt asien,Alsterdorfer Straße 85,22299,53.5999266,9.996378,04405408
3770912909,Die Perle im Stadtpark,Saarlandstraße 69,,53.5965086,10.0308475,04405409
3773174497,Taverna Hellas,,20359,53.5484071,9.9628149,01104112
3773225575,Com Nieu 21,Davidstraße 21,20359,53.5488127,9.9624019,01104112
3774659813,Kornhauskeller,Brandstwiete 50,20457,53.546624,9.9967666,01101102
3779745344,Chingu,Hein-Hoyer-Straße 3,20359,53.5499141,9.9621512,01104111
3789622002,La Cosecha,,,53.5539169,9.9993897,01101101
3796041108,Papaye,,,53.5766178,10.0597443,04409424
3797279631,adam&sophie Hornung’s Gastronomie,Hasenbanckweg 58,22119,53.5570838,10.1207913,01112130
3801101790,Amadeus,Fuhlsbüttler Straße 113,22305,53.5892933,10.045147,04410427
3802077761,boname,Burchardstraße 17,20095,53.5487474,10.0013066,01101101
3802085801,Berliner Bahnhof,Deichtorstraße 1-2,,53.5471794,10.0063896,01101101
3807431316,Hans im Glück,Börsenbrücke 10,20457,53.5486008,9.9924708,01101102
3807461868,Arione,Deichstraße 17,20459,53.5463634,9.9877807,01101102
3807461871,Zum Brandanfang,Deichstraße 25,20459,53.5460965,9.9874395,01101102
3807461872,Deichgraf,Deichstraße 23,20459,53.5461625,9.9874967,01101102
3807484086,Fisch&Co,,,53.5455529,9.9870646,01101102
3815608036,Sira,,,53.5876287,10.0467373,04410427
3819807681,Pizzeria Zamazingo,Große Bergstraße 171,22767,53.5516056,9.9464108,02201204
3819807686,Köz Antep Altona,,,53.5515424,9.9468466,02201204
3852136297,New Balochistan Barmbek,Fuhlsbüttler Straße 172a,22305,53.5923402,10.0445222,04410427
3857054606,Teheran,,,53.5521051,10.0137315,01105114
3865924058,Kazu Ramen Bar,Mühlenkamp 1,22303,53.5797749,10.0126867,04405413
3874810065,Rolatino,Bertrand-Russell-Straße 4,22761,53.5759951,9.8862283,02205217
3877293950,Pizzaservice Mundfein,Grünebergstraße 85,22763,53.5575561,9.9144226,02204212
3878858457,Schweinske,Langenhorner Chaussee 660,22419,53.6777281,10.0011467,04413432
3889592084,Restaurant Tschebull,Mönckebergstraße 7,,53.551034,10.0029376,01101101
3906158845,Vapiano,Gänsemarkt 24,20354,53.5547116,9.9882678,01103108
3909974671,Tu Huus - TENNIS CLUBHOUSE,Thesdorfer Weg 20,25469,53.6407547,9.833076,0
3911390239,Melange,Neuer Wall 31,20354,53.5516545,9.9910537,01103108
3912413670,Gurke,,,53.5687907,9.9950017,03302312
3914015224,Hensel was sonst,Mühlenkamp 12,,53.5806456,10.0124541,04405412
3914036027,Edelsatt,Mühlenkamp 8,22303,53.5803019,10.0127373,04405412
3914036028,Paledo,Mühlenkamp 1,22303,53.5798356,10.0126392,04405413
3914269011,Suliko,Mittelweg 24,20148,53.5676992,9.9954041,03302312
3928787885,Marché Airport Hamburg,,,53.6310087,10.0050044,04412431
3928787886,Mövenpick Hamburg Airport,,,53.6311811,10.0049721,04412431
3940139963,AKROPOLIS Restaurant,Heidhorst 4,21031,53.5148011,10.1683473,06601601
3942090519,Bounasera,Schmuggelstieg 41,22419,53.6804063,10.0001904,04413432
3942205976,pintxos y mas,Holsteiner Chaussee 321,22457,53.6392208,9.9102031,03307319
3946845784,Butchers Steakhouse,Milchstraße 19,20148,53.5705684,9.9973633,03302312
3946856129,(m)eatery GmbH,Drehbahn 49,20354,53.5566282,9.9869171,01103108
3948209806,Mizu,,,53.5792341,10.0136462,04406414
3951528937,Quan Do,,,53.5822329,10.0151628,04405412
3958612896,Viet No1,Zimmerstraße 52,22085,53.5748588,10.0193768,04406414
3962616474,Sushi für Hamburg,,,53.4853833,10.1998161,06602602
3984018370,Wlokas,,,53.5518331,9.9945042,01101102
3991544657,Erfrischungsraum Oldtimertankstelle Brandshof,Billhorner Röhrendamm 4,20539,53.5399256,10.0270478,01114133
3992043931,LAmira,,,53.5542447,10.0144957,01105114
3992043932,Öz Karides,,,53.5542995,10.0146145,01105114
3999624989,Chingu,Kurze Mühren 13,20095,53.5533335,10.0030054,01101101
4000472371,Yuzu,Alsterdorfer Straße 262,22297,53.607421,10.0065204,04404407
4003070683,Taverna Plaka,,,53.5602351,9.9646816,02202207
4003081701,Leila Eat & Meet,,,53.5600336,9.9637523,02202207
4003190605,mam - eat greek,,,53.5598361,9.9638514,02202207
4007423407,TöGao,,,53.5594022,9.9103067,02204212
4009771313,Kinh Do,Gewerbering 12,22113,53.5500321,10.1570886,0
4027939673,Hatsukoi Hamburg - japanese grill & sushi,Paul-Nevermann-Platz 1,,53.5525614,9.9368164,02203210
4038897582,Alacati,,,53.580843,10.0620823,04409424
4043814615,CYN CYN,Eppendorfer Weg 62,20259,53.5726273,9.9599757,03301308
4043814616,arc,Eppendorfer Weg 58,20259,53.5724298,9.9597558,03301308
4044330157,Die Boutique,,,53.5811881,10.0081293,04405413
4046587550,Goa,Großer Grasbrook 9,20457,53.5416918,9.9938317,01102103
4051320739,Strickers Kehr Wieder Spitze,,,53.5421976,9.9821611,01102103
4053511799,Baba Azeitona,Beim Grünen Jäger 21,20359,53.558557,9.9634037,01104110
4060139490,Sellhorns Gasthof,,,53.6801409,9.8515063,0
4065574752,Marend,Von-der-Tann-Straße 5,,53.5721877,9.9603,03301308
4067258546,Mendoza,Ochsenzoller Straße 110,22848,53.6818893,9.9808665,0
4069988586,Vina-Haus,Mendelssohnstraße 28,22761,53.5638495,9.9136319,02205216
4079598282,Laurent,Rahlstedter Straße 78,22149,53.5967498,10.1531266,05518526
4081976998,AnTee Vegan,Ferdinand-Beit-Straße 7,20099,53.5540249,10.0192791,01105113
4083030722,Surf n Turf,,,53.5828066,10.0085714,04405413
4083212904,Zum Österreicher,Barsbütteler Straße 43,22043,53.5707091,10.1432562,05504512
4099054568,Balaustine,,,53.5616442,9.9868869,01104109
4099057692,Mendoza,Neue Straße 9,,53.672432,10.2411732,0
4111226289,Quanto Basta,Fahltsweide 10,25421,53.6524974,9.8081696,0
4114879269,Osaka Sushi,Waitzstraße 19,22607,53.5594406,9.8836719,02206218
4124289536,Daniel Wischer,Große Johannisstraße 3,20457,53.5498122,9.9930699,01101102
4124662958,Akropolis,Siebentunnelweg 2,25469,53.6154122,9.8653066,0
4128133277,Sabai Jai,Straßburger Straße 46,22049,53.5818841,10.0661077,04409425
4131299937,HafenVokü,St. Pauli Hafenstraße 116,,53.5465652,9.960625,01104112
4144383868,Four Seasons,Wilstorfer Straße 80,21073,53.4548065,9.9871934,07701702
4144447595,Köz Patara,Wilstorfer Straße 56,21073,53.4561764,9.9856524,07701702
4165030207,FHG Kantine,,,53.6278728,10.0057778,04412431
4166330328,Wackerhof,Osdorfer Landstraße 239,22549,53.5726267,9.8432936,02209221
4172276189,Gasthaus Heimathafen,Baumwall 5-7,20459,53.5445155,9.9822165,01103105
4174285989,Ristorante Leonardo,Mittelweg 17,22941,53.7288795,10.2632346,0
4177275454,il Grappolo,Weg zu den Tannen 5,22949,53.7086093,10.211471,0
4177517271,Porta Venezia,Niendorfer Straße 12,22848,53.677424,9.968358,0
4200442590,Cindys Diner,,,53.6321112,10.0053359,04412431
4217619978,Green Papaya,Osterstraße 173,,53.5783591,9.9467545,03301303
4223714783,Hamburger Land- und Golfclub Hittfeld Clubhaus,,,53.3952919,9.955136,0
4229592775,Vereinsheim,,,53.4117455,9.9768731,0
4233697793,Maa´Deyo,Silbersacktwiete 6,20359,53.5479779,9.9575978,01104112
4238886507,Maharani,Hallerstraße 1,20146,53.5728581,9.979058,03303313
4238897186,Baku,Hallerstraße 1a,20146,53.5729544,9.9790608,03303313
4241768151,Störtebeker Fischrestaurant,,,53.5466691,9.9628392,01104112
4245008019,Taj Mahal,Große Straße 15,22926,53.6750511,10.2402665,0
4247392548,I Mori,Tornberg 40,22337,53.6332653,10.0551473,04411430
4247420017,Steak & Fish Palast,Reeperbahn 42,20359,53.5499483,9.9649955,01104111
4247420021,Babes & Beer,Reeperbahn 19-21,20359,53.5501045,9.9665448,01104111
4247420024,Gasthaus an der Alster,Ferdinandstraße 65-67,20095,53.5528516,9.9982332,01101101
4247428290,Surfkitchen,Hongkongstraße 2-4,20457,53.5427849,10.0004223,01102104
4257468112,Sushi für Hamburg,,,53.552988,10.0980465,01111129
4270097990,La Cucina,,,53.6616742,10.0225107,04413432
4278017904,Lily of the Valley,Bahrenfelder Straße 212,22765,53.5555723,9.9287072,02204211
4278444394,Spaccaforno,Börsenbrücke 4,20457,53.5488722,9.9919733,01101102
4283311054,Cox,,,53.557544,10.0115945,01105114
4288759615,Sofra,,,53.4979108,10.0099517,01116136
4288872646,Ottos Burger,Schanzenstraße 58,20357,53.5616223,9.9658749,02202207
4289468594,Ristorante Da Mario,Milchstraße 28,20148,53.5703582,9.9960944,03302312
4298188958,Köz Kapadokya,Veringstraße 126,21107,53.506498,9.9866101,01116137
4303406591,Taste of Tandoori,,,53.5658446,9.8976764,02205216
4314447491,Rio The Grillbar,Fuhlsbüttler Straße 666,22337,53.6150223,10.0356466,04411430
4315058761,was wir wirklich LIEBEN - FEINKOST,Lange Reihe 60,20099,53.5573054,10.0113784,01105114
4329139592,Bless,Eppendorfer Weg 186,20253,53.5810266,9.9702302,03304315
4341171078,Tapiro DOro,Bergstedter Markt 1,22395,53.6710101,10.1245892,05516524
4345397020,Philoxenia,,,53.7292749,10.2657062,0
4346590375,Villari,Henny-Schütz-Allee 7,22419,53.6721309,10.006835,04413432
4352205920,San Marco,Sülldorfer Kirchenweg 199,,53.5801025,9.7962865,02213226
4352205924,Spiros & Spiros,,,53.579807,9.8015118,02213226
4367761536,ANHU Asia,Markt 16,21509,53.5421311,10.2129835,0
4373498907,Peter Pane,Goldbekplatz 1,22303,53.5836365,10.0089493,04405413
4375846057,Raj Mahal,Lindenstraße 35,25421,53.660655,9.7988722,0
4379753538,Hansekai,Jaffestraße 12,21109,53.5080528,10.001773,01116137
4389100394,Trattoria Due da Enzo,,20459,53.5505897,9.9809357,01103107
4394214291,Ai Bánh Mì,Steinstraße 17a,20095,53.5499303,10.0021625,01101101
4396606055,Taj Mahal,,,53.6357715,10.0154258,04412431
4401622814,Quan 19,Hofweg 77,22085,53.5755471,10.0150949,04406414
4403405903,Hala,Beselerplatz 11,22607,53.5596941,9.8877869,02206218
4415561822,dDavid,,,53.5615668,9.9625554,02202207
4415561824,Barrio Alto,Schulterblatt 58a,20357,53.561344,9.9627376,02202207
4415687109,Chou Chou,Bartelsstraße 8,20357,53.561827,9.9650779,02202207
4415696197,Jill,Bartelsstraße 12,20357,53.5620492,9.964882,02202207
4417687692,Heimatjuwel,Stellinger Weg 47,,53.5801271,9.9477006,03301303
4420226590,Mediterrano,Hammerbrookstraße 44,20097,53.5472458,10.0217911,01106116
4421177889,Pizza Puro,Hoheluftchaussee 49,20253,53.5805494,9.9732163,03304315
4421198338,The Bowl,Hoheluftchaussee 39,,53.5802572,9.9735328,03304315
4424841288,Erdapfel,Burchardstraße 10,,53.5486218,10.0030275,01101101
4427753593,Aldos Pizza & More,Lohbrügger Landstraße 80,21031,53.5008313,10.1987089,06601601
4434662505,GO by Steffen Henssler,Rothenbaumchaussee 115,20148,53.572322,9.9880609,03302312
4436431493,Jolie,Clemens-Schultz-Straße 42,20359,53.5524161,9.9619788,01104111
4441188186,Hungry Belly,Schleswiger Straße 1,22761,53.5671418,9.93276,02205215
4449706872,Pho Dam,,,53.5527645,9.9300481,02204213
4451765890,Schlemmerschule - Eventlocation,Lübeckertordamm 4,20099,53.5571252,10.0217484,01105113
4451897782,Grill-Kate,,,53.5957825,9.8680359,02208220
4453280521,NOMAD,,,53.5591493,9.994299,03302312
4453282092,Der erdbeerfressende Drache,Alsterufer 3,20354,53.55929,9.9954361,03302312
4455344748,La Villa,Bahnhofstraße 11,21465,53.5089454,10.2505716,0
4468004794,Cafe & Bar Celona,Lenhartzstraße 1-5,20249,53.5854773,9.9813581,04402403
4471578094,Arepa Café,,,53.5549735,10.0125707,01105114
4473574205,Eat Thai,Grindelhof 58,20146,53.5699074,9.9848955,03302312
4482541363,authentikka,Lilienstraße 5-9,20095,53.5527441,10.0022459,01101101
4482825582,Quan36too,Kurze Mühren 6,20095,53.5529624,10.003574,01101101
4484424275,,,,53.4715497,10.3158142,0
4509434072,Kabul,Steindamm 53,20099,53.5550844,10.0152007,01105114
4516172295,Good Morning Vietnam,Erdkampsweg 68,22335,53.6308513,10.0214371,04412431
4523026492,LOsteria,Winterhuder Marktplatz 17,22299,53.5949924,9.999156,04405409
4524595371,Da Elena,Geschwister-Scholl-Straße 52,,53.594521,9.9832491,04402403
4535253792,Vi Foods,Alter Teichweg 9c,,53.5827917,10.0478468,04408423
4540201421,Le Golden Igel,Neustädter Straße 49,20355,53.5532645,9.9815305,01103107
4548320354,clouds – Heaven’s Bar & Kitchen,Reeperbahn 1,20359,53.5494486,9.9679954,01104112
4549220463,Ali Baba Döner & Grill,Große Bergstraße 227,,53.5519874,9.9418735,02201204
4555570756,pro linguis,Rothenbaumchaussee 97,20148,53.5708975,9.9879333,03302312
4556960541,Padideh Persisches Restaurant,,,53.5658351,10.057498,05501504
4565299704,Orkinus,Billstedter Hauptstraße 43,22111,53.5404034,10.1012177,01112130
4567129274,Antep Kebab House,Billstedter Hauptstraße 53,22111,53.5400388,10.1028001,01112130
4623355545,Peter Pane,Witts Allee 1a,22587,53.5631458,9.8157326,02211223
4632090880,Meyer Menü Bistro,Jacobsrade 4b,22962,53.6411708,10.2838147,0
4699569905,La Bottega Lentini,Eppendorfer Weg 267,20251,53.5843584,9.9786909,04401401
4699579898,Taverna Kavala,Friedrichsgaber Weg 174,22846,53.6922949,9.9775419,0
4699840504,Trattoria Italiana,Ritterstraße 16,22089,53.5674883,10.0443771,05501501
4727565873,Navarra,,,53.5642228,9.9217442,02205215
4728880514,Fisch-Kate,,,53.6837802,9.9874535,0
4756650074,La Patina,,,53.5163528,9.9876566,01116137
4770095822,BATU Noodle Society,Eimsbütteler Straße 1,22769,53.5638398,9.9594874,02203208
4773154523,Happy Wok,Flensburger Straße 20,25421,53.6771374,9.7982299,0
4774925623,Teufels Küche,Keplerstraße 18,,53.550152,9.925467,02204214
4789031721,Zur Altstadt,,,53.4618505,9.9789577,07701701
4825679221,Salatparadies,Pinneberger Chaussee 11,,53.6091283,9.9026166,03308320
4838352440,Tigre,Nernstweg 32-34,22765,53.5562979,9.9326561,02204211
4845186946,Restaurant Fotiou,Lübecker Straße 15,22941,53.7084547,10.2514772,0
4858274339,Tafelspitz,Himmelstraße 5a,22299,53.5965793,10.0018723,04405409
4871590490,Kupferkrug,,,53.5112258,10.0207363,01116136
4873937621,Sushi Supply,,,53.5507337,9.9953495,01101102
4873937623,FlammHus,Am Sandtorkai 23,,53.5436268,9.9930947,01102103
4890719975,Osteria Fellini,Alsterdorfer Straße 86,22299,53.5994667,9.9970235,04405408
4896834077,Taverna Elina,Hasselwerder Straße 94,21129,53.521044,9.8119271,07716717
4902619706,philipps restaurant,Turnerstraße 9,20357,53.558065,9.9708612,01104109
4904022161,Altstädter Stube,,,53.5494261,10.0021005,01101101
4907611923,Jesus Center,,,53.5615186,9.9621052,02202207
4912961212,Da Enzo,,,53.5543638,9.8448358,02210222
4913710967,Villa Romana,,,53.676154,10.2392245,0
4920766100,Burger Village,,,53.5470722,9.9364721,02201202
4922770874,Sushi-Restaurant Jade,Ochsenzoller Straße 194,22848,53.6813818,9.9939568,0
4925165519,Trattoria Piccolo Mondo,,,53.5473692,9.9626227,01104112
4935591862,Zum Florian,Lindenstraße 14-16,21629,53.4253601,9.7878214,0
4942965340,CARLS Brasserie,,,53.5412076,9.9858838,01102103
4944566879,Félix,Rupertistraße 26,22609,53.5556338,9.8431046,02210222
4944773537,Petisco,Schulterblatt 78,20357,53.5621285,9.9621615,02202207
4946931282,Piazza Romana,Rothenbaumchaussee 10,20148,53.5635782,9.9902687,03302312
4947005723,NEWPORT - CAFFEE & WEIN,,,53.5596299,9.8835521,02206218
4961888166,Da Mario,Thadenstraße 1,22767,53.5561966,9.9626049,01104110
4963464185,Neni,Osakaallee 12,20457,53.5423139,9.998357,01102103
4968853590,Cantina Fux & Ganz,Bodenstedtstraße 16,22765,53.5582543,9.9438539,02203210
4976134759,Food Lounge Bergedorf,,,53.4865141,10.2137851,06602602
4985421039,Grilly Idol Burger,Clemens-Schultz-Straße 40,20359,53.5523859,9.9622491,01104111
4986436422,Mr. Gyros,Ulzburger Straße 472,22844,53.7319713,9.996982,0
4987059878,Portonovo,Milchstraße 7,20148,53.5707232,9.9971911,03302312
4990118152,Cressole feine Suppen & Currys,Friedensallee 28,22765,53.5549135,9.9271726,02204213
4992590622,Dulfs Burger,Karolinenstraße 2,20357,53.5570164,9.9751479,01104109
4994502163,Kaiyō,Brodschrangen 1-5,20457,53.5488621,9.9938682,01101102
5002940625,,,,53.6319779,10.0059439,04412431
5020762108,,,,53.5650648,9.9293104,02205215
5032321923,Mimo,,,53.5503316,9.9616178,01104111
5036381756,Akropolis,Schwarzenberg 1,21629,53.424617,9.7894321,0
5040712041,Ustam,Neuer Pferdemarkt 33,20359,53.557242,9.9646708,01104111
5045038820,Nom,Zeughausmarkt 17,,53.5490832,9.9752082,01103106
5054072110,Café Evergreen bistro,,,53.504469,10.2044692,06601601
5055849821,Giovanni 2,,,53.5544249,9.9622194,01104110
5056117584,Pamukkale,,,53.4901632,10.2086017,06602602
5056117588,Tung Asia,,,53.4892799,10.2075409,06602602
5056117590,Truva,,,53.4909024,10.2073954,06601601
5064249649,Singh Indian Restaurant,Steindamm 35,20099,53.554459,10.0136303,01105114
5071072521,Mr. Dam,,,53.5537357,9.9619838,01104111
5113816389,Flickenschildt,Mundsburger Damm 63,22087,53.5700534,10.0261886,04406415
5118306645,Buon Giorno,,,53.5494365,9.9830142,01103107
5139615321,Simply Food,Fuhlsbüttler Straße 397,22309,53.6024409,10.0397347,04410429
5140556421,nosh,,,53.5620004,9.9629886,02202207
5166445257,Restaurant Hellas,Lütjenmoor 44,22850,53.6871728,9.9910702,0
5172787779,Tai Tan,Große Elbstraße 100,22767,53.5444362,9.9470766,02201201
5204621001,Country Kitchen,Hemmingstedter Weg 2,22607,53.5653182,9.8709291,02206218
5208050735,Il Vagabondo,Bahrenfelder Straße 242,22765,53.5565352,9.9284834,02204211
5220145308,Yummies Deli & Bar Restaurant,Steindamm 55,20099,53.5553729,10.0153627,01105114
5233553014,Smileys Pizza,,,53.4935408,10.207367,06601601
5244829497,Sushi für Hamburg,Ohechaussee 113,22848,53.6746911,9.9874535,0
5245788696,Der Suhrhof,,,53.4891282,10.2079701,06602602
5248696550,Pabla,,,53.5552553,10.0140672,01105114
5273604381,Stapelfelder Hof Christos,,,53.6053671,10.2201846,0
5293872623,Ristorante Vincenzo,Deichstraße 48-50,20459,53.5455049,9.9867847,01101102
5293873973,Ristorante Vincenzo,Große Elbstraße 68,22767,53.5447887,9.9492315,02201201
5308702321,Ottos Burger,Lange Reihe 40,20099,53.5563181,10.0103122,01105114
5318404029,La Famiglia,,,53.5538458,10.0163966,01105114
5319099423,The Ramen Hamburg II,Papenhuder Straße 22,22087,53.5662859,10.0197116,04406415
5338792903,Kentauros,Wiesendamm 41,22305,53.5870841,10.0387426,04410427
5351764647,Zeik,Sierichstraße 112,22299,53.5889417,10.0016891,04405410
5353439996,Kantine,,,53.5750831,9.8763801,02205217
5366282088,Nikkei Nine,Neuer Jungfernstieg 9,20354,53.5554563,9.991448,01103108
5382782121,Nino,Theodor-Storm-Straße 1b+c,22941,53.728718,10.2615062,0
5395931966,Die Raute,,,53.5877626,9.9000844,02205217
5404390362,Witwenball,Weidenallee 20,20357,53.5671193,9.9651856,03301309
5405240321,Aivy Cà Phê,,,53.5807003,10.1270972,05504512
5407707958,Restaurant Yamas,,,53.5411591,10.2145086,0
5409415941,Meusels Landdrostei,Dingstätte 23,25421,53.6609223,9.7966836,0
5418179331,el falafel,Grindelallee 26,20146,53.5650108,9.9837626,03302312
5418179332,Yumi streetkitchen,Grindelallee 22,20146,53.5649086,9.9838872,03302312
5425774973,Sekandar,,,53.5398568,10.1037776,01112130
5431140921,haebel,Paul-Roosen-Straße 31,22767,53.553152,9.9577363,01104110
5440523948,"Marina, Halal Restaurant & Café",Lüneburger Straße 2,21073,53.4576534,9.9840606,07701702
5440539453,Asia Tung,Deichhausweg 3,21073,53.4596128,9.982183,07701702
5470917807,Sushi & Asia Lounge,,,53.4858331,10.2103515,06602602
5475843927,Hygge,,,53.5652386,9.8746615,02206218
5506461503,Wong Restaurant,,,53.6436191,10.0125562,04413432
5528597150,El Paisa,Nieland 10,22525,53.579545,9.9301044,03309321
5554899601,NAKAMA,Willy-Brandt-Straße 51,20457,53.547119,9.9952724,01101102
5554916621,Takumi Ramen-Station Hamburg,Große Rainstraße 20,22765,53.5525909,9.9308492,02204213
5559382458,Massimo,Am Markt 6,25474,53.6647122,9.9058517,0
5567408449,Krug Weinstube,Paul-Roosen-Straße 35,22767,53.553201,9.9575026,01104110
5569308198,Vollmundig,,,53.5103727,9.986448,01116137
5578093722,Peter Pane,Hoheluftchaussee 99-101,20253,53.58246,9.970901,03304316
5595231111,Blue,Südportal 2,22848,53.653509,9.9833617,0
5600473521,Rive,Van-der-Smissen-Straße 1,22767,53.5434555,9.9421932,02201202
5603344422,Condi Lounge,Neuer Jungfernstieg 9,20354,53.5553809,9.9913765,01103108
5612884712,Cantina Americana,Rathausallee 29a,22846,53.7068221,9.9932977,0
5633335035,Mangia Bene,Hauptstraße 75,21629,53.4617105,9.7934199,0
5641091342,Marktplatz,,,53.5531745,9.8443017,02210222
5643472572,Ristorante Rigoletto,Rübekamp 25,25421,53.660436,9.7928354,0
5655447946,Porticello,Kajen 12,,53.5454809,9.9850957,01101102
5664286722,MOMO Ramen,Margaretenstraße 58,20357,53.5662408,9.9633778,03301310
5670298167,GAO Kitchen,,,53.5581917,10.0121092,01105113
5677735390,Grill Athen Palast,Rodigallee 294,22043,53.5709446,10.1321275,05504512
5694869521,Il Garage,,,53.553877,9.9293,02204213
5715629423,Hans im Glück,,,53.5538224,10.0021668,01101101
5722480522,Golden Garden,Winsener Straße 14,21077,53.4499338,9.9871302,07704705
5732554007,Marina,Fuhlsbüttler Straße 167,22307,53.5934922,10.0439758,04410428
5733161675,Phở & Rice,,,53.5558115,10.0073375,01105114
5743590576,Teigfabrik Ottensen,Bahrenfelder Straße 53,22765,53.5502807,9.9300586,02204214
5747037912,Eminönü Fischrestaurant,,,53.4566817,9.9859378,07701702
5756750127,Alt Damaskus,,,53.4586329,9.9828021,07701702
5758385442,Bei Uns,Semperstraße 78,,53.5876283,10.0203534,04405411
5759441742,Süllberg Alm,Süllbergsterrasse 12,22587,53.5595282,9.801049,02211223
5761928457,Pizza Rella,Fuhlsbüttler Straße 414,22309,53.6031941,10.0408909,04410429
5778515315,Bistro Elbe 27,,,53.563622,9.8085574,02211223
5785203298,Diora,,,53.4612975,9.984377,07701702
5802943986,Goldschätzchen,Peiner Hag 7,25497,53.6686145,9.7653364,0
5813412150,Bundts Gartenrestaurant,Hasselwerder Straße 85,21129,53.5203078,9.8137072,07716717
5823774406,Hanoi Quan,,,53.6155715,10.0767958,05507515
5839477996,Ariana,Rosenstraße 25,20095,53.5528309,10.0010669,01101101
5844386294,Goldbach,,,53.5498945,9.9935207,01101102
5844401412,Hobenköök,Stockmeyerstraße 43,20457,53.5433336,10.0078169,01102104
5850899411,Mundfein Pizzawerkstatt,Manhagener Allee 13,,53.6718907,10.2407532,0
5851047772,100/200,Brandshofer Deich 68,20539,53.537433,10.0284841,01114133
5852294481,Aomame Ramen,Veringstraße 155,21107,53.5057044,9.985887,01116137
5853579985,,,,53.545554,9.9875612,01101102
5853676599,Ottensener,Bahrenfelder Straße 332,22765,53.5593479,9.9280711,02204211
5861166023,Dàm,Fuhlsbüttler Straße 397,22309,53.6024254,10.0395022,04410429
5868883885,Der Stackmeister,Moorwerder Hauptdeich 33,21109,53.4604358,10.063879,01116135
5871106603,Wolfs Junge,Zimmerstraße 30,22085,53.5746961,10.0177706,04406414
5882699550,Lütt & Lecker Fischbrötchen,Große Elbstraße 12,,53.5452579,9.9518334,02201201
5904361735,Asia Imbiss,,,53.5791348,10.0418608,04408423
5909902491,CÀI Kitchen,,,53.559446,9.9731523,01104109
5909924974,Pani Smak,Hölderlinsallee 1,22303,53.5849377,10.0238585,04405411
5911048367,Due Amici,,,53.5785233,10.0645788,05502505
5913415140,Oro,Ernst-Mantius-Straße 10,21029,53.4907102,10.2110015,06602602
5920371442,Lucky Friends,,,53.5554719,9.9826627,01103108
5922438332,Zipang,Eppendorfer Weg 171,20253,53.5797084,9.9663106,03304316
5937567631,Rice Brothers,Schulterblatt 35,20357,53.5605349,9.9630433,02202207
5961919179,Soul Sushi Barmbek,Fuhlsbüttler Straße 174,22305,53.5925987,10.0445488,04410427
5969181067,Soul Sushi,Langenhorner Chaussee 163,22415,53.6464241,10.0119849,04413432
5974613416,La Crème de la Crêpe,Erzbergerstraße 14,22765,53.5507398,9.9325981,02204214
5995645636,Kokomo Noodle Club,Clemens-Schultz-Straße 40,20359,53.5523991,9.9621292,01104111
6005737885,Zweipunktnull,Friedensallee 20,,53.5548805,9.9277091,02204213
6032699027,Al Granada,Fuhlsbüttler Straße 464,22309,53.6060502,10.0397023,04410429
6036536817,gin koi,,,53.5508307,9.9299926,02204214
6044329619,Pizza Hut,Boizenburger Weg 9,,53.6044515,10.1564872,05518526
6071708637,Bramfelder Wirtshaus,Bramfelder Chaussee 361,22175,53.6207098,10.0816193,05507515
6090949458,JIN GUI,Stadthausbrücke 10,20355,53.551375,9.9864351,01103108
6105139535,28 - bar&kitchen,,,53.6596301,9.7506928,0
6106885787,Izakaya by Dokuwa,Karolinenstraße 18,20357,53.558861,9.9752018,01104109
6112600923,Pizzeria König,Bahrenfelder Straße 98,22765,53.551167,9.9302849,02204214
6113674775,el local,,,53.5577031,9.8284239,02210222
6113815874,Burgerlich,Gänsemarkt 43,20354,53.5557449,9.9881597,01103108
6140861547,Syrtaki am Heidekrug,Wedeler Chaussee 20,25482,53.6372993,9.7590271,0
6169670002,Chinarestaurant Bihu,Kupferdamm 1,22159,53.5965209,10.1170163,05506514
6171616949,Neue Hofküche,,,53.7357094,10.0812086,0
6176900785,Jellyfish,Weidenallee 12,20357,53.5665784,9.9654911,03301309
6187789055,Paledo,Kegelhofstraße 46,20251,53.5952238,9.9782928,04402405
6190566887,Dulfs Burger,,,53.5827757,10.0172024,04405412
6225697422,Restaurant Korfu,Schauenburgerstraße 3,25421,53.658021,9.7943688,0
6225697429,Da Franco,Lindenstraße 26,25421,53.6603476,9.799094,0
6252423643,Storehouse,,,53.5473421,9.9986549,01101101
6254399681,CARINO,Schmilinskystraße 11,20099,53.559522,10.0119106,01105113
6254524874,Sushi For Love,,,53.4725083,9.840285,07714715
6255931188,Mezedes,Erikastraße 81a,20251,53.5957403,9.9870165,04402405
6284365835,bianc,Am Sandtorkai 50,20457,53.5429789,9.9944479,01102103
6293208604,Il Sorriso,Classenweg 59,22391,53.6361631,10.0920403,05509517
6295409378,Freistil,,,53.4738461,9.9365611,07710711
6342828841,ciao bella,,,53.5398068,10.1054636,01112130
6346764306,Asia Din Hau,,,53.4721481,9.8882271,07713714
6358091000,Orfeo Greco,Am Markt 6a,22941,53.7282572,10.2615106,0
6371961633,Spezzagrano,Fuhlsbüttler Straße 300,22307,53.5990564,10.041814,04410429
6372728317,Trattoria da Michele,Rugenbarg 74 h,22848,53.6677786,9.9877524,0
6388709432,Meyers Gasthaus,Alte Bahnhofstraße 19,21220,53.3985543,10.0453623,0
6389556147,ASTRA Brauerei St. Pauli,Nobistor 16,22767,53.5501523,9.9562566,01104110
6396062953,Billy the Butcher,Poststraße 8,20354,53.5528603,9.990598,01103108
6414516667,CYN CYN,Karolinenstraße 32,20357,53.5599272,9.9752013,01104109
6415774106,Bangkok,,,53.6732075,10.2401197,0
6415797785,Heimat,Überseeallee 5,20457,53.5414446,9.9992017,01102103
6421559254,YaKu,Schlüterstraße 79,20146,53.5707978,9.9858723,03302312
6426712937,Rump´s Bistro,,,53.4856947,10.2870092,0
6426846239,Schweinske Bahrenfeld,Silcherstraße 1,22761,53.5651267,9.9020179,02205216
6428982058,Sazza-Bar,Eppendorfer Weg 280,20251,53.5844965,9.9802995,04401401
6440158467,ALEX,Vorsetzen 72,20459,53.5443049,9.9755584,01103105
6440190186,Panaelme,Steckelhörn 12,20457,53.5456807,9.9931091,01101102
6442786664,Las Heras 747,Talstraße 29,,53.5507833,9.9600001,01104110
6458437527,Kuchnia,Talstraße 87,20359,53.552391,9.9601036,01104110
6460976285,XO Seafoodbar,,,53.5531969,9.9583697,01104110
6461166287,Lauras Küche,Bundesstraße 30,20146,53.565438,9.980331,03302311
6468641488,Mafia Bites,,,53.5558182,10.0087957,01105114
6500441095,Bricks Restaurant,,,53.5526396,9.9875502,01103108
6504556185,Quan36,Schulterblatt 36,20357,53.5610916,9.9629327,02202207
6504678218,Ambrosia,Kieler Straße 117,25451,53.7344127,9.8930377,0
6515389786,Le Cochinchine,Eppendorfer Weg 278,20251,53.5844017,9.9800408,04401401
6515465959,Ceviche Bar,Löwenstraße 12,20251,53.5834668,9.9793621,04401401
6516771585,Hatari,Eppendorfer Weg 58,,53.5723365,9.9596383,03301308
6516938354,Luce,Hauptstraße 18 b,21465,53.4937267,10.2537339,0
6516970006,Mister Ti,Am Casinopark 14,21465,53.4899251,10.2535425,0
6532459743,Da Sinito,,,53.674809,9.9651563,0
6535430158,Theo´s,Rothenbaumchaussee 10,20148,53.5632433,9.99008,03302312
6564661052,Houtang Hot Pot,,,53.5494776,9.9569578,01104112
6564661053,Hooters,Reeperbahn 157,20359,53.5494702,9.9571706,01104112
6577264715,Quan 19,,,53.6069334,9.9047971,03308320
6580256546,coast enoteca,,,53.5399285,9.9931014,01102103
6605159485,Very Very Veggie Vegan Sushi,Barmbeker Straße 3,22303,53.5824003,10.019162,04405412
6640328605,Hoi An,Osterstraße 48,20259,53.5751308,9.9575374,03301305
6640328610,Trattoria Salento,Osterstraße 52,20259,53.5752214,9.9570595,03301305
6641611031,Crêperie Monsieur Rémi,Osterstraße 83,20259,53.5753991,9.9544277,03301306
6641611033,citta,Osterstraße 98,20259,53.5759823,9.9534303,03301305
6654789725,Vin Garden,,,53.5804173,9.9758022,04401401
6660185187,My Kebaps,,,53.5800952,9.9745321,03304315
6677793763,Gutsküche,Wulksfelder Damm 15,22889,53.7180723,10.1117951,0
6682558296,Pizza Hut,,,53.5509789,9.9942686,01101102
6683232805,Johanns,,,53.5382273,10.0832874,01113131
6698588195,KASA,Bellealliancestraße 32,20259,53.5677997,9.9597538,03301310
6699395802,Vorfeldkantine,,,53.6253146,10.0058937,04412431
6710473932,Vietnam at Heart,,,53.4659264,9.9871165,07701702
6711980578,Ponzu,Tibarg 16,22459,53.6182374,9.9507097,03306318
6718411210,Traumzeit,,20099,53.5550665,10.0124634,01105114
6727067629,Health Kitchen,,,53.5898057,9.9757609,04402403
6734839851,The Ramen Hamburg,Rosenstraße 5,20095,53.5533014,10.0022625,01101101
6749618785,Makalu Kitchen,Randstraße 111,22525,53.5899952,9.9195315,03309321
6753328607,Uhlenhorster Weinstube,Papenhuder Straße 29,22087,53.5667359,10.0189681,04406415
6762348686,Bum Pho Hong,,,53.5483724,9.9628223,01104112
6771979424,Café Gitane,Gurlittstraße 44,20099,53.5576156,10.0104858,01105114
6773936444,El Pikosito,Behnstraße 23,22767,53.5477991,9.9417128,02201202
6790468317,IKEA Restaurant,Unterer Landweg 77,22113,53.5107222,10.0933822,06611612
6835484301,Bodega Sesenta,Mundsburger Damm 60,22087,53.5693816,10.0261906,04406415
6838045428,Ollita Peruana,Humboldtstraße 142,22083,53.5793954,10.019308,04408418
6848326909,Elsas Restaurant & Bar,Bahrenfelder Steindamm 99,22761,53.5627593,9.9206201,02205215
6850236836,Rexrodt,,,53.5671323,10.0187146,04406415
6893114515,GALERIA Restaurant,,,53.5531333,9.9921298,01103108
6895015889,Minigolf Sportanlage,,,53.5604795,10.0839987,01111129
6900636568,Pizzamacherei,Eimsbütteler Chaussee 84,20259,53.5685921,9.9559364,03301307
6905168055,Pizzabar Harburg,,,53.4608013,9.9696744,07701701
6935705740,Krupunder Park,,,53.6254184,9.8764113,0
6950896687,Kantine Wilhelmsburg,Neuenfelder Straße 19,21109,53.4979168,10.0031444,01116137
6952796887,Thessaloniki,,,53.6726307,10.0166935,04413432
6980281662,Biang Biang Noodles,Grindelallee 83,20146,53.5675826,9.9802916,03302311
7004517699,Shawarma Marina,Wandsbeker Chaussee 29,22089,53.5657319,10.0372867,05501501
7018954264,Farina di Nonna,Eppendorfer Landstraße 95,20249,53.5923173,9.9879028,04402403
7044637582,Restaurant Klinker,Schlankreye 73,20144,53.5773576,9.9769424,03303313
7060321441,Poké Pao,Fuhlsbüttler Straße 328,22307,53.6003759,10.0413855,04410429
7061310389,Kaibo,Langenhorner Chaussee 397,22419,53.660447,10.0022162,04413432
7080714207,Hanoi Deli,Eppendorfer Baum 47,20249,53.5849299,9.9814121,04401401
7082488207,amalieBISTRO,,,53.6409061,10.1510519,05517525
7088252677,nomi,Zeughausmarkt 21,20459,53.5487235,9.9752756,01103106
7108043118,Saliba,Neuer Wall 13,20354,53.5519181,9.9921992,01103108
7114431808,Grillhaus Der Grieche,Borsteler Chaussee 120,22453,53.607327,9.978932,04403406
7114451503,Shanghai House,Borsteler Chaussee 110,22453,53.6070383,9.9794277,04403406
7118222038,Due Fratelli,Jersbeker Straße 2,,53.7286328,10.2591598,0
7118222061,Dani,Voßkuhlenweg 2,,53.7304957,10.2689686,0
7124036825,Cafeteria Krankenhaus Mariahilf,,,53.4707379,9.9377313,07710711
7126306838,Hamurdan,Schweriner Straße 3,,53.6052942,10.156568,05518526
7138919307,Pamboli Tapas Bar,Imstedt 36,22083,53.5797493,10.0244888,04408419
7178228249,Tangstedter Mühle,,,53.73375,10.0858274,0
7179577617,Kampai,Hamburger Berg 25,20359,53.5507821,9.9614471,01104111
7258416526,Half the Sky,,22765,53.5585292,9.9383166,02203210
7264788687,Trattoria Ciao Bella,Bergedorfer Straße 131-135,21029,53.486475,10.2137625,06602602
7264788688,Ruffs Burger Restaurant,Bergedorfer Straße 131-135,21029,53.4865002,10.2136732,06602602
7282163399,Bodhi Vegan Living,Lange Reihe 93,20099,53.5587078,10.0127162,01105113
7282578434,Schweinske,Bramfelder Chaussee 280,22177,53.6163833,10.0774246,05507515
7301711679,Gepellos Pizza Manufaktur,,,53.5655671,9.9294357,02205215
7313896105,Mamma Maria,,,53.4441335,10.128839,06606607
7369129356,Osteria Aurora,Rehagen 20,22339,53.6506501,10.0530918,05512520
7369381440,Sportpark Jahnhöhe,,,53.4565418,9.9320073,07710711
7528835379,Anime Burger,,,53.5820603,9.9336807,03309321
7531535077,Curry Naan,Eißendorfer Straße 31,21073,53.4598585,9.97393,07701701
7549938963,Mission Pizza,Grindelhof 87,20146,53.5712788,9.9849204,03302311
7551952981,La Fortuna,Bramfelder Chaussee 306,22177,53.6176116,10.0792592,05507515
7574496085,Diggi Smalls,Grindelallee 148,20146,53.5695295,9.9796748,03302311
7577160685,Hard Rock Cafe,Bei den St. Pauli-Landungsbrücken 5,20359,53.545683,9.967964,01104112
7596129837,Kini,Susannenstraße 15,20357,53.5623067,9.9637299,02202207
7599893726,Berta Emil Richard Schneider,Kampstraße 25-27,20357,53.5609958,9.9678387,02202207
7633262290,Quan 27,Weidenallee 27,20357,53.5668568,9.9648498,03301310
7637791146,Pizzeria Atoll,,,53.4726386,9.8545907,07714715
7669391867,Nova,,,53.4370166,9.9663149,07708709
7681241809,Via Toselli,Ditmar-Koel-Straße 28,20459,53.5458005,9.9741127,01103105
7684714146,YU GARDEN,Feldbrunnenstraße 67,20148,53.568583,9.9901031,03302312
7686991414,why not Café,Daimlerstraße 38,,53.5586326,9.9209941,02204211
7733487345,köpke essen + trinken,Martinistraße 44a,,53.5916429,9.9816076,04402403
7733487351,Restaurant Martini,Martinistraße 45,,53.5912991,9.9822755,04402403
7741577647,Horse in Pub,,21077,53.4296829,9.9823055,07706707
7749779924,Off Kitchens,,,53.5431177,9.9960411,01102103
7756487574,"Athena ""Mediterrane Küche""",Ulzburger Straße 567,22844,53.7297213,9.9967353,0
7757281961,Rio Grande,Ulzburger Straße 593,22844,53.7323932,9.9964307,0
7777205309,Mozart Modern Sushi,Sonninstraße 10,,53.5471284,10.0169629,01106115
7818173004,Roadrunner,,21224,53.4430264,9.9039213,0
7835688003,wagu wagu,Mönckebergstraße 7,,53.5512639,10.0034464,01101101
7845476526,Spiess Taverne,Bramfelder Chaussee 48,22177,53.5960387,10.0629894,05507515
7845613050,Moraba,Waitzstraße 25,22607,53.559352,9.8823859,02206218
7845989844,JA AN,Klopstockplatz 3,22765,53.5469313,9.9318077,02204214
7847647913,Shiso Burger,Bugenhagenstraße 23,20095,53.5505682,10.0019327,01101101
7856735220,Octopus Fisch Haus,,,53.5647323,9.9598903,03301310
7890802785,Marias,,,53.5550146,10.0115272,01105114
7902484919,stadtsalat,Große Theaterstraße 31-35,20354,53.5569607,9.9892481,01103108
7905893271,Peter Pane,Holstenstraße 111,22767,53.5583348,9.9498521,02201206
7922241439,Teatro Lounge,Reeperbahn 147,20359,53.5493418,9.9586648,01104112
7925145259,Donja Restaurant,Billstedter Hauptstraße 17,22111,53.5417285,10.0982825,01112130
7929468198,Phönix,Baurstraße 2,,53.5573687,9.9002088,02207219
7948114713,Kleinhuis,Mellingburgredder 1,22395,53.6701808,10.0980938,05510518
7963089141,Restaurant Ausspann,Holsteiner Chaussee 428,22457,53.650687,9.9074565,03307319
7968900238,Gaststätte Nebenan,Deepenhorn 5,22145,53.6293398,10.1629612,05518526
8016363793,Katzentempel,Osakaallee 6,20457,53.5431275,9.9977765,01102103
8032806775,Pizza Prinz,,,53.5475777,10.010824,01106115
8042541569,China Restaurant Allermöhe,Edith-Stein-Platz 4,21035,53.4870509,10.1801665,06614615
8069201041,Athen Pallas,Rissener Landstraße 1,22587,53.5667318,9.7958402,02211223
8069298226,Baris Grill-Haus,Lindenallee 8,22869,53.6087661,9.8393681,0
8069300906,Coppers Bar & Kitchen,Friedrich-Ebert-Allee 1,22869,53.6086722,9.8401426,0
8071220917,Zenthai,,,53.6064882,10.1187424,05506514
8081940919,Reep,Spielbudenplatz 24-25,,53.5492095,9.9639975,01104112
8120357765,foodlab Popup Fenster,,,53.5401676,10.0025099,01102104
8143539356,Wallters Wine Beef Kontor,Alter Wall 12,20457,53.55093,9.991082,01101102
8213628406,Moji Sushi Delivery,Alsterdorfer Straße 263,22297,53.6077834,10.0065039,04404407
8227959858,Fang & Feld,Platz der Deutschen Einheit 2,20457,53.5415396,9.9847452,01102103
8267085293,Kailua Poké,,,53.5789856,10.0133791,04406414
8267085294,Monkey Beach,,,53.5789449,10.0133915,04406414
8275901724,Dafinas Ocean,Osterstraße 45,20259,53.5747443,9.9574925,03301306
8281825576,Shiso Burger,Kleiner Burstah 1,20457,53.5481783,9.9888754,01101102
8286685883,3 Käsehoch,Lokstedter Steindamm 55b,22529,53.5930392,9.9671892,03305317
8289118222,Das Café im Hamburg-Haus,Doormannsweg 12,,53.5717079,9.9562309,03301306
8289227931,Mercato Venezia da Nico,Eppendorfer Weg 87,,53.5730692,9.9599582,03301306
8292524826,Zimt und Koriander,Eppendorfer Weg 79,,53.5725711,9.9594155,03301306
8314749328,Soul Sushi Ahrensburg,Hamburger Straße 158,22926,53.6641867,10.2207846,0
8331804839,Pegasos,,,53.4530504,9.9246776,07709710
8361370752,Co Do,Alsterdorfer Markt 12,,53.6126868,10.0243983,04404407
8375015243,Tuana Hamburg,Binderstraße 13,20146,53.5676926,9.9877236,03302312
8385392610,LOsteria,,,53.5514305,9.9878008,01103108
8432015675,Tam Quan,Hoheluftchaussee 90,20253,53.5837684,9.9702647,03304316
8503091919,Grill - Haus - Der Grieche,Borsteler Chaussee 120,,53.6073306,9.9789416,04403406
8545043982,Roatan Caribbean Restaurant,,20359,53.5458922,9.9538653,02201201
8560767374,Kaizen,Bahnhofstraße 26,,53.7307511,9.9006906,0
8600109201,Athena Grill,,,53.4913904,10.25713,0
8629398059,Der Grieche,,,53.7305304,9.8961729,0
8664452497,Sushi for Friends,Eißendorfer Straße 68,,53.4581795,9.9668063,07709710
8757549244,Garduong,Eppendorfer Weg 200,20253,53.5815764,9.9714876,03304315
8767923933,Mission Pizza,Beim Alten Gaswerk 3i,22761,53.5631699,9.9165486,02205216
8791794202,Kaya Feinkost,,,53.6049793,10.1593127,05518526
8816702957,Saray Köz,,,53.5538321,10.0136392,01105114
8824019402,LQuan,,,53.5732015,10.0665649,05502505
8824359296,Beige Lounge,,,53.5716084,10.0646965,05502505
8824407664,Lemon Grass Scent,Wandsbeker Marktstraße 47,,53.57153,10.0643738,05502505
8824433001,Back-LAVA,,,53.5710193,10.0618915,05502505
8824433160,PINK BAMBUS,,,53.5709623,10.0617738,05502505
8824436171,Köz Adana,,,53.570932,10.061494,05502505
8826314238,Dreams,Kieler Straße 61,25451,53.7285053,9.8978806,0
8837061184,Ta Vegan House,Reimarusstraße 13,20459,53.5454025,9.9754014,01103105
8857654905,The Public pub & bar,Fuhlsbüttler Straße 32,22305,53.586115,10.0469665,04410427
8882274976,Royal Gourmet,Rugenbarg 51,22848,53.6700904,9.987486,0
8891999816,Arpis,,,53.5548316,10.0127265,01105114
8912262769,Le Quán,,,53.6485387,10.1652803,05517525
8912921644,Strandperle,Övelgönne 60,22605,53.5444649,9.9054982,02207219
8922794248,SVAAdish,Poßmoorweg 6,22301,53.5854766,10.0079766,04405410
8928592103,Harburger Party-Service,,,53.4532475,9.976866,07701702
8935244117,BUDDELS Gasthaus und Weinbar,Deichstraße 37,20459,53.5456993,9.9871322,01101102
8957865651,Kobe Nord,Wellingsbütteler Landstraße 43,22337,53.6273643,10.0330468,04411430
8972869462,Spaccaforno,Erdkampsweg 6,22335,53.6268755,10.0255914,04412431
8986072612,Gut Wulfsmühle,,,53.6964129,9.8510143,0
8995821761,,,,53.5895138,9.9692574,04402403
9002067114,Bulls Steakhouse,Kieler Straße 63,25451,53.7286621,9.8978218,0
9002170307,Brodersen,Rothenbaumchaussee 46,20148,53.566651,9.9891887,03302312
9006868444,ELMA Speisekneipe,Harkortstraße 81,,53.5574694,9.9369861,02203210
9013946822,Okyaku,Schulstraße 12,25469,53.6355417,9.8419952,0
9063914875,Landhaus Voigt,Ochsenwerder Norderdeich 113,21037,53.4752081,10.1022011,06607608
9077512657,Adra,,,53.5799195,10.1031094,05505513
9083445905,Praça de Coimbra,Ditmar-Koel-Straße 17,20459,53.5457741,9.9750109,01103105
9103610619,My Poké Neuer Wall,,,53.5520338,9.992366,01103108
9104027321,Do Mundo,,,53.5492367,9.9602491,01104112
9124347844,Familiencafé Krümel,Straßburger Straße 19,22049,53.5811122,10.0613336,04409424
9164568317,Yoko Sushi,Horner Landstraße 150,22111,53.5499641,10.0786813,01111128
9164568517,Jays Pizza,Horner Landstraße 150,22111,53.5498523,10.0788967,01111128
9165494606,Freihafen,Kapstadtring 2a,22297,53.6009887,10.0279972,04405408
9180772691,"Tadim - Döner, Pizza",Billstedter Hauptstraße 14,,53.5418874,10.0981689,01112130
9188320507,L‘Quán,Fuhlsbüttler Straße 108,22305,53.5886799,10.0461305,04410427
9199199984,Đỗ Quán,Dehnhaide 12,22081,53.5790091,10.042433,04408423
9221088417,Gaststätte Limnos,,,53.5503496,10.0775228,01111128
9221973722,Misas Kitchen,Mexikoring 37,22297,53.6048104,10.022937,04405408
9238459341,Alte Bäckerei,,,53.5548145,10.0731255,01111128
9245775466,Torcello,Mittelweg 19,,53.5671982,9.995465,03302312
9247730684,Naan,Fuhlsbüttler Straße 101,22305,53.588325,10.0455882,04410427
9248502727,Niitaka Sushi,Fahltskamp 15,25421,53.660344,9.8018759,0
9248760440,Lieger Caesar,,,53.5423264,9.9888526,01102103
9250334046,Restaurant/Cafe Zur Sternwarte,August-Bebel-Straße 201,,53.4813147,10.2440729,0
9276032312,Welcome India,Pinneberger Chaussee 21b,22523,53.6105802,9.8998363,03308320
9285210608,Moku Poké,,,53.5669927,10.0223397,04406415
9285210609,Osho Ayu-Leela,,,53.5681485,10.023257,04406415
9287413749,The Lisbeth,,,53.5462318,9.9871576,01101102
9289956165,Bacchus,Lohbrügger Landstraße 90,,53.5013414,10.1976525,06601601
9299529972,Liberté,Große Elbstraße 9a,22767,53.5441562,9.9527031,02201201
9310992896,Nøne Meat,Hoheluftchaussee 83,20253,53.5816246,9.9719945,03304315
9311022976,Casa Mosa,Hagenbeckstraße 124a,22527,53.5905383,9.9422024,03309321
9332858951,ELBAR de Calpesa,,,53.5674457,9.9287954,02205215
9349268560,"Pizzeria da Michele, Bar Infinito",Bahrenfelder Straße 177,,53.5547455,9.9284408,02204213
9381497589,Pizza Electric,Rentzelstraße 16,20146,53.5663837,9.9795923,03302311
9388608125,Bistro Pizzarello,Heegbarg 14,22391,53.6537364,10.0928432,05511519
9389409131,Trattoria Brunello,Stormarnplatz 8,22393,53.6510942,10.0954302,05511519
9413590727,Kinfelts Kitchen & Wine,Am Kaiserkai 56,20457,53.5414841,9.9869419,01102103
9413611486,An Khang,Hoheluftchaussee 86,20253,53.5834992,9.9705632,03304316
9427821623,Ikigai,,,53.5735812,9.961755,03301308
9448525625,Pane e tulipani,Klosterwall 23,20095,53.5483745,10.0066289,01106115
9464424799,La pata negra,Hofweg 45,22085,53.5714739,10.0158476,04406415
9477066773,La Ponte,Koppelstraße 24,22527,53.5928387,9.9376333,03309321
9493990124,Shahi,Rathausstraße 25b,22941,53.7302029,10.2676369,0
9552393376,Chay Vegan,Lilienstraße 9,20095,53.5525756,10.0020439,01101101
9556036363,Prontos Pizza,Mühlenstraße 97a,25421,53.6574521,9.7764655,0
9620110359,xodó,Papenhuder Straße 26,22087,53.566579,10.0196034,04406415
9626599317,Adis‘s Cevapcici Restaurant,,,53.5424006,10.0968492,01112130
9631725923,Restaurant Victoria,,,53.5164885,9.9945062,01116137
9680047691,SUSHIMEN,Fuhlsbüttler Straße 332,22307,53.6005723,10.0413853,04410429
9688800097,Pampilo,,,53.5412829,10.1637536,0
9692897517,Gurlitt,An der Alster 47a,20099,53.5596873,10.008472,01105113
9707274170,Bootshaus Alster,,,53.5533701,9.9965002,01101101
9732571852,Strandhotel Blankenese,Strandweg 13,22587,53.556489,9.8082483,02211223
9759529417,Ceviche,,,53.583397,9.9770622,04401401
9770378175,mekan,,,53.4588978,9.9842134,07701702
9783951869,innerluck,,,53.5912255,9.9439454,03309321
9807232594,Mannat,Meiendorfer Straße 101,22145,53.6230764,10.166356,05518526
9807274233,Sushi Meister,,,53.6606675,10.0823137,05511519
9836254819,Landhaus Restaurant,Berner Allee 2a,22159,53.6292411,10.1399459,05506514
9846097062,Samarkand,Notkestraße 2,22607,53.5732817,9.8911696,02205217
9866436533,La Piana Restaurant,,,53.5911266,10.0449189,04410427
9881024322,The Burger Factory,,,53.684861,9.9850783,0
9891643282,Ngan Tinh Vietnamesisches Restaurant,Mönckebergstraße 7,,53.5511644,10.0032967,01101101
9897701317,Fräulein Fritz,,20099,53.5538723,10.0181861,01105114
9899607617,Dos amigos,Serrahnstraße 9,21029,53.488789,10.2081406,06602602
9900976155,Pizza Mia,Helmut-Steidl-Platz 1,22143,53.6048972,10.1550958,05518526
9913067454,Cordes Restaurant,Sottorfer Dorfstraße 2,21224,53.4236862,9.8975613,0
9916760225,Cam On,Eppendorfer Weg 73,20259,53.5719072,9.9586557,03301306
9930080489,Herr Buhbe,Wexstraße 42,20355,53.5508603,9.9808996,01103107
9930293828,La Piazza,,,53.7074772,9.9918997,0
9931839984,Das Goldene Ei,Schultzweg 2,20097,53.5487242,10.0093948,01106115
9939878640,Bootshaus Kombüse,,,53.550737,9.982083,01103107
9951309017,Oechsle Restaurant & Weinbar,Bundesstraße 15,20146,53.565018,9.9803517,03302311
9951351102,A la Fish,,,53.4631238,9.9810309,07701702
9959030431,Asia WOK,,,53.5798992,10.0085445,04405413
9980687717,Hamburg im Süden,Koreastraße 2,20457,53.5430129,10.000566,01102104
9980687817,Kumpir - The best baked potato,Hongkongstraße 2,20457,53.5430476,10.0007748,01102104
9981708840,Kantine Elbe,,,53.6006853,10.0734447,05507515
9990187418,Bao Bao,Schrammsweg 10,20249,53.5906957,9.988797,04402404
9997456547,OT Restaurant,Ottenser Hauptstraße 32,22765,53.5520934,9.9293785,02204213
10005277854,Le Poème,,,53.6493404,10.1661153,05517525
10010081751,JA ĂN,Moorhof 11,,53.6602677,10.0842261,05511519
10020171694,Taverna Astakos,,,53.5796721,9.9672605,03304315
10032525051,Misaki Sushi,Bahnhofstraße 9,22926,53.6695003,10.2362504,0
10032525052,Taverne Rigani,,,53.6698229,10.2354062,0
10032525067,Shibui,,,53.6750068,10.2402583,0
10032525073,Zamarod,,,53.6749608,10.2389882,0
10044364498,ESS_BAR,Behnsrade 27,21031,53.5127009,10.2011501,06601601
10053768266,Atlantic Grill & Health,An der Alster 72-79,20099,53.557016,10.0044127,01105114
10074431845,Buddha Kitchen,,,53.4615368,9.9787054,07701701
10089886691,Hausgemacht in der alten IDA Brauerei,Oeltingsallee 24A,25421,53.6518863,9.7935316,0
10106658736,Cotidiano,,,53.5506242,9.9907894,01101102
10111911437,SPEISEKAI,Isekai 12,20249,53.5853759,9.9925332,04402404
10121414284,area 10,Hohe Bleichen 10,20354,53.5530446,9.9874637,01103108
10154099457,Dionysos,Eppendorfer Weg 67,,53.5716681,9.9584908,03301306
10156406997,Der Player,Bahrenfelder Straße 322,22765,53.5588948,9.9282553,02204211
10174104134,Mantu,,,53.5736276,10.0319374,04408420
10199343017,Louis Croque,,,53.5625206,10.0331505,04407417
10201152487,Buhjah Bowls Bahrenfeld,Daimlerstraße 75a,22761,53.5628665,9.9198429,02205216
10201203638,Buhjah Bowls Hafencity,Baakenallee 19,20457,53.5382926,10.0109133,01102104
10210019278,Ginza,Lilienstraße 32,20095,53.5524023,10.0014517,01101101
10222087675,Lotus Streetfood,Vogelhüttendeich 54,21107,53.5172062,9.987743,01116137
10224540165,Saito Sushi,Langenhorner Chaussee 679,22419,53.6808076,10.0003506,04413432
10231645403,Montana,Dockenhudener Chaussee 188,,53.6188331,9.819035,0
10233396617,Takumi Ramen Station,Schulterblatt 114,20357,53.5643319,9.9600661,03301310
10241125187,Mikabalami,,,53.5614399,9.9650913,02202207
10269219209,Hindukusch,Rutschbahn 34,,53.5704664,9.9831424,03302311
10278231475,Yoko Sushi,Breslauer Straße 17h,22850,53.6838834,9.9956972,0
10280980615,Sportlerheim,,,53.7024687,10.0079701,0
10290908427,On Dao,,,53.4870808,10.2144452,06602602
10295053321,Sportlounge,Scharpenmoor 55,22848,53.6760298,9.9783758,0
10297197531,,Ohechaussee 138,22848,53.6727358,9.9843809,0
10303035429,Sushi like a dream,,,53.4408649,9.960204,07708709
10309719291,Möstel,,,53.6867571,10.0946063,05513521
10316530231,Avocado Nerds,,,53.5550778,9.9905527,01103108
10373941498,Piccolo Luce,Hamburger Landstraße 38d,21465,53.4907913,10.2525204,0
10539080933,Kebab Kitchen,Fuhlsbüttler Straße 386,22309,53.6018623,10.0411519,04410429
10558969042,Mr. Dumpling,Ottenser Hauptstraße 34,,53.5520828,9.9292482,02204213
10559002279,Jerewan Grill,Ottenser Hauptstraße 63,22765,53.5515205,9.9260987,02204213
10564820406,Togao,,,53.489215,10.208113,06602602
10579128928,Brunch Factory,Am Schilfpark 26,21029,53.4774111,10.2057552,06602603
10580002284,KALION Greek Restaurant,Tangstedter Landstraße 559,22851,53.6832107,10.0310744,0
10589684172,Gorgonzola,,,53.5821117,10.0147469,04405412
10676411152,Fischhalle,Kanalplatz 16,21079,53.4671814,9.9824471,07701702
10685380641,Celestia,Fährstraße 71,,53.5160397,9.9864309,01116137
10685380643,Schwester Kumpir,Veringstraße 27,,53.5160265,9.9872233,01116137
10695985008,Dionysos,,,53.5705843,10.1246752,05504512
10726863905,Tagliere e Vino,Große Bäckerstraße 4,,53.548918,9.9928005,01101102
10735022782,Alte Schmiede,Bahrenfelder Straße 205,22765,53.5556282,9.9280521,02204213
10739295829,La Vita,,,53.5803655,9.9472934,03301303
10745305524,Yoko,,,53.6610436,9.7976464,0
10753944503,Tazzi Pizza 2 go,Kleine Freiheit 80,22767,53.553175,9.9569214,01104110
10754013474,Schnitzery,Kleiner Schäferkamp 58,20357,53.5660102,9.9664214,03301309
10769308036,Damascino,Berliner Tor 3,20099,53.5569031,10.0215117,01105113
10771591573,Dahan Noodle,,,53.542087,9.9941851,01102103
10771719002,Schwarzwald Stube,,,53.6227522,9.9520643,03306318
10772996405,Giovani am Park,Bülaustraße 20,20099,53.5591581,10.0154934,01105113
10780177312,my Nevale,Mundsburger Damm 63,22087,53.5700929,10.0262643,04406415
10782026357,Mai Mai,,,53.6495589,10.0154677,04413432
10787701632,TA - vegan house,Neue Große Bergstraße 11,,53.5517918,9.9389801,02201203
10788406834,DOCK8 DÖNER,Veritaskai 8,,53.4656213,9.9889226,07701702
10801602129,Wüstenrose,Elligersweg 1,22307,53.605796,10.0399771,04410429
10814487868,Casa Di Bianca,Rolfinckstraße 19,22391,53.6412074,10.0820043,05509517
10814513921,L’Quán,Quarree 8-10,22041,53.5730222,10.0659362,05502505
10814782124,Röbbek | Eatery,,,53.5674453,9.8777364,02206218
10816208877,Tsubaki,Alsterdorfer Straße 290,22297,53.6082682,10.0095619,04404407
10822665417,Andronaco Bistro,Beerenweg 24-26,22761,53.5663386,9.922697,02205215
10834294510,Del Signore,,,53.6023411,10.027409,04405408
10860057871,braena,,,53.5794378,9.9553719,03301302
10868359899,La Tropicana,Fuhlsbüttler Straße 460,,53.6050044,10.0402578,04410429
10873793765,Mc Carella,,,53.5898064,9.9887012,04402404
10873804724,Pars,Steindamm 101,20099,53.5567802,10.018888,01105113
10874229524,La Cocina Kochschule,,,53.549351,9.9739172,01103106
10891238471,Beamstop,,,53.5891027,9.8307064,0
10913848074,Sushi Love,,,53.6025561,10.0245009,04405408
10919757655,HEVIR,Grindelallee 137,20146,53.5695837,9.9789198,03302311
10921977670,Galopper,Stellinger Weg 35,,53.5795165,9.9486664,03301303
10922264555,Kogai Sushi,Valentinskamp 89,20355,53.5558249,9.9852471,01103108
10933415099,Cham The Vegan Kitchen,Schulterblatt 75,20357,53.5624895,9.9611196,02202207
10933418339,Sushi für Hamburg,,,53.5806791,9.9686772,03304316
10933525684,Salt & Silver Lateinamerika,St. Pauli Hafenstraße 136-138,20359,53.5465436,9.9586073,01104112
10935309940,Hidden Kitchen Hamburg,Friedrichstraße 1,,53.5484558,9.9624416,01104112
10944841713,Dal Fabbro,Eppendorfer Weg 176,,53.5803865,9.9688687,03304315
10949110404,Pizza Tonio,Papenhuder Straße 49,,53.5679242,10.0182331,04406415
10951281197,Pizza Tonio,Sierichstraße 148a,,53.592514,9.9992132,04405409
10951424964,Open Kitchen,Große Elbstraße 133,22767,53.5442161,9.9390576,02201202
10957904815,Jazzcafé,Sievekingdamm 3,20535,53.5564543,10.0431218,01108121
10962321424,Corfu Grill,,,53.6031465,10.1303038,05518526
10969509825,Sushi fy,,,53.5485392,10.02272,01106117
10974441366,Park Cafe,,,53.5618611,9.9625624,02202207
10994419859,Asia Quick,,,53.5807814,9.7948995,02213226
11005227814,Kajüte Wentorf,,,53.4912925,10.2572535,0
11005483802,Jays,Sthamerstraße 30,22397,53.6910508,10.1396744,05515523
11005899831,Reisprinzen,Bürgerweide 36,20535,53.5569859,10.0315994,01107120
11033960804,Yoko Sushi,,,53.5674839,9.9571188,03301307
11033998161,Raj Mahal,,20259,53.567624,9.9569637,03301307
11034186646,Ghana Aba Abrokyire,Norburger Stieg 1,,53.5665035,9.9100742,02205216
11048068300,The Pho 22,Esplanade 22,20354,53.5578217,9.9902426,01103108
11049708031,Tapas e Vinho,,,53.5675639,10.0453771,05501502
11057491148,Avelino Tapas y Vino,Katharinenstraße 31,20457,53.5459451,9.9926154,01101102
11063582752,Zaytuna,,,53.5711173,10.0625552,05502505
11078784018,Pepironcino,,,53.555647,9.962541,01104110
11079136026,Entre Nous,,,53.5823498,9.9875504,03303314
11093488706,Le Levant,Eppendorfer Landstraße 65,20249,53.5898509,9.9867215,04402403
11134843736,LQuán,,,53.6838769,9.9850865,0
11142022467,Lotus Tempel,,,53.5594034,9.9132046,02204212
11151651648,BETR BURGERS,Simon-von-Utrecht-Straße 12,20359,53.5513133,9.9626828,01104111
11160537405,7Fuji,Hagener Allee 20,22926,53.6713692,10.2385008,0
11163224162,Shifudo,,22041,53.5725111,10.0637544,05502505
11163267278,Bamiyan,,,53.5703876,10.0592662,05501504
11176692937,memán restaurant,,,53.5619989,9.9623051,02202207
11189073811,60 seconds to napoli,Großer Burstah 1-3,20457,53.5487499,9.9912561,01101102
11196023998,Madame Mai,Stahltwiete 19a,22761,53.5622981,9.9257111,02205215
11199332026,Togao,Schenefelder Landstraße 169,22589,53.5747082,9.8234264,02212225
11200999738,HUi Cookshop,Paul-Roosen-Straße 12,22767,53.5530432,9.959105,01104110
11235321548,Oishi Ramen &Sushi,Schellerdamm 9,,53.4647699,9.9868033,07701702
11253319426,JING JING,Waterloohain 7,22769,53.567707,9.9535107,03301307
11254668228,Lautre creperie bretone Pti Breizh,Ölmühle (Marktweg) 30,20357,53.5579154,9.97021,01104109
11274963891,Bodega Lima,,,53.557626,9.972388,01104109
11298218537,Malizia Beach,Strandweg 69,22587,53.5582956,9.7973377,02211223
11300423869,Boca Restaurant & Bar,,22559,53.5816796,9.7646402,02214227
11304751252,Zum Elbblick,,,53.5451263,9.9421299,02201202
11310218289,Bravocado,Große Bergstraße 247,,53.5522276,9.9396381,02201204
11340912201,MaiGlückchen,,,53.5420792,9.9941062,01102103
11343357854,Köz Grillhaus,,,53.4721929,9.8893076,07713714
11345846818,Sri Lankan Wave,Bellealliancestraße 38,,53.5679387,9.9602052,03301310
11351565055,Schi{e}f²,Strandweg 1,,53.5554429,9.8114971,02211223
11359636536,sour kitchen,Mühlenkamp 59,22303,53.5831949,10.0097753,04405413
11360197873,Atlas Kochsalon,,,53.5616838,9.926686,02205215
11363703272,Kantine Hamburg,Süderstraße 79,,53.5450644,10.0284483,01106117
11366967422,Seanh Thai,,,53.5484297,9.9620463,01104112
11366995978,HOLY TACO,,,53.5491719,9.9621522,01104112
11366997944,Rodizio Steakhouse,,20359,53.5486915,9.960536,01104112
11367144299,Yume,,,53.5494238,9.9580613,01104112
11375418111,mirou,Mühlenkamp 9,22303,53.5803917,10.0122226,04405413
11381302669,Mensa Stellingen,Vogt-Kölln-Straße 30,22527,53.5995444,9.9316301,03309321
11385489251,Dubrovnik,Robert-Bosch-Weg 3,22941,53.7230826,10.2668642,0
11385489255,Röbls Restaurant & Bar,Am Markt 13,22941,53.72982,10.2613992,0
11398569139,Globus Küche,,,53.5845409,9.8695911,02208220
11398590250,Viet Garden,,,53.5846232,9.8710642,02208220
11413340268,La Cicchetteria,Schulterblatt 62,20357,53.5615433,9.9625711,02202207
11414674069,Zen,,20359,53.5557939,9.9625774,01104110
11414681869,YUYU,,,53.5565379,9.9627301,01104110
11414779411,Hala Lounge im GTHGC,Otto-Ernst-Straße 32,22605,53.5570239,9.8757409,02207219
11444848896,Bizim Mekan,,,53.5874917,9.8774615,02208220
11452160842,Maxson Shop & Restaurant,,,53.5210725,9.9206745,01119140
11470243331,Viva Cantina,Schultzweg 4,20097,53.5484518,10.0096762,01106115
11470377477,CLAAS,Am Lohsepark 8,20457,53.5433374,10.0035777,01102104
11472708537,Baborrito,Grindelallee 26,20146,53.5650528,9.9837215,03302312
11476053459,Chaskaa,Osterstraße 19,20259,53.5741576,9.9601988,03301306
11476207805,Seoul 1988,,,53.567233,9.9813068,03302312
11480258213,The States - American Sports & Cocktailbar,Kieler Straße 117a,25474,53.6607349,9.907086,0
11540262115,Asian Kitchen,,,53.5391471,10.0430522,01114132
11553403973,Bamboole,Paul-Dessau-Straße 2,22761,53.5632039,9.915827,02205216
11578579224,ELB·DIELE Quickborn,,,53.7271423,9.9141338,0
11584792015,Rohhäppchen,,,53.5782907,10.0288263,04408419
11587853658,Bar Levante,Mönckebergstraße 7,,53.5512041,10.0034527,01101101
11587853659,Yume,Lange Reihe 15 - 17,20099,53.5561335,10.0092967,01105114
11592719021,Haveli,,,53.7325409,9.9974205,0
11593147170,Schützenhaus,,,53.6288017,9.8454331,0
11641439295,Greek Haus,Neugrabener Bahnhofstraße 16b,21149,53.4702316,9.853762,07714715
11659334673,L‘Unico,,,53.581419,9.7567128,02214227
11669559803,poto,,,53.5814208,9.9722683,03304315
11693286369,Khaybar,Wandsbeker Chaussee 96a,22089,53.566751,10.0423936,05501501
11704046328,Sushi für Hamburg,,,53.6059595,10.0397789,04410429
11711720026,BLOCK HOUSE,Drehbahn 1,20354,53.55636,9.9875849,01103108
11711851917,Le big TamTam,,,53.5529013,9.9880263,01103108
11728676641,FRAMES Pizza & Co,,,53.5537292,9.9847362,01103108
11728687387,Mala Town,,,53.5555029,9.9857932,01103108
11728687763,Nice Sushi,Winsener Straße 8,21077,53.4508544,9.987391,07704705
11734124417,del favero,Heegbarg 30,22391,53.654875,10.0931467,05511519
11737274424,Zala,,,53.5695567,10.0559363,05501504
11749042669,Herr He,Ernst-Merck-Straße 10,20099,53.5550378,10.00704,01105114
11758585743,1620 Brunch & Dinner,Grindelberg 81,,53.5775,9.9769818,03303313
11758586273,Restaurant Estia,Eekhoff 1,25482,53.6593018,9.7424592,0
11765646080,Sushi Green,,,53.5828281,10.0476945,04408423
11775549961,PokeBowl Sushi House,,,53.6721276,10.240463,0
11778781691,Fresh Masala,,,53.6091937,10.0724412,05507515
11778781692,Pokeman,,,53.6092852,10.0724466,05507515
11782663704,Hako Ramen,,20099,53.5560651,10.0073678,01105114
11789444314,Elbnah,Lührsweg 17,,53.4480696,10.0762848,0
11799692372,Köz Steinbock,,,53.549369,9.9588833,01104112
11804787655,Bekun Restaurant,Elmshorner Straße 7 - 11,25421,53.6631121,9.7923309,0
11826212420,STADTHAUS Restaurante & Bar,Heiligengeistbrücke 4,20459,53.5493386,9.9856597,01103107
11834675665,Spaccaforno,Poelchaukamp 25,22301,53.5809794,10.008168,04405413
11883878932,Café Restaurant Four Seasons,,,53.5640448,10.032552,04407417
11891266319,Little Cortille,Eppendorfer Weg 89,,53.5731539,9.9600703,03301306
11918131265,Oh! Fisch - Meer und so,Ottenser Hauptstraße 10,22765,53.5527879,9.9322713,02204213
11918135473,Kumpir,,,53.5528826,9.9316599,02204213
11918135474,Special Curry,,,53.5529331,9.931778,02204213
11918135475,Dragon Wok,,,53.552939,9.9318887,02204213
11918135478,Dilay Döner,,,53.5528294,9.9319057,02204213
11918135479,Aha Ramen n Poke,,,53.5528426,9.9320455,02204213
11918135491,Falafel House,,,53.5528931,9.9317885,02204213
11918135492,Cao Asia,,,53.5529194,9.932027,02204213
11918135493,Sushi Ten,,,53.5528144,9.9320548,02204213
11918135494,Pizza Solo Bio,,,53.5527987,9.9319223,02204213
11918135495,Pasta & Co,,,53.5527432,9.9319324,02204213
11922268888,WaveCity,,,53.5425606,10.0005703,01102104
11922337669,Chiyo Sushi & Asia Cuisine,Hammerbrookstraße 94,20097,53.5440225,10.0254447,01106116
11931454245,Taj,Kieler Straße 84,25451,53.729373,9.8977295,0
11932787541,Classic Restaurant Stampe,Karlsteinweg 17,,53.4040606,9.7657607,0
11933340339,bella luna,Lübecker Straße 121,,53.5630494,10.0328966,04407417
11934976569,MOMO Buns,Margaretenstraße 58,20357,53.566243,9.9634403,03301310
11935261551,Sushi für Hamburg,,,53.5605236,10.030126,04407417
11943042753,mirou,Hallerplatz 12,20146,53.5719729,9.9860023,03302312
11951705881,Koer,Maria-Louisen-Straße 3,22301,53.5842293,9.9965789,04405413
11992578100,Klappe,Am Sood 2,22765,53.5539567,9.929767,02204213
12045397096,Rothe Bistro,,,53.545814,10.0861815,01111128
12053009081,Delhi Cooking,,,53.5673012,10.0425469,05501501
12055950012,Grill and Green,,,53.5478924,9.98277,01103105
12057657402,Dakat Grillhaus,,,53.5280371,10.0211924,01115134
12063921167,Bravi Ragazzi,Berner Heerweg 100,22159,53.5996394,10.1182325,05506514
12065321056,"Sweet Mint, Oriental Kitchen",,,53.55015,9.9623978,01104111
12065321443,Teigtasche,,,53.5500591,9.9624316,01104111
12068744181,mok Kitchen,Pezolddamm 156,22159,53.6245668,10.1151687,05506514
12070980697,mysa,,,53.5498724,10.0053796,01101101
12075461775,Scottys,,,53.5547153,9.9274865,02204213
12083981865,My Balance,,,53.6491218,10.1640312,05517525
12100069902,Gustav Grün,Pumpen 4,20095,53.5483022,10.003015,01101101
12100572922,Frisches Brot aus dem Tandoor,,,53.5540504,10.0153046,01105114
12103438212,Restaurante Barolo Bar,,,53.5482665,9.9628395,01104112
12118974429,La Patina,,,53.4611994,9.9817604,07701702
12136867135,Masala Express,,,53.6017135,10.0622711,05507515
12138038628,Ilios,,,53.7126641,9.9926336,0
12144212101,Kazu,,,53.5529347,10.0036099,01101101
12145893915,The Don A Roma,,,53.5639848,9.8130327,02211223
12172755638,Dennys,,,53.5684343,10.0185036,04406415
12178500301,Warung Garuda,,20457,53.5455129,9.991547,01101102
12180653301,FC St. Pauli Clubheim,,,53.5538045,9.9670836,01104111
12188887386,La Sala,Feldstraße 66,,53.5563345,9.9698354,01104111
12197767422,"LUX, Kantine & Catering",Platz der Republik 1,22765,53.5471377,9.935405,02201202
12208915947,Papas,Königskinderweg 67a,22457,53.6452353,9.9209195,03307319
12209025872,BARAN PiDE TANTUNi,,,53.5179471,9.9853081,01116137
12214407331,Banoo,Saseler Chaussee 88,22391,53.6429929,10.0989541,05510518
12214407332,China Ente Sasel,Saseler Chaussee 88a,22391,53.643047,10.0991137,05510518
12218286171,NAU,Ditmar-Koel-Straße 13,20459,53.545834,9.9754857,01103105
12221992592,JA ĂN Restaurant,Spitzbergenweg 34,22145,53.6278868,10.1674678,05518526
12223066219,Shams Delights,,,53.5536162,10.013482,01105114
12244986667,Rüya,,,53.5794618,10.0407747,04408423
12265905503,Cornelia Poletto,,,53.5900128,9.9881461,04402404
12288096101,Çıtır Lahmacun,Louise-Schroeder-Straße 31,22767,53.5512313,9.9491311,02201205
12288191492,Table Dot,Willy-Brandt-Straße 59,,53.5468527,9.9913853,01101102
12290136656,Maison Mai,Bohnenstraße 2,,53.5482786,9.9900943,01101102
12290189181,Taparia Segovia UG,Grelckstraße 11,22529,53.6002661,9.9569085,03305317
12291353901,Coba,Große Bergstraße 191,22767,53.5517881,9.9449139,02201204
12305721650,Pizza Garage,,,53.5500299,9.9567245,01104112
12310389682,Mekiki Sushi,,,53.7286701,10.2619694,0
12318634465,SVAAdish,Hoheluftchaussee 125,20253,53.5836927,9.9696058,03304316
12323959839,Injera Eritrea und Ethiopia Restaurant,Brennerstraße 35,20099,53.5560511,10.0155567,01105113
12350891801,The Noodle House,Ifflandstraße 92,22087,53.5636066,10.0241052,04407416
12384728774,Witthüs,Elbchaussee 499a,22587,53.5590219,9.8224689,02210222
12386062977,Werft,,,53.5453789,10.0152571,01106115
12402631294,juventude do minho,Stenzelring 24,21107,53.5170664,10.0034912,01116137
12404433227,GLORIE,Brandshofer Deich 68,20539,53.5374199,10.0285075,01114133
12420698963,Köz Leo Restaurant,Spitzbergenweg 36c,22145,53.6283818,10.1680556,05518526
12456951991,Jaipuri,Hummelsbütteler Landstraße 15,22335,53.6275433,10.0243917,04412431
12457246046,Köz Urfa,Paul-Nevermann-Platz 2-4,22765,53.5525747,9.9363917,02203210
12473178687,En Coeur,Klosterallee 67,20144,53.580249,9.9794586,03303314
12499014151,bam!bam!,Eppendorfer Weg 188,20253,53.5810757,9.9703704,03304315
12549117753,Los Damas,Hamburger Straße 17-49,,53.5741365,10.0331156,04408420
12551254401,VAMOS Kitchen&Bar,Brauhausstieg 53,,53.5724445,10.063427,05502505
12566587480,Bringezu,Schlossstraße 5,21465,53.5070667,10.25379,0
12571117122,Kyodai,Tarpenbekstraße 51,,53.5941536,9.983674,04402403
12589799502,LOsteria Hamburg Marzipanfabrik,Friesenweg 16,22763,53.558082,9.907736,02207219
12598900577,Ferno Pizza,Pagenfelder Straße 30,22111,53.5504258,10.0844191,01111128
12610217851,Raj Mahal,Große Bahnstraße 98,22769,53.5710298,9.9344523,02203209
12629403101,Böckmanns,,,53.5530404,10.017779,01105114
12673793078,New Delhi,,,53.4819407,9.9919318,01116137
12677176701,VyDelivery,Imstedt 40,,53.5798112,10.02413,04408419
12687124931,La Piazza,,,53.5561518,10.0075194,01105114
12688806951,Saigon Nho,,,53.5698875,9.9827314,03302311
12697044478,Beans and Buns,Harkortstraße 164,22765,53.5627295,9.9416979,02203210
12697558043,Ricebrothers,,,53.5454212,9.9647192,01104112
12704601983,Asia Imbiss,Max-Brauer-Allee 108,22765,53.5560635,9.9440595,02201204
12705537437,LOsteria,Sand 43,21073,53.4617483,9.9795478,07701702
12731625455,The Avocado Show,,,53.5412406,9.9982702,01102103
12731635206,Cardamom,Überseeboulevard 7,20457,53.5406335,9.9991418,01102103
12734367941,60 seconds to napoli,Mühlenkamp 65,22303,53.5835643,10.0094092,04405413
12747290220,slowman,Neumühlen 17,22763,53.5437945,9.9214588,02204214
12752367501,Fives am Fischmarkt,Fischmarkt 5,22767,53.5454737,9.9520227,02201201
12755534315,Die Pizzabäckerin,Eppendorfer Weg 127,20259,53.5760852,9.9627524,03301305
12784497601,Afrofusion,Lucy-Borchardt-Straße 8a,20457,53.5377567,10.018976,01102104
12786975417,,,,53.5077598,9.8640315,07715716
12797938206,Papaya,,,53.5729933,10.0241797,04408418
12801034111,Don Alfio,Rahlstedter Straße 159,22143,53.6020461,10.1572442,05518526
12801107442,Indian Temple,,,53.6105104,10.0740502,05507515
12801107444,Sandal Fisch Grill Haus,Bramfelder Chaussee 273,22177,53.6158237,10.0763297,05507515
12804238289,Kazu,,,53.5396572,9.9995844,01102103
12804238290,Sabai Dee Mai,,,53.5405923,9.9979997,01102103
12804238298,Bear Claw,,,53.53989,9.9992008,01102103
12811138294,Fat Potatos,Mühlenkamp 14,22303,53.5807081,10.0124112,04405412
12817025023,Gandom,,,53.5729465,10.0243064,04408418
12817936499,Pesca,,,53.5389422,9.9987069,01102103
12817953702,Lolas,,,53.539234,9.999109,01102103
12818253901,Sanku Maotsai,Lange Reihe 7,20099,53.5558585,10.0089734,01105114
12821028304,Shadalai,,,53.5567995,9.921661,02204211
12824213964,Positano,Eppendorfer Weg 215,20253,53.5815981,9.970638,03304316
12828878601,Sushi for Friends,,,53.582977,10.0469842,04408423
12829912899,Tunici,Wandsbeker Zollstraße 25-29,22041,53.5753268,10.0747509,05502507
12830569268,Fasan Stube,Bohnenstraße 4,20457,53.5481731,9.9908582,01101102
12837257801,Dadashi,Hamburger Straße 27,22083,53.5741608,10.032728,04408420
12840909628,Wild & Veggie,Kurdamm 24,21107,53.4953302,9.9951339,01116137
12843559978,Kalamata Hamburg,Heckscherstraße 1A,20253,53.5801244,9.9614575,03304316
12865181903,Tandoori Flame,Gertigstraße 65,,53.5831191,10.0185214,04405412
12866939768,deseo tapas bar,Baakenallee 34,20457,53.5371806,10.0120896,01102104
12872015631,KÖFTE BURGER FOR FRIENDS,Lerchenstraße 115,22767,53.5598726,9.9633751,02202207
12872599303,Quintessenz,,,53.5482985,9.986439,01101102
12872631211,Zamme,Holsteinischer Kamp 24,22081,53.5748633,10.0387328,04408422
12877452950,Destille,,,53.5512266,10.0095899,01105114
12879310907,Otti chii,,,53.5486458,9.9251059,02204214
12912952317,Taminos,,,53.564069,9.986725,03302312
12945201401,Hue Xua,Lübeckertordamm 2,20099,53.5568842,10.0212203,01105113
12947550700,Henssler at Home,Waldweg 70,,53.6547879,10.1267802,05510518
12955615484,Bollo Pizza,Hegestraße 30,20251,53.5831064,9.9818784,04401401
12961580971,La Fattoria,,,53.5816421,9.760519,02214227
12961592644,Himalaya,,,53.5815747,9.7582431,02214227
12980907254,Trattoria,,,53.534278,10.2256469,0
12982437359,Baki Tava,,,53.5642863,10.0569249,01108122
12995491071,Gaststätte Kulosa,,,53.5404285,10.1058461,01112130
13004744468,Senator,,,53.4792859,10.0243492,01116135
13005158805,Akandeíz tantuní,,,53.554482,10.0149702,01105114
13028393227,Anoni Küche,,,53.565072,10.035902,05501501
13031961701,Anoni Küche,Wandsbeker Chaussee 15,,53.5650684,10.0359267,05501501
13036779227,sul sul,,,53.5781959,9.9468315,03301303
13039889546,Dey Rush,,,53.5467101,9.9967573,01101102
13039889560,Amita Pizza,,,53.5468404,9.9967365,01101102
13072720564,Rolliki,,,53.5896496,10.0135834,04405410
13073861190,Ricebrothers,,,53.5455662,9.9739539,01103105
13075742820,LAmira City,,,53.5711531,10.0626858,05502505
13082697049,Sale Pepe,Berner Heerweg 173-175,22159,53.6058606,10.118757,05506514
13104426019,Die Tagesbar,,,53.5479722,9.9906739,01101102
13130464614,Viet No1,Lohbrügger Landstraße 32,,53.4975116,10.2040186,06601601
13130885928,Viet No1,Lohbrügger Landstraße 32,,53.4975077,10.2040049,06601601
13135207021,Salz & Zucker,,,53.7292929,10.2622571,0
13135207025,shinzō,,,53.7289648,10.2691383,0
13159703770,nori canteen,Klosterwall 6,,53.5488244,10.0055832,01101101
13181407321,Lemontaste,,,53.6198151,10.0335093,04411430
13195628607,Restaurant Café Palmgarten,Maldfeldstraße 2A,21077,53.4298766,9.9339089,07708709
13195628608,Café & Bistro Garten von Ehren,Maldfeldstraße 2,21077,53.4295918,9.9356722,07708709
13195863113,Nara,,,53.5500354,9.9568771,01104112
13198137459,Schütters,,,53.569315,10.0265011,04406415
13205488833,Rindock’s,Bahngärten 28,22041,53.5700879,10.0771216,05503510
13235360633,Schlemmerstübchen,,,53.6732463,10.2374711,0
13241509570,GTH Kantine,Eversween 11,,53.4986691,9.975512,01116137
13245233702,Factory,Hasselbrookstraße 172,,53.5649854,10.0563018,05501503
13253931665,Cucino,Hammerbrookstraße 47,,53.5484748,10.022788,01106117
13253931666,Zala,Hammerbrookstraße 47,,53.5484108,10.0228502,01106117
13273215973,Middle Eastern Restaurant,,,53.5494529,9.9577031,01104112
13273224029,R68 Grill Lounge,,,53.5497527,9.9629276,01104111
