id,name,street,zip_code,lat,lon,geojson_feature_id
25776282,Grano House,,,53.5788725,10.0436269,04408423
68424433,deFries express,Claus-Ferck-Straße 6,,53.6492729,10.1638408,05517525
92786039,McDonalds,Beim Strohhause 8,20097,53.5526122,10.0201481,01105113
245564422,Yoko Sushi Harburg,Bremer Straße 14,21073,53.4582281,9.9809377,07701701
253398184,McDonalds,Möllner Landstraße 7a,22111,53.5397985,10.1042648,01112130
253417386,Subway,Hammerbrookstraße 92-94,20097,53.5441598,10.0254092,01106116
268808540,Burger King,Reeperbahn 75,20359,53.5491525,9.9623069,01104112
268808549,KFC,Reeperbahn 100,20359,53.5497556,9.9611087,01104111
274952089,Löwen-Grill,,,53.4688488,10.2801624,0
280709540,Köfte Burger,,,53.5598845,9.9633553,02202207
282221635,Burger King,Herbertweg 1,22965,53.6942002,10.3240456,0
286304304,SCHMITT Foxy Food,Schulterblatt 70,20357,53.5617762,9.9624035,02202207
288561703,Kleines Glück am See,,,53.4313373,10.1156556,06606607
289788329,Schanzen Chicken,Max-Brauer-Allee 277,22769,53.5636383,9.9593991,02203208
291167140,Mathewes Grill,,,53.4561239,9.9915989,07701702
295037437,Hesburger,Reeperbahn 29,,53.5500499,9.9658702,01104111
296097118,Burger King,Berliner Allee 38-44a,22850,53.6847046,9.9852402,0
297644968,Kimchi Guys,,22765,53.5547687,9.9288592,02204213
298579404,Berlin Döner,Hummelsbüttler Hauptstraße 55 b,22339,53.641441,10.0373394,05512520
308016826,Kos Grill,Kieler Straße 39,25474,53.6572802,9.9064406,0
309742996,Crazy Dogs,,,53.5811605,9.9733382,04401401
311462914,Burger King,,,53.5524869,9.9336854,02204213
312943843,Virginia Burger,,,53.4218533,9.981692,07707708
315220039,Juli Food,Bahnhofstraße 3a,25421,53.6560237,9.7976381,0
315970480,Imbiss Akropolis,,,53.5423035,10.1691543,0
316955347,Dürüm Grill Imbiss,,,53.5883805,9.8491582,02209221
320203719,Dominos,,,53.5637914,9.9199112,02205215
322753353,Arena Imbiss,,,53.5734599,9.8923162,02205217
341792058,Miss Döner,Carl-von-Ossietzky-Platz 1,20099,53.5567809,10.0106212,01105114
364124009,Mensa Berliner Tor,Berliner Tor 7,,53.5570514,10.023334,01105113
364428621,Dominos,,,53.5985688,9.8588047,02208220
366994071,Döner Kebab,,,53.5979565,9.8621084,02208220
367671030,Asia Thanh,,,53.5456892,10.024145,01106116
369801641,Kliemanns Grill,,,53.5406382,10.2019192,0
369815352,Tasty Croque Barsbüttel,Willinghusener Landstraße 11b,22885,53.5689529,10.1738795,0
370288272,King Döner,,22869,53.598638,9.848728,0
370321577,bp Kantine,,,53.6085933,10.1857571,05518526
370745952,Crazy Croque,Pezolddamm 156,22159,53.6245215,10.1152206,05506514
378852770,Grill Palast Pommes Prinz,,,53.6660416,9.9884497,0
385080033,Pizza Deal Altona,Hospitalstraße 24,22767,53.5524982,9.9459077,02201204
387735453,Burger Lounge,,,53.5530951,9.9541919,02201205
388849689,Asia Pham,Vierländer Damm 52,20539,53.5337842,10.0449303,01114132
391511923,Zum Krokodil,Güttloh 1-5,25451,53.7214278,9.9020729,0
391557771,New Empire Pizza Service,Kieler Straße 87,25451,53.7310249,9.8956695,0
391577604,Quick Köz Grill Döner & Pizza,Bahnhofstraße 4,25451,53.7312089,9.8968356,0
394086462,Kleine Pause,Wohlwillstraße 37,20359,53.5548135,9.9623522,01104110
405202108,Picknick,,,53.5841717,9.89511,02205217
408798336,,,,53.5390989,10.0465787,01114132
408799599,Schlemmerkiste,,,53.5379353,10.0515717,01114132
409382650,Limon,Mühlenkamp 18,22303,53.5810404,10.012296,04405412
410213299,Mansha Burgers,,,53.5460464,10.0393127,01106118
410296267,Petit Bistro,,,53.5367351,10.0641994,01114132
410438724,Mundfein,,,53.5733288,9.9497206,03301306
410439009,Burger Factory,,,53.5736574,9.9480258,03301304
411016967,Sphinx Döner,Landwehr 39,22087,53.5613808,10.0374882,04407417
411016990,Kimchi Sushi,Barmbeker Markt 37-38,22081,53.579874,10.0417053,04408423
411016992,Asia Haus,,,53.5810127,10.0430998,04408423
411016995,Pizza Max,,,53.5819254,10.0443713,04408423
412408907,Uni Döner,Grindelhof 2-6,20146,53.567199,9.981268,03302312
412410376,Kumpir,,20146,53.567357,9.9814486,03302312
415007280,Elbblick - Grill,,,53.535564,9.7893606,07717718
416688013,,,,53.5971132,9.9416993,03309321
418169963,Kiez Curry,,,53.5488415,9.9601956,01104112
425632753,Mr. Kebab,,21629,53.4667319,9.7926621,0
436127561,Jim Block,Kirchenallee 37,20099,53.5546953,10.0084662,01105114
437558657,Subway,Ballindamm 38,20095,53.5521601,9.9956384,01101101
441072638,Isi Grill,Hamburger Straße 103,22949,53.6784039,10.1473769,0
442137109,Mö Grill,,,53.5526324,9.9932154,01103108
443490461,Kumpir,Schanzenstraße 95,20357,53.563264,9.965264,02202207
448907155,Avsallar Döner,,,53.5943107,9.9963933,04405409
449546438,Pizza Pasta Großhansdorf,Ahrensfelder Weg 9,22927,53.6524582,10.261193,0
449588182,Peters Hähnchengrill,Fuhlsbüttler Straße 226,22307,53.5959214,10.0437989,04410428
454619034,Smileys Pizza Profis Langenhorn,Langenhorner Chaussee 159,22415,53.646179,10.0121032,04413432
458703194,Imbiss Freibad Neu Wulmstorf,,,53.4595209,9.8073579,0
471778130,Easy Croque,Marienthaler Straße 148,20535,53.5641275,10.057299,01108123
482516748,Haus des Döners,Schulterblatt 16,20357,53.5601993,9.9636318,02202207
482847317,Dominos,Jessenstraße 10,22767,53.550912,9.9440646,02201203
518362175,Imbiss Stover Strand,,,53.4243299,10.2953027,0
533916049,Burger King,Mundsburger Damm 67,22087,53.5703159,10.0265596,04406415
536391103,Gaziantep,,,53.5529071,10.0103267,01105114
536391105,Sait,,,53.5527609,10.0109025,01105114
536391107,Köz Istanbul,Steindamm 5,20099,53.5530302,10.0106022,01105114
536391112,Kebap Salonu Urfa,,,53.554733,10.014368,01105114
551491417,Sultans,,,53.5459924,10.0246165,01106117
551779793,Rödings Döner,,,53.5478886,9.9870417,01101102
553104084,Piccoli Pasti,Großer Burstah 53,,53.548402,9.9880184,01101102
555016295,Five Guys,Millerntorplatz 1,20359,53.550351,9.968921,01104111
569077554,Qrito,Grindelallee 79,,53.5672078,9.980541,03302311
576979760,Kardelen,Steinwegpassage 6,20355,53.5508627,9.9823804,01103107
576979768,Neustädter Grill,,,53.5513692,9.9825172,01103107
583611894,Call a Pizza,Steilshooper Straße 255,22309,53.6030599,10.0510056,05508516
597340767,Tibarg Kebap Haus,Tibarg 32a,22459,53.6197068,9.9525078,03306318
601012677,Smileys,Ulzburger Straße 328,22846,53.7148355,10.0001743,0
604672874,Subway,Mundsburger Damm 61,22087,53.5700043,10.0260766,04406415
627571045,Smilies Pizza Service,,,53.6699922,10.2358914,0
627571046,Berlin Döner,,,53.6699056,10.2359941,0
627572984,Pizza Max,,,53.6704814,10.2345647,0
639631011,Ess-Bahn Döner-Grill,,,53.6035778,9.8930812,03308320
639631013,61 Köfte Haus,Elbgaustraße 28,22523,53.6066439,9.9019514,03308320
646972116,Furkaan Imbiss,,,53.4929487,10.0133714,01116136
650363554,Haj Ali Kebab,Fuhlsbüttler Straße 168,22305,53.5921335,10.0445026,04410427
662891037,Döner Grill,,,53.6441252,9.8121387,0
663174802,Pommes Spezial,Bei den St. Pauli-Landungsbrücken 6,20359,53.5453067,9.9669179,01104112
663305078,Arnoldi,Lornsenstraße 111d,22869,53.607923,9.8400272,0
671916150,Grillhaus Neugraben,Neugrabener Markt 2,21149,53.4699096,9.853932,07714715
690855635,Döner Queen,Jarrestraße 57,,53.5853968,10.0265678,04405411
695548977,Sato Grill Imbiss,Heubergredder 52,22297,53.6066541,10.0119095,04404407
698328368,Robbys Pizza Drive,,,53.5728874,9.8423376,02209221
699666070,Hazar Grill,Carl-Petersen-Straße 74,20535,53.5578974,10.0464765,01108122
699859716,Croque Factory,Weidestraße 85,22083,53.5798531,10.0312305,04408419
703372865,Muckefuck,Hauptstraße 39a,25462,53.6501682,9.8282805,0
705977806,Minigolf im Stadtpark,,,53.5930926,10.0203352,04405409
710567583,Döner Queen,,,53.4608891,9.9797608,07701702
719391895,Döner Pavillion,Oldesloer Straße 2,22457,53.6327949,9.9113477,03307319
728489833,Elbdöner,,,53.4580107,9.9660548,07709710
735409821,Reina,,,53.6497349,10.0140161,04413432
735861718,Toni Pizzeria,,,53.5733943,9.8921892,02205217
740412872,Kaiserperle,Am Kaiserkai 47,20457,53.5408453,9.9875949,01102103
761175803,Shikara QUICK,Susannenstraße 20,20357,53.562761,9.964912,02202207
761953295,Asia M 43,,,53.55706,10.0105144,01105114
764870948,Holsten Döner,,,53.5616642,9.9486273,02201206
767919936,Asia Imbiss WOK,Bartelsstraße 28,20357,53.5623716,9.9645277,02202207
767919938,Polokantine,Bartelsstraße 26,20357,53.5622755,9.9646188,02202207
767925894,MyAsia,Altonaer Straße 6,20357,53.5637326,9.9607314,02202207
768104268,La Famille,Schulterblatt 62,20357,53.5615161,9.9625972,02202207
768107820,Fischimbiss Schabi,Schulterblatt 60,20357,53.561408,9.9626804,02202207
772975136,Mein Döner,Tornberg 34,22337,53.6329803,10.055142,04411430
773369184,Burger King,,,53.6088943,10.0515649,05508516
773369925,Wokman,Fuhlsbüttler Straße 412,22309,53.6029998,10.0409423,04410429
775947384,Nordsee,,,53.5448488,9.9713617,01104112
776018730,HDs Imbiss,,,53.6220845,10.1549474,05518526
811253668,City Pizza und Döner,Kieler Straße 109,25474,53.6653891,9.9043263,0
835615953,Stadtpark Grill,,,53.5905886,10.0152781,04405410
835616025,Call a Pizza,Dorotheenstraße 140,22301,53.5883877,10.0046433,04405410
841896019,Falafelstern,Schanzenstraße 111,20357,53.564409,9.9653614,02202207
842577229,Söner Kebab,,,53.5801327,10.1038379,05505513
863280541,McDonalds,,,53.541234,10.099529,01112130
874842154,Onkel Döner,,,53.6471411,9.9085917,03307319
884705394,Mr. Dam,Mottenburger Twiete 4,22765,53.5510063,9.9298422,02204213
884719115,Burger Heroes,Bahrenfelder Straße 146,22765,53.5534412,9.9292837,02204213
897150590,Hähnchengrill Jührs,,,53.5327508,10.1270156,01112130
898840665,Ardacan Grillhaus,,,53.5927343,10.0439616,04410427
942928849,Kebap Lounge,Koppelstraße 45,22529,53.5931485,9.9437272,03305317
956350492,Imbiss bei Schorsch,Beim Grünen Jäger 14,20359,53.5578861,9.9630618,01104110
956788681,Sai Gon Food,Hammer Steindamm 53,22089,53.565612,10.0575427,05501504
960159025,Pierro Croque & Pizza,Holzmühlenstraße 31,22041,53.5801534,10.0813459,05502506
968065687,Drive Pizza,Bürgerweide 62,20535,53.5579344,10.0355229,01107120
970280413,Froque Croque,Waldstraße 38,22846,53.7126448,9.9927883,0
976181722,Dutch,,,53.6049708,10.1582373,05518526
977466073,Burger King,Berner Heerweg 173-175,22159,53.6059248,10.1185327,05506514
977547420,Burger Lounge,Elmshorner Straße 115,25421,53.6724023,9.793825,0
978789521,Ali Köz,,,53.6109783,10.0580549,05508516
981589253,Delikato,Seevepassage 3,21073,53.4573081,9.9863114,07701702
981645577,Lavas,,,53.4571985,9.9875075,07701702
982639372,Imbiss Tetova,Veddeler Stieg 4,20539,53.525858,10.0203619,01115134
983585381,Soulkebab,,,53.5520575,10.0120247,01105114
984515014,Arams Pizza,Steinbeker Hauptstraße 70,22117,53.5303762,10.125397,01112130
984538073,Uni Grill Döner,,,53.4601305,9.9754085,07701701
984618253,Pizza Max,Mensingstraße 3,21079,53.4440383,9.9989324,07704705
984794821,Napoli Pizza Haus,,,53.489283,10.2440731,0
985216777,Burger Lounge,,,53.5815992,9.7546565,02214227
986906947,Asia-Imbiss,,,53.5461472,10.0244407,01106117
991586346,Jim Block,Wandsbeker Marktstraße 97-99,22041,53.5725337,10.0676996,05502505
1026535049,Ready Pizza,Kieler Straße 54,22769,53.5678756,9.9442309,02203209
1026535050,Priyas Food,,,53.5685837,9.9438012,02203209
1030885635,Tekin,Fuhlsbüttler Straße 761,,53.6207849,10.031489,04411430
1035374455,Adana Grill,,,53.5748786,10.0399439,04408422
1055516093,Masala,,,53.5484027,9.932637,02204214
1076972268,Mai Asia Imbiss,,,53.547797,9.9317056,02204214
1078592709,Salman Imbiss,Ottenser Hauptstraße 33,22765,53.5519378,9.9296094,02204213
1106541797,Bey Kebab,Bahrenfelder Straße 115,22765,53.5528772,9.9296276,02204213
1130748962,Elbburger,Spaldingstraße 130,20097,53.5499926,10.0196072,01106116
1135977375,Pizza Pazza,Schulterblatt 69,20357,53.5618481,9.9617975,02202207
1149418654,Kebab For Friends,Erdkampsweg 35a,22335,53.6284727,10.0237924,04412431
1172077827,CroqueLaden,,,53.580824,10.0235014,04408419
1193587982,burgerme,Bahrenfelder Chaussee 75,22761,53.5667266,9.907775,02205216
1228036342,Quick,Eidelstedter Platz 9,,53.6084918,9.9035679,03308320
1256749974,Fischbude Opn Bulln,,,53.5560344,9.8045995,02211223
1269116635,MrBeef Hamburg,,,53.4981799,10.203097,06601601
1269116646,Taverna Alexandros,Lohbrügger Landstraße 26,21031,53.4971493,10.2042633,06601601
1278484419,Akropolis,,,53.4871667,10.1808287,06614615
1280186495,Hammer Pizza,Horner Weg 66,20535,53.5556486,10.0632068,01108123
1304228770,,,,53.6704968,10.0204907,04413432
1304569150,Dein Döner,,,53.6483656,10.0155145,04413432
1306984633,Berlin Döner,Hauptstraße 61,,53.6529491,9.8293041,0
1317305560,speedcroque,,,53.5748956,10.0400525,04408422
1318030348,Görner Grillstation,Hauptstraße 49,25469,53.6363387,9.8399054,0
1334359099,Mir,,,53.5818928,9.7563502,02214227
1334359100,Pizza Johlo,Rissener Dorfstraße 53f,22559,53.5817791,9.7546392,02214227
1334359103,Dominos,Wedeler Landstraße 58,22559,53.5826284,9.7541776,02214227
1343921383,Sultans Kepub,,,53.6042492,10.1547849,05518526
1346163695,Smashkönig,Bahrenfelder Straße 88,22765,53.5508963,9.9303039,02204214
1346177410,Grillstube,,,53.6975695,10.2415628,0
1379951513,Hatay,,,53.4653152,9.9621853,07710711
1385113455,Papp Satt,Friedrichsgaber Weg 5,22848,53.6792743,9.9679448,0
1391523618,Falafel Haus,Grindelallee 44,20146,53.5660967,9.9824643,03302312
1391540159,Spiesserei,Grindelallee 32,20146,53.5654267,9.9833042,03302312
1396884469,Miss Pepper,,,53.57719,10.19135,0
1404346774,Döner-Burg,,,53.598322,9.849935,0
1406915805,Serhat Döner,Eiffestraße 95,20537,53.5527926,10.0414385,01108124
1411316586,Blondos,Ewige Weide 6,,53.6890217,10.2592405,0
1432023193,NANGLO Asia Imbiss,,,53.5763071,9.9431818,03301304
1434216118,Ottos Burger,Bahrenfelder Straße 175,22765,53.5545262,9.928462,02204213
1434784142,Monsieur Alfons,Holstenplatz 15,22765,53.5612969,9.9482644,02201206
1451126887,bock auf asia,Holstenstraße 203,,53.5608348,9.9480312,02201206
1451126903,ibras,Holstenstraße 185,22765,53.560395,9.9484484,02201206
1475015125,eatstanbul,Bramfelder Chaussee 251,22177,53.6139625,10.0756187,05507515
1475057819,Der Giros-Spezialist,Pezolddamm 45,22175,53.6211274,10.1027775,05507515
1478145906,,,,53.5980158,9.9377131,03309321
1482101382,Burger Vision,Großer Burstah 1,20457,53.5489409,9.991526,01101102
1496197257,Köz Antep Gülbaba,,,53.5493596,9.9590383,01104112
1500705095,Pamukkale,,,53.4899888,10.2058631,06602602
1500705988,McDonalds,,,53.4894318,10.2069216,06602602
1502029220,Ruffs Burger,Grindelhof 33,20146,53.5686271,9.9829435,03302311
1502662568,Subway,Hoheluftchaussee 28,20253,53.5799704,9.9746642,03304315
1503044982,,,,53.7234174,10.2503931,0
1503301949,Croque du Nord,,,53.57398,9.9593076,03301306
1504507535,Eppendorfer Grillstation,,,53.5801576,9.9682391,03304315
1508523202,Pizza Hot Bell,,,53.5634048,10.0608498,01108123
1510711794,Zentrum Grill,,,53.7298455,10.2629539,0
1530319607,Sis Kebap,Curslacker Neuer Deich 31,21029,53.4823644,10.2095475,06602603
1532564266,Sultans Kitchen,,,53.6018967,10.0623621,05507515
1532564279,www.croxycroque.de,,,53.6019365,10.0623876,05507515
1542144553,Jim Block,Dammtorstraße 29-32,20354,53.5564453,9.9883491,01103108
1562338728,Dominos,Eppendorfer Weg 138,,53.5776886,9.9638213,03301308
1562338832,Sel Kebaps,,,53.5841112,9.9686673,03304316
1562338839,Smileys,Hoheluftchaussee 118,20253,53.585081,9.9694307,03304316
1566028446,IKEA Restaurant,,,53.6488455,9.927737,03307319
1571347963,McDonalds,Adenauerallee 78,20097,53.5520306,10.0111017,01105114
1578691351,Wanted,,,53.6742175,10.2364164,0
1579342339,Söhne Hamburgs Bowls & Greens,Mohlenhofstraße 2,,53.5498615,10.0012152,01101101
1589271207,Kings Croque,Luruper Chaussee 129a,22761,53.5732441,9.8931259,02205217
1599630483,Pronto Pizza,Koppelstraße 49a,22529,53.5932705,9.9447378,03305317
1603488344,La Famille,Schreyerring 23,22309,53.6117459,10.0565261,05508516
1613188299,"Jayjays Bowls, Juices & more",,,53.5595688,9.8818334,02206218
1616141938,Chinaland,Wandsbeker Chaussee 201,22089,53.5686459,10.0514769,05501502
1617465733,Asia Hub,,,53.6024751,9.9119144,03308320
1618694832,Dominos,Eidelstedter Platz 24,22523,53.6083252,9.9055373,03308320
1618694833,Mr. Zapata,Elbgaustraße 34b,22523,53.6064786,9.9011892,03308320
1618694835,Metaxa,,22523,53.6122014,9.8985156,03308320
1637627143,Anh Dao,Wexstraße 33,,53.5509049,9.9815624,01103107
1638404401,Sallis Food Center,,,53.5227739,10.014399,01115134
1638974745,KlienmannS Croques,,,53.5406336,10.201318,0
1639022132,Glinde Markt Kebap Haus,,,53.5414122,10.2142054,0
1639582145,McDonalds,Willinghusener Weg 1,22113,53.546936,10.1532397,0
1639584273,Asia Fu Loi,Willinghusener Weg 1,22113,53.5467282,10.1532751,0
1639586663,WeZa Chicken,,,53.5459761,10.1531815,0
1642126676,Akropolis,Hammer Landstraße 234,20537,53.5537693,10.0654977,01108125
1648287832,Asia Qing Dao,,,53.5974288,10.1022685,05506514
1649446485,Horner Grill,Horner Landstraße 329,22111,53.5465927,10.0870819,01111128
1656096430,Croque Master,Eißendorfer Straße 16,21073,53.460485,9.9759128,07701701
1656096468,KebapWelt,,,53.4601221,9.9767309,07701701
1664435789,Gustav Grün,,,53.5420698,9.9939978,01102103
1670403390,Dithmarscher Grill,Dithmarscher Straße 49,22049,53.5803557,10.0612399,04409424
1689398315,Monsieur Croque,,,53.5620255,10.0599778,01108123
1714480798,Hagenah Imbiss,Schnackenburgallee 8,22525,53.5723403,9.9192628,02205215
1721795024,Babylon,Hamburger Straße 2,22941,53.7284128,10.2590088,0
1722375571,Mundfein,Landwehr 19,22087,53.5629662,10.0360292,04407417
1724294433,Baborrito,Grindelallee 83,20146,53.5675362,9.9803193,03302311
1725458216,Zilan Döner,Bahnhofstraße 116,25451,53.7313982,9.9045607,0
1725862274,Berlin Döner,Bahnhofstraße 7,22941,53.7285572,10.2688978,0
1728060693,Nordsee,Osdorfer Landstraße 133-135,22609,53.5704244,9.8625914,02209221
1749586643,City Croque,,,53.6607419,9.8005758,0
1760346082,Pauli Pizza,,20359,53.5506015,9.9603333,01104111
1761244792,Nonnos Pizza-Manufaktur,Tonndorfer Hauptstraße 59,22045,53.5861495,10.1234851,05505513
1762058228,dean&david,Osakaallee 2,20457,53.5434249,9.9976735,01102103
1762229021,Jim Block,Fuhlsbüttler Straße 165,22307,53.5931057,10.0439267,04410428
1769807235,Chicken Spot,,,53.5920192,10.0445288,04410427
1778946050,Kirat Asia Imbiss,Alsterdorfer Straße 50,22299,53.5971858,9.9971991,04405409
1802002365,Call a Pizza,Frohmestraße 78d,22459,53.6305165,9.9259635,03307319
1803233693,Fresh Taste,,,53.5798767,10.03104,04408419
1803268233,Dominos Pizza,Eiffestraße 127,20537,53.552857,10.0462832,01108124
1805471320,Reisprinzen,,,53.6266249,10.0235743,04412431
1807343478,Ardacan Grill,,,53.607099,10.1181152,05506514
1808645945,Kalkan Kebap House,Alter Kirchenweg 33-41,22844,53.7046638,10.0071612,0
1811595186,Quick Sushi Wok,,,53.5523283,10.0413076,01108124
1819224651,Dominos,Wandsbeker Marktstraße 141,22041,53.5734812,10.0707447,05502507
1819868879,Food Lovers,Werner-Otto-Straße 43,,53.596723,10.072573,05507515
1823162403,Shiraz,,,53.573215,10.071175,05502507
1832080751,Balat Imbiss,,,53.5923247,10.0753892,05502509
1843004778,Olivia,,,53.5619303,9.9155896,02205216
1844932181,Sabai Jai,Mundsburger Damm 21,22087,53.5663701,10.0206105,04406415
1844940229,Mr. Hang,Mundsburger Damm 23,22087,53.5664961,10.0208295,04406415
1846396589,Jim Block,Sachsentor 2,21029,53.4885063,10.2112721,06602602
1855698285,Hansa Burger,,,53.6080026,10.0716822,05507515
1859083245,Döner Grillhaus,Eidelstedter Weg 68,20255,53.5829023,9.9481632,03305317
1860340134,Croque & Crepes,August-Krogmann-Straße 2,22159,53.6068381,10.1189595,05506514
1862001240,Croque Point,Nordalbingerweg 17,22455,53.6404014,9.9482786,03306318
1873431670,Dream Döner,,,53.4800631,9.8748493,07714715
1883795284,Dominos,Valentinskamp 30,20355,53.555512,9.9839197,01103108
1883795295,New City Smash Burger,Großneumarkt 54,20459,53.5502039,9.9807257,01103107
1884436074,Asia Imbiss,,,53.5828822,10.0554908,04409424
1893849875,Ha Long,,,53.712737,9.9995247,0
1893849918,Arkadasch Schnell-Restaurant,Ulzburger Straße 407,22846,53.7153482,9.9996077,0
1893849968,Bugsy Burger,Ulzburger Straße 358,22846,53.719458,9.99874,0
1900289323,Mechef Food,,,53.6224468,10.1660261,05518526
1906849667,Heisse Ecke Döner,August-Krogmann-Straße 22,22159,53.6079323,10.1169907,05506514
1909865759,Asiahung,Kleine Johannisstraße 20,20457,53.5492404,9.9936342,01101102
1909906433,Green Lovers,Kleine Johannisstraße 8,20457,53.5495947,9.9936419,01101102
1912167932,La Croque,Markusstraße 17,20355,53.5509639,9.9794205,01103106
1917425716,Honkong Express,,,53.5826831,9.8552673,02209221
1918543523,Hamza Kebab,Dammtorstraße 23,20354,53.5573896,9.9890316,01103108
1918692856,Osdorfer Pizza & Grillhaus,,,53.5883447,9.8491547,02209221
1925143442,Gyropolis,,,53.5630183,9.9198546,02205216
1933620201,City Kumpir,Stadthausbrücke 7,20355,53.551514,9.9855427,01103107
1935772566,Arin Kebap,,,53.5547667,9.9892883,01103108
1937223147,Five Guys,,,53.5545495,9.9900383,01103108
1939337169,Bistro Italia,Tarpenbekstraße 49,,53.5940726,9.9836724,04402403
1946676103,SoulKebab,Luruper Hauptstraße 138-142,22547,53.5917552,9.8727853,02208220
1957542913,Asia Lam,,,53.5526654,10.0203528,01105113
1996944892,Dominos,Frohmestraße 86,22459,53.6299825,9.9270633,03307319
2007157340,Der Ali,,,53.6103547,10.0580773,05508516
2019926828,ÖZ Urfa,Cuxhavener Straße 342,21149,53.4727285,9.853838,07714715
2027720485,GOSCH Sylt,,,53.5536786,10.0063717,01105114
2027933013,Sultans,Hammer Steindamm 58,,53.5649128,10.0571417,05501503
2029181892,The Burger Factory,Frohmestraße 53,,53.6320313,9.9221887,03307319
2046299289,BE Croque,Schiffbeker Weg 68a,22119,53.5462056,10.1063296,01112130
2058414039,Hansikdang,Manshardtstraße 115k,22119,53.5598091,10.1074577,01111129
2058486724,Dominos,Manshardtstraße 107,22119,53.5591493,10.1059151,01111129
2060681668,Hallo Pizza,Schiffbeker Weg 94,22119,53.5487289,10.1086048,01112130
2067126142,Patara,Billstedter Hauptstraße 43,22111,53.5404213,10.1011717,01112130
2070232127,Pizza Buddys,,,53.5563271,9.9635666,01104111
2070239983,Hakan Abi,,,53.555841,9.962585,01104110
2088700236,# imBeef,Washingtonallee 111,22111,53.543009,10.0960283,01111129
2099022421,Nikolaus Grill Imbiss,Hauptstraße 24,21629,53.4652932,9.8024413,0
2119640222,Crazy Croque,Manshardtstraße 117b,22119,53.5592449,10.1083477,01111129
2137983086,dao dao Streetfood Bar,Wexstraße 23,20355,53.5513216,9.9830423,01103107
2139225281,Urfalim Döner,,,53.5036853,10.2128102,06601601
2156360334,Bistro Olivio,Wendenstraße 8,20097,53.5468639,10.0256221,01106117
2189684282,Barış Grillhaus,Lange Reihe 1,20099,53.5557779,10.0087239,01105114
2194492862,CroqAdeal,Herbstsweg 15,22307,53.5955534,10.049884,04410428
2272451628,Harburger Berge,,,53.4240768,9.963253,07707708
2281946907,Nonnos Pizza-Manufaktur,Fabriciusstraße 111,22177,53.6032214,10.0635272,05507515
2282792243,Sen Asia,Dithmarscher Straße 5,22049,53.5772054,10.0591417,04409424
2285426188,Anatolian Street Food,Schöneberger Straße 4,22045,53.5843178,10.1338729,05504512
2295492913,Burger Heroes,Kirchenallee 56,20099,53.5529511,10.0089311,01105114
2306814447,Kaiserwetter,Bleichenbrücke 11,,53.5518915,9.987933,01103108
2317629227,Fresh Food Factory,Wendenstraße 8-12,20097,53.5468984,10.0257471,01106117
2324912842,Chico Malo,Bahrenfelder Straße 97,22765,53.552396,9.930003,02204213
2335487474,Yoko Sushi,,,53.5486387,9.999351,01101101
2351855942,Huang,Wandsbeker Chaussee 23,22089,53.5654608,10.0366815,05501501
2368201975,McDonalds,,,53.6329201,10.0047918,04412431
2368202021,St. Pauli,,,53.628563,10.0031466,04412431
2368202023,scoom,Flughafenstraße 1-3,22335,53.6331079,10.0062238,04412431
2369030652,Goedeken Frischeshop,Große Elbstraße 141b,22767,53.544591,9.936507,02201202
2373561314,Sense of Taste,Hoheluftchaussee 93,20253,53.5821694,9.9712508,03304316
2378389056,Mr. Wok,Washingtonallee 14a,22111,53.5517761,10.0868171,01111128
2388732503,Call a Pizza,Schiffbeker Weg 29,22111,53.5428479,10.1028153,01112130
2390101799,elbe Kebap House,,,53.5719877,9.8634586,02209221
2397789400,Dominos,,,53.5953029,10.0002074,04405409
2400328472,Dominos,Langenhorner Chaussee 122,22415,53.6430532,10.0131759,04413432
2400335825,Kaya,Krohnstieg 4,22415,53.6497741,10.01612,04413432
2424667488,Brücke 10,,,53.5454327,9.9638381,01104112
2433571122,Amors Pizza,Griegstraße 126,22763,53.5593754,9.9132906,02204212
2446818924,Mina,Wilhelm-Strauß-Weg 1b,21109,53.4978089,10.0066006,01116136
2449688737,Döner Connection,,,53.4647373,9.9642358,07710711
2453934563,Golden Kebab,Stellinger Weg 10,20255,53.5783523,9.9512042,03301302
2453934564,Croque Francais,Stellinger Weg 8,20255,53.5780822,9.9515195,03301302
2471525477,Banks Bistro Levant,,,53.544185,10.0141099,01106115
2476885581,Fischbeisl,Große Elbstraße 131,22767,53.5443526,9.9401874,02201202
2476885582,Fischmarkt Bistro,Große Elbstraße 133,22767,53.5443595,9.9400014,02201202
2476912940,Meeres-Kost,Große Elbstraße 135,22767,53.5444759,9.9382023,02201202
2477660520,CARLOS Sambrosa,Glockengießerwall 8,20095,53.5535331,10.0058977,01105114
2477660521,KFC,,,53.5534462,10.0058496,01105114
2477660522,Sushi Supply,,,53.5534691,10.0057503,01105114
2477660523,Subway,Glockengießerwall 8-10,20095,53.5536062,10.0059142,01105114
2478084914,Mundfein Pizzawerkstatt,Eckhoffplatz 1,22547,53.5912491,9.8740968,02208220
2478084918,mai-mai,,,53.5920869,9.8732909,02208220
2487218790,Sofias,,,53.4504803,9.9885406,07704705
2492741756,"""Pizza e Vino""",Washingtonallee 30,22111,53.5509297,10.0880147,01111128
2494518518,Bereket Döner,,,53.554524,10.0849254,01111129
2496465168,Deniz-Grill,Kandinskyallee 14-18,22115,53.5270428,10.1502981,01112130
2513779614,Smileys Pizza Profis,Bramfelder Chaussee 1,22177,53.5937474,10.0588989,05507515
2518823175,Hammer Döner,,,53.5644104,10.056993,01108122
2541615239,Köz Piazola,,,53.6043723,10.1542673,05518526
2550319321,Kleines Bootshaus,,,53.5411608,9.9923878,01102103
2550381544,Catch of the Day,,,53.5453779,9.9661422,01104112
2552471449,Die Pizzabäckerei,Seumestraße 4,22089,53.5698017,10.0562404,05501504
2558464965,Shankra,Suttnerstraße 44,,53.5603703,9.9485016,02201206
2562094881,Smileys,,,53.6337144,9.9529639,03306318
2562187774,City Döner & Pizza,,,53.6405989,9.9477877,03306318
2569406740,Dominos,Jarrestraße 24,22303,53.5843002,10.0229017,04405411
2590287301,Krox Billstedt,Möllner Landstraße 123,22117,53.5386989,10.1224363,01112130
2599961392,Subway,Gänsemarkt 36,20354,53.5551878,9.9878771,01103108
2603424798,Call a Pizza Hamburg Eppendorf,Offakamp 3,22529,53.5992517,9.9712966,03305317
2610864073,Big Food,Schulterblatt 13,20357,53.5596887,9.9635934,02202207
2610887751,Cao,Schulterblatt 3,20357,53.5594187,9.963735,02202207
2613074917,Kebaba Dein Dönermann,Susannenstraße 10,20357,53.5621051,9.9631568,02202207
2617920023,Asia Unique,Susannenstraße 18,20357,53.5626318,9.9645525,02202207
2621151364,Asia Hoang,Rahlstedter Bahnhofstraße 16,22143,53.6031272,10.1541454,05518526
2622672445,Falafel Factory,Schanzenstraße 101,20357,53.5640363,9.9652495,02202207
2622674696,Schanzen Döner,Schanzenstraße 101,20357,53.5639926,9.9652408,02202207
2641537375,Papa Johns,,,53.5498954,10.0179974,01106116
2652080223,Pizza Max,Billstraße 78,20539,53.5407944,10.0401373,01114132
2652350155,Döner Company,Ottenser Hauptstraße 24,22765,53.55218,9.930517,02204213
2674896616,ALHAYBA,,,53.4603948,9.9803436,07701702
2685072812,Bistro Hoang Mai,Öjendorfer Damm 42,22043,53.5704047,10.1358957,05504512
2691571518,Bizim Dönerci,,,53.5716143,10.0651458,05502505
2709080220,Mamalicious,Max-Brauer-Allee 277,22769,53.5637191,9.9595722,02203208
2729415819,Boberg Döner Haus,,,53.5153075,10.1666309,06601601
2730788178,Sushi Shop,,,53.5572469,10.0107663,01105114
2766336057,Toprak Döner,Hauptstraße 35a,22885,53.5692184,10.1631044,0
2772044880,Ritze Curry,Reeperbahn 136,,53.5497145,9.9594908,01104110
2772081920,ciao bella,,,53.5535325,10.0063022,01105114
2798166023,Roza Grill,Jarrestraße 26,22303,53.5843236,10.0229671,04405411
2805519203,Falafel Pyramides,,,53.5560058,9.9285739,02204211
2820181523,Pizza Smileys,,,53.6055204,9.8746058,02208220
2826998315,Thai Box,Seeveplatz 1,21073,53.4573486,9.9868519,07701702
2842835296,Pizza Max,,,53.4870699,10.2123842,06602602
2851512488,BistrOceaN,Große Elbstraße 139,22767,53.5445662,9.9368553,02201202
2863728156,Big Döner,Klaus-Groth-Straße 1,22926,53.674665,10.2386695,0
2863728160,Go-Asia,Klaus-Groth-Straße 1,22926,53.674671,10.238573,0
2877284021,Bertto`s Pizzamacherei,Breitenfelder Straße 4,20251,53.5840466,9.9703187,04401402
2879058974,Semper Döner,Semperstraße 52,22303,53.5862073,10.017265,04405412
2880453381,Dubara,,,53.5847734,10.0250939,04405411
2883165102,Okay Grill,,,53.5775603,9.9421305,03301303
2887687759,Hi Croque,Osterstraße 79,20259,53.5752848,9.9549077,03301306
2897896647,Le Croque,Gärtnerstraße 86,20253,53.5801991,9.9640779,03304316
2906123531,Perfect Pizza,,,53.5936363,9.9888709,04402404
2942394099,Asia Quick,Wandsbeker Chaussee 92,22089,53.5665684,10.041519,05501501
2981804757,Sushi House,Fuhlsbüttler Straße 157,22305,53.5922243,10.0439003,04410427
3034379337,Salam City,Rathausstraße 12,20095,53.5498904,9.9953241,01101102
3045888722,Crown Pizza,,,53.5164214,9.9931622,01116137
3062832086,Mister Croque,Müggenkampstraße 8,20257,53.5797362,9.9450031,03301301
3062870346,Trucs,,,53.5701,9.9829,03302311
3073304756,Pizza Max,Lokstedter Weg 45,20251,53.5967715,9.9803082,04402405
3083253801,Dominos,,,53.5795297,9.9461624,03301303
3104007329,McDonalds,,,53.5518327,10.0027969,01101101
3106054547,The Sallis Kebab,,,53.5681322,9.9696411,03301309
3136541829,Pizza Max,Stein-Hardenberg-Straße 83,22045,53.5882703,10.1238775,05505513
3139335711,Mama Kumpir,Langenfelder Damm 90,22525,53.5829705,9.9350141,03309321
3139335712,Asia Wok,,,53.5811319,9.9377286,03309321
3149807596,Hayatis Küche,,,53.552482,10.0201863,01105113
3149861985,döner time,,,53.5530006,10.0224631,01105113
3149861986,Bistro Vegetario,,,53.5528762,10.0216487,01105113
3166367896,SoulKebab,,,53.5999144,9.994844,04405408
3177331261,Gazi Antep,Rübekamp 8,25421,53.6609643,9.7944042,0
3183008171,Özis Kabab,Müggenkampstraße 52,20257,53.5801615,9.9420534,03301301
3207351905,Batman,,,53.5542197,10.0143459,01105114
3211658070,Premium Food,,21075,53.4645104,9.9653973,07710711
3232102607,Oster Grill,,,53.576246,9.949663,03301303
3236967057,Dominos,,,53.5701661,9.8645474,02209221
3265978815,Soul Kebap,,,53.5564894,9.9668,01104111
3267595893,Nuggis Elbkate,,,53.5435509,9.9148612,02204214
3275405554,emek,Schanzenstraße 115,20357,53.5646073,9.9654139,02202207
3332815456,dean&david,Ballindamm 40,20095,53.5516583,9.9948263,01101101
3334305815,Urfa King,,,53.465005,9.7938262,0
3371656122,Smash Burger by Flame,Eidelstedter Platz 1,22523,53.6076724,9.9046544,03308320
3377883493,Jim Block,,,53.55149,9.939276,02201203
3386527854,Mundfein Pizzawerkstatt,Spaldingstraße 47,20097,53.5483541,10.0128396,01106115
3395909836,burrico,Brandstwiete 42,,53.5469621,9.9967101,01101102
3413287149,Ezzos Pizza,,,53.5832726,10.0675253,04409425
3420037762,BAN BAB KEBABKLUB,Marktstraße 130,20357,53.5585215,9.9726826,01104109
3439023961,Moon Food Seevetal,An den Höfen 24,21217,53.4222257,10.0244046,0
3450868948,Konak Kebap,,,53.6052945,10.1561708,05518526
3465126497,Nudel Box,,,53.6104026,10.0582442,05508516
3466341179,Hanan,,,53.6113953,10.0577551,05508516
3507175020,Doctor Fruit,Martinistraße 52,20251,53.590399,9.9744933,04402403
3521363822,Ayintap Dürüm,,,53.5153021,9.9935449,01116137
3531430825,Din Hau,,,53.5506765,9.9405794,02201203
3570096529,Bok,Wandsbeker Chaussee 114,22089,53.5672221,10.0456484,05501503
3603697377,Tiki Poke Bowl,,,53.5441112,10.0254358,01106116
3605041086,Dulsberg Kebap-Haus,,,53.5816813,10.0650461,04409425
3618244699,Dönerei,,,53.5337834,10.0387819,01114133
3623122522,Call a Pizza,Küchgarten 18,21073,53.4622068,9.9831439,07701702
3636888917,Shuttle-Imbiss,,,53.5902042,9.9182797,03309321
3640279711,Mundfein - Pizzawerksatt,Bramfelder Chaussee 296,22177,53.6172435,10.0783447,05507515
3640934395,Crazy Croque,Rahlstedter Straße 123,22149,53.5984179,10.1537578,05518526
3647740298,Recall,,,53.4693227,9.854194,07714715
3648567931,Fleet Grill House,,,53.4895969,10.1589181,06614615
3652520370,IMBISS,,,53.6807657,10.1916432,0
3652562520,Kokoro,Wandsbeker Chaussee 171,22089,53.568112,10.0479099,05501502
3656262829,As Urfa,,,53.5536216,10.0120303,01105114
3656263640,mai-mai,,,53.5520225,10.0047487,01101101
3656732789,Fisch & So,,,53.5440424,9.9419257,02201202
3656847895,Döner Time,Große Bergstraße 235,22767,53.5519941,9.9410545,02201203
3657153265,anatolian street food,Bahrenfelder Straße 205,22765,53.5556974,9.928318,02204213
3657153266,LeGosht,Bahrenfelder Straße 185,22765,53.555014,9.9284294,02204213
3657219794,Croquewerk,,,53.5912839,10.0419675,04410427
3658852292,Asia Mai,,,53.420109,10.0211334,0
3659407967,Mönkeys,,,53.5521113,10.0046965,01101101
3663810720,Grill Center,,,53.5794445,9.9454352,03301301
3667398972,Burg Döner,,,53.5559528,10.0421292,01108121
3671923077,Won Chikin,Osterstraße 164,20255,53.578583,9.9470807,03301303
3671923084,San Burrito,Osterstraße 165,20255,53.5779147,9.9471191,03301303
3672023955,Cross Sushi,Hellkamp 22,,53.5776193,9.9481168,03301303
3672023972,Mission Pizza,Hellkamp 23,,53.578041,9.947933,03301303
3672330493,Bunker Döner,,,53.5574676,9.9700577,01104109
3672341962,Bingöl Döner,,,53.5502094,9.9675381,01104111
3672407253,McDonalds,Reeperbahn 59,,53.5498252,9.9635922,01104111
3673269248,La Famille,,,53.558153,10.0120569,01105113
3673962553,Bey Kebab,,,53.5932511,10.0524289,04410426
3686157717,Fresh & Easy,Fuhlsbüttler Straße 153,22305,53.5920335,10.043901,04410427
3696653188,Supper Club,Isekai 13,20249,53.5850767,9.9934333,03303314
3703816760,Gepellos Pizza-Manufaktur,Langenhorner Chaussee 391,22419,53.6601542,10.002543,04413432
3710974982,Istanbul Kebabhaus,Kleekamp 10,22339,53.6326093,10.0260714,04412431
3713145339,Ika Sushi und Wok,,,53.48557,10.2168913,06602603
3717549368,burgerme,Horner Landstraße 193a,22111,53.5497876,10.0802955,01111128
3718061045,Yoko Sushi,Wandsbeker Chaussee 39,22089,53.5664727,10.0389239,05501501
3726686318,Ankerplatz,,,53.5451572,9.9697509,01104112
3726686323,Underdocks Fischbude,,,53.5451924,9.9693055,01104112
3727886207,Futterluke,,,53.5453191,9.9664686,01104112
3727886209,Fischbrötchen König,,,53.5453158,9.9671677,01104112
3727886213,Freibeuter,,,53.5452281,9.9682413,01104112
3727886214,Plopn Snack,,,53.5454035,9.9649681,01104112
3729715033,Hazal Kebab,,,53.5486251,10.0135913,01106115
3733640885,Urfam Lahmacun und Pizza Salon,Möllner Landstraße 137a,22117,53.5389006,10.1237663,01112130
3740637268,Donutman,,,53.5443732,9.9773094,01103105
3752456973,the Burger Factory,,,53.5805466,10.0424985,04408423
3760887318,Hot Pizza,,,53.5793186,10.0610321,04409424
3761686211,Belachan Express,Hoheluftchaussee 15,20253,53.5792085,9.9747247,03304315
3761686212,Pink Bambus,Hoheluftchaussee 91,20253,53.5820186,9.9714063,03304316
3761799919,Burgerme,,,53.5826102,10.0463468,04408423
3763096356,Pizza Max,,,53.5697537,9.9748368,03301309
3763222859,Health Kitchen - N55,,,53.5935363,9.9736498,04402403
3767201585,Köz Antep,Clemens-Schultz-Straße 26,20359,53.5521641,9.9640589,01104111
3767272757,Öz Antep,,,53.5522843,9.9631997,01104111
3767412936,Asia Imbiss Kim,Hein-Hoyer-Straße 78,,53.5537836,9.9633925,01104111
3768215917,Asia Express Food,,,53.5587985,9.9635488,02202207
3770365659,Alster Grill-Eck,Alsterdorfer Straße 90,22299,53.5999453,9.9968887,04405408
3770365660,Alster Sushi,Alsterdorfer Straße 88,22299,53.5997524,9.9969571,04405408
3779734545,Tawan Daeng Imbiss und Karaoke Bar,,,53.5481164,9.9631813,01104112
3779755173,Döner Factory,Reeperbahn 87,,53.5491694,9.9619057,01104112
3779755174,Lukullus,,,53.5493103,9.9622216,01104112
3791290102,Yummies,,,53.5553535,10.0153886,01105114
3804677828,Soul Kebab,Schanzenstraße 115,,53.5645304,9.9653944,02202207
3804677830,Falafel Kimo,Schanzenstraße 111,20357,53.5644666,9.965373,02202207
3805141791,Deniz Imbiß,Talstraße 25,20359,53.5506635,9.9600111,01104110
3809132618,Melis Fischbistro,Fruchtallee 128,20259,53.5729306,9.9503294,03301306
3840023568,Viva L´Italia,Finkenwerder Norderdeich 71,21129,53.5335275,9.8735803,01120141
3859604437,WilliamsBurger,,,53.5159458,9.9876053,01116137
3872415835,Gepellos Pizza-Manufaktur,Eppendorfer Weg 138,,53.5778079,9.9638972,03301308
3889457560,Delal Döner,Elbgaustraße 103,22523,53.6031629,9.8926986,03308320
3922601312,Ali Babas Kitchen,,,53.5052636,9.9861891,01116137
3928670186,Harput Döner,Hammer Landstraße 232,20537,53.55376,10.0653189,01108125
3934705225,Kaya Feinkost,,,53.5629487,9.9318546,02205215
3939879066,Kleine Haie Grosse Fische,Querstraße 4,20359,53.5489929,9.9601411,01104112
3942090519,Chaloos,Schmuggelstieg 41,22419,53.6804063,10.0001904,04413432
3942110721,Kapadokya Döner,Am Tarpenufer 2b,22848,53.6817074,9.9987589,0
3942165409,Croquerie Norderstedt,Ohechaussee 8,22848,53.6822355,9.9970408,0
3943681441,Kardelen,,,53.5507189,9.9824506,01103107
3947854424,Kebab-House,,,53.5643297,9.9264934,02205215
3954261597,Kebab Lounge,Langenhorner Chaussee 662,22419,53.6783005,10.001015,04413432
3969026999,Burger Legends,Kieler Straße 566,22525,53.6000871,9.9169028,03309321
3978869611,Volkan´s Grillhaus,Rennbahnstraße 38c,22111,53.5538993,10.0851709,01111129
3997153643,Kebo Döner,,,53.5792471,10.0416037,04408423
4007423405,Asia Hip,Friedensallee 270,,53.5592019,9.9121391,02204212
4018363343,Peace Love & Burgers,Manshardtstraße 113i,22119,53.5598972,10.1072906,01111129
4033190807,Subway,,,53.4895616,10.2067093,06602602
4060349450,Bistro Gesundheits- und Sportpark Norderstedt,,,53.6887705,9.9834303,0
4062889584,Çiğköftem,,,53.4615612,9.9808036,07701702
4066354168,Call a Pizza,Edith-Stein-Platz 1,21035,53.4867937,10.1799092,06614615
4067286736,Asia Linh Chi,Ohechaussee 1a,22848,53.6822998,9.998038,0
4076467442,Dominos,Lübecker Straße 115,22087,53.5628496,10.0327014,04407417
4083948699,burgerme,,,53.6229574,10.1400902,05518526
4117162227,BU Kochlounge,Dieselstraße 6,,53.5930522,10.0555913,04410426
4143599830,,,,53.5986503,9.9405722,03309321
4144366167,Nadis Imbiss,,,53.4532246,9.9876214,07701702
4144382812,The Kumpir,Moorstraße 5,21073,53.4569764,9.9858774,07701702
4144382814,Zaza King,Moorstraße 7,21073,53.4571149,9.9859051,07701702
4144383877,Monsieur Croque,Wilstorfer Straße 96,21073,53.4537977,9.9875947,07701702
4144447594,Dominos,,,53.4563005,9.985565,07701702
4144506845,Özlem Köfte,Wilstorfer Straße 72,21073,53.4553121,9.9870501,07701702
4144506848,Miss Tantuni & Grill,Wilstorfer Straße 68,21073,53.4555147,9.9868545,07701702
4144993075,,Seeveplatz 1,21073,53.4576383,9.9873224,07701702
4150124390,Bosporus Lounge,Hannoversche Straße 86,21079,53.4563888,9.9878955,07701702
4150124393,Pizza Hut Express,Hannoversche Straße 86,21079,53.4562284,9.9878317,07701702
4150124397,Mr. Phung,Hannoversche Straße 86,21079,53.4564679,9.9879255,07701702
4150124398,Pommesfreunde,Hannoversche Straße 86,21079,53.4565502,9.9879564,07701702
4150124399,Burger Bro,Hannoversche Straße 86,21079,53.4561395,9.9877951,07701702
4150195990,Ciao Bella,Hannoversche Straße 86,21079,53.4566034,9.9876532,07701702
4150195993,Manju,Hannoversche Straße 86,21079,53.4565265,9.9876234,07701702
4150195997,Subway,Hannoversche Straße 86,21079,53.4565807,9.9870109,07701702
4150196000,Laziz Fried Chicken,Hannoversche Straße 86,21079,53.45633,9.9875573,07701702
4150196001,Zenthai,Hannoversche Straße 86,21079,53.4562789,9.9875364,07701702
4154443584,City Döner,Hamburger Straße 108,22949,53.6784269,10.1459675,0
4155915054,McDonalds,Hannoversche Straße 86,21079,53.4564555,9.9875227,07701702
4155915056,Mr. Clou,Hannoversche Straße 86,21079,53.4565345,9.986994,07701702
4155915057,Nordsee,Hannoversche Straße 86,21079,53.4564088,9.9872199,07701702
4159558243,Call a Pizza,,,53.6816801,9.9911122,0
4176772665,Miss Sofie,Am Kaiserkai 59c,20457,53.5408187,9.9867202,01102103
4194620089,Boston Burger & more,Eppendorfer Baum 22,20249,53.5834568,9.9850294,03303314
4194974190,"Die ""kleine"" Crêperie",Eppendorfer Baum 22b,,53.5835818,9.9846149,03303314
4200494589,GOSCH Sylt,,,53.6319756,10.0053549,04412431
4228278602,,,,53.5958677,9.9370963,03309321
4228278604,,,,53.5962317,9.9354804,03309321
4228352633,,,,53.596758,9.9368065,03309321
4230927985,Firat Kebap,Weidestraße 85,22083,53.5798662,10.0311373,04408419
4241771062,Lime Streetfood,,,53.5488725,9.9623722,01104112
4242522094,Ready Pizza,,,53.5764867,9.8585829,02209221
4248082207,Mö Grill,,,53.5510333,10.001569,01101101
4252307687,Mini Golf,,,53.5527304,9.9725999,01103106
4278761291,Flame & Bun,,,53.5631683,10.0330107,04407417
4288759465,Basak,,,53.497917,10.009768,01116136
4288759763,Mai Mai,,,53.4979137,10.0098669,01116136
4288764930,Burger Vision,Neuenfelder Straße 31,21109,53.4970123,10.0042414,01116137
4290626222,Cruisers Food,Siebentunnelweg 14,25469,53.6151383,9.8649843,0
4316698128,Asia Man,,,53.5846633,10.1334964,05504512
4318841078,Cafesito,,,53.6076029,9.9023332,03308320
4362103495,Burger Factory,Stefan-Zweig-Straße 1,22175,53.6256168,10.1141478,05507515
4364767514,Grill @ Döner,,,53.5333417,9.876757,01120141
4365396892,Chen,Große Bäckerstraße 8,20095,53.5532766,10.0022054,01101101
4367753147,ANHU Asia,Möllner Landstraße 3,22111,53.5398147,10.1055898,01112130
4380248484,Harpurt Kebap,,,53.6844719,9.9852681,0
4399732312,HBB Bistro,,,53.6209744,10.0322237,04411430
4404877576,Hokkaido Sushi,Nienstedtener Straße 13,22609,53.5549652,9.8444836,02210222
4421175087,Cheat day Döner,Hoheluftchaussee 45,,53.5804005,9.9733624,03304315
4425721080,Salat-Perle,,,53.5955223,9.9982683,04405409
4430817931,,Morsumer Weg 8,22117,53.5398792,10.140736,01112130
4436620986,little Snacks & more,,,53.5716239,9.9789027,03302311
4438798925,Dominos,Grindelallee 182,20144,53.5716839,9.9788416,03302311
4442873189,Mizu - Asia food & sushi,Lorichsstraße 44,22307,53.6040276,10.0428625,04410429
4451896303,burgerme,Luruper Hauptstraße 250,22547,53.5978515,9.8626346,02208220
4453295838,burger BRO,Berliner Allee 38-44a,22850,53.6856593,9.9867949,0
4457764247,China-Thai Bistro,,,53.5717153,9.9774392,03303313
4459064732,Sert Grill Imbiss,,,53.5773549,10.0202671,04408418
4461727409,Berlin Döner,Sophienstraße 2b,21465,53.5080468,10.2511967,0
4471905301,GrillMill,Sonnenweg 15,22045,53.588445,10.1238578,05505513
4486541341,Arnoldis Food Company,Elmshorner Straße 68-72,25421,53.6697719,9.7945726,0
4524562369,Asiahung,Glockengießerwall 8,20095,53.5536301,10.0060601,01105114
4524564643,Manju,Glockengießerwall 8,20095,53.5536533,10.0062022,01105114
4525371821,Esmeyeli Döner,,,53.6304391,10.0145736,04412431
4557867747,Jim Block,,,53.6489779,10.0158669,04413432
4558150689,Miss Urfa,,,53.4849587,10.0192357,01116136
4565806641,3hs Burger & Chicken,Fuhlsbüttler Straße 222,22307,53.595458,10.0439774,04410428
4580804027,Smileys,Thadenstraße 162A,22767,53.5562609,9.9512013,02201206
4598036584,Kiosk im Sommerbad,,,53.4498471,10.2960543,06604605
4614639847,4 Zeiten,Pappelallee 18,22089,53.5666874,10.0586379,05501504
4673281892,Dominos,,,53.4969735,10.0038322,01116137
4692796439,Danmark-Snack,Reeperbahn 122,,53.5497101,9.9598793,01104110
4694258592,Asia Imbiss Saigon,,,53.5484982,9.9595586,01104112
4717146468,Bombay Bistro,Horner Landstraße 195,22111,53.5497541,10.0803304,01111128
4734859753,Gomo Grill,,,53.6304719,10.014589,04412431
4756650075,"Sucki, the taste of asia",,,53.5160099,9.9876158,01116137
4761774636,Smileys,Wandsbeker Chaussee 199,22089,53.5686027,10.0510168,05501502
4761780354,Idol Döner,Wandsbeker Chaussee 271,22089,53.5693843,10.05529,05501504
4767733534,Dominos,,,53.5743686,10.0227114,04408418
4767841410,Moin Moin Salatbar,,,53.549529,9.9836525,01103107
4781706238,asiahub,Helmut-Steidl-Platz 3-5,,53.6048567,10.15498,05518526
4796670607,Pizza Max,Louise-Schroeder-Straße 27,22767,53.5511478,9.9500223,02201205
4807206290,Sultans,Fuhlsbüttler Straße 91,22305,53.5873843,10.0458595,04410427
4809323822,Burger Heroes,Wandsbeker Marktstraße 20-22,22041,53.5706393,10.0623199,05503510
4813756130,burgerme,Am Stadtrand 2,22047,53.5849028,10.1005466,05505513
4838840054,Nour Pizza & More,,,53.6237427,10.0137979,04412431
4913709374,OK-Pizza,,,53.6752066,10.2390156,0
4935703064,Bistro Schowittchen,Bahnhofstraße 62,21629,53.4697725,9.791305,0
4951486322,Chopan Kebab,,,53.5536238,10.0128059,01105114
4958859512,Trafo im Volkspark,,,53.5839153,9.9015381,02205217
5000205054,Fritz Burger,Berner Heerweg 372a,22159,53.6268306,10.139099,05506514
5027172960,green lovers,,,53.5412529,9.9867021,01102103
5040711924,Schanzen Asia,,,53.5572874,9.9654532,02202207
5048951499,Berg Grill-Imbiss,,,53.5506174,9.9614515,01104111
5052031932,bonjour Kumpir,Billstedter Hauptstraße 5,22111,53.5401667,10.1041386,01112130
5056117587,Soul Kebab,,,53.4890091,10.2076405,06602602
5113281071,Futterkrippe,,,53.4423853,9.8854936,0
5130988370,Capitol,,,53.5423694,10.1070849,01112130
5131084026,Burger King,,,53.5417353,10.1060681,01112130
5131084029,Asiahung,Billstedter Platz 29,22111,53.5418165,10.1061271,01112130
5132881422,La Bella,,,53.5434822,9.9931229,01102103
5132881423,Lees Sushi Bar,,,53.543474,9.9930055,01102103
5132892822,Chutney,,,53.5436134,9.9928834,01102103
5132901821,Momo,,,53.5436226,9.9930283,01102103
5132903721,Modöner,,,53.5436188,9.9929694,01102103
5158680622,Urfam,,,53.5710604,10.0621836,05502505
5186803222,Antep Lahmacun Döner & mehr,,,53.5540896,10.0860667,01111129
5198472122,Sushi for Friends,,,53.5813982,9.9339442,03309321
5201529759,Fischbrötchen,,,53.5424462,9.9898875,01102103
5201877442,Rödings Backshop,,,53.5478608,9.9870348,01101102
5245788691,Dominos,,,53.4951584,10.2055026,06601601
5245788692,Soul Sushi,,,53.4948753,10.2057889,06601601
5248147854,Laziz Kumpir & Falafel,Hannoversche Straße 86,21079,53.4563022,9.987548,07701702
5250651263,Brothers,,,53.488148,10.1811822,06602602
5270683656,yoko Sushi,Kuehnstraße 93,22045,53.5809664,10.1247919,05505513
5282350253,Miss Kebap,Mendelstraße 26b,21031,53.5088308,10.1861228,06601601
5282350256,Masala,Mendelstraße 26d,21031,53.5088301,10.1862963,06601601
5344562974,Dö Back Berne,,,53.6265839,10.1387938,05506514
5353386026,Cafeteria,Notkestraße 85,22607,53.5751085,9.8770383,02205217
5385223129,Bistro,,,53.6504959,10.1659428,05517525
5385223799,,,,53.624457,9.9371751,03306318
5407725617,Bistro,,,53.5543796,9.9514816,02201205
5407730465,Elvy,,,53.5896577,9.9905393,04402404
5417909040,Campus Döner,Grindelallee 88,20146,53.5669472,9.9813713,03302312
5456469421,Vietstreet,,,53.6877528,10.0392265,0
5480099724,Sushi Shop,,,53.5906411,9.9864969,04402403
5486499535,Schmückis Trucker Treff,Hammer Deich 117,20537,53.5459243,10.0476842,01108127
5514319757,NDR-Kantine,,,53.5978694,9.9474385,03305317
5517182850,Smileys,Schiffbeker Weg 37,22111,53.5433516,10.1031778,01112130
5548325893,Mundfein,,,53.4912364,10.2542621,0
5553180408,Call a Pizza,Sievekingdamm 57,20535,53.5607533,10.0521978,01108122
5557821022,Maui Poke Guys,Karolinenstraße 30,20357,53.5598376,9.9752575,01104109
5586448664,My House,Bahrenfelder Straße 224,22765,53.5557667,9.9285814,02204211
5592176025,Beyoglu,Großneumarkt 38,20459,53.5499853,9.9796353,01103106
5635849433,Grill-Imbiss,,,53.5968555,10.0212783,04405409
5646713559,Anhu Asia,Am AKKU 9,22885,53.5666857,10.1640674,0
5648780384,Hatay Dürüm Fried Chicken,,,53.4650222,9.9624188,07710711
5667807955,Mundfein,Steinbeker Hauptstraße 79,22117,53.5301482,10.1262256,01112130
5670302676,Hot Dogs,,,53.5584258,10.0124171,01105113
5680080600,Smileys,Eißendorfer Straße 161a,21073,53.456611,9.9597208,07709710
5709264640,Siesta,,22850,53.68921,10.0001147,0
5709704187,Kaya Feinkost,,,53.4705358,9.8527776,07714715
5726047966,China Imbiss Wu,Horner Landstraße 204,22111,53.5493966,10.0802886,01111128
5730622104,Kebab,,,53.4894809,10.1814166,06602602
5744159025,Hardal,,,53.541771,10.1060919,01112130
5744302240,Raj Mahal,Friedrich-Ebert-Damm 48,22047,53.584804,10.0796539,05502506
5752091362,Frittenwerk,,,53.5513363,9.9944859,01101102
5756750137,Sirali Kebab,Lüneburger Straße 20,21073,53.4585246,9.9831938,07701702
5769013674,B+B Asia Bistro,Waldweg 8,22393,53.6533474,10.1146397,05510518
5774762640,Sushii Harburg,,,53.4618496,9.9837877,07701702
5775159067,Kohldampf,Weidestraße 85,22083,53.5798867,10.0309372,04408419
5783045584,KEBABHAUS,,,53.532457,9.8800729,01120141
5820808964,Europa Food House,Langenhorner Chaussee 370,22419,53.6591125,10.0037029,04413432
5858591546,Gyrosland,Fuhlsbüttler Straße 412,22309,53.6030467,10.0409302,04410429
5907994566,Sai-Gon Nhi,Sportallee 41,22335,53.6155796,10.0007826,04403406
5919357814,Mai-Mai,,,53.4702703,9.8527688,07714715
5922810713,VITAMINGO,Sachsenstraße 6,20097,53.5459197,10.0262627,01106117
6003242670,Asiahung,,,53.5709141,10.0276528,04408418
6055863153,Frühling Bistro,Sportallee 60,22335,53.6173297,10.000927,04403406
6055958587,Pizza Max,Möllner Landstraße 154,22117,53.5387611,10.1291374,01112130
6061162953,Fritz Burger,Große Straße 43,22926,53.6735994,10.2396703,0
6113706306,Berlin Döner Kiosk,,,53.6067266,10.0556332,05508516
6125050175,Miss Kumpir,,,53.6500289,10.0124552,04413432
6131339763,Schnitzerella,Hohenesch 1,22765,53.554679,9.9291273,02204213
6175011618,Asia Pham,,,53.5807785,9.7952368,02213226
6182226991,Heidberg Döner,,,53.6747185,10.0268939,04413432
6202085918,Moin Kumpir,,,53.5571654,10.0112914,01105114
6219102955,Köz Ocakbasi,,,53.552795,10.0109777,01105114
6225128167,Nordsee,,,53.6541557,10.0912388,05511519
6236925123,Grill-Pavillon,Schnackenburgallee 119,22525,53.5890294,9.904018,03308320
6268145023,Dominos,Bremer Straße 44,21073,53.4552741,9.9766177,07709710
6310793486,Dominos,Meiendorfer Straße 109,22145,53.6238024,10.1671352,05518526
6314466841,Bizim Döner,Wiesenhöfen 2,22359,53.6487152,10.167325,05517525
6338876453,McDonalds,,,53.4598637,9.9820326,07701702
6391502385,,Friedrich-Ebert-Damm 83,,53.5866736,10.086556,05502509
6415782352,Efess Grill,,,53.6737487,10.2399974,0
6416284292,Shawarma Marina,,,53.5543657,10.0124831,01105114
6434375473,Köz Der Simo,,,53.5363896,10.0333148,01114133
6441170872,Berlin Döner,Sieker Landstraße 118,22927,53.6538502,10.2610258,0
6445009725,El Coco,,,53.5434674,9.9929109,01102103
6456459953,Berne Kebap Haus,,,53.625322,10.1388133,05518526
6460938659,Babanin Yeri,,,53.5530394,9.9582267,01104110
6461019256,Haidaris Food service,,,53.4509648,9.9873744,07704705
6473979567,,,,53.4075942,9.8847856,0
6505452906,Croque Star,Fuhlsbüttler Straße 104,22305,53.5881723,10.0465138,04410427
6552178718,Imbiss bei Louis,,,53.5450915,10.0289815,01106117
6577371638,Döner by Flame,Eidelstedter Platz 1,22523,53.6076194,9.9045745,03308320
6682748232,Bolly Food,,,53.5442456,10.0253218,01106116
6738090562,Köz Ocakbasi,,,53.4612561,9.9783681,07701701
6775289706,Ach Der Deniz,Rehrstieg 30C,21147,53.4749076,9.8757144,07713714
6783756106,Dominos,Bergedorfer Straße 150,21029,53.4859714,10.2143994,06602602
6789291578,Smileys,Osterstraße 100,20259,53.5760576,9.9530649,03301305
6790451637,IKEA Restaurant,Große Bergstraße 164,22767,53.5515892,9.9421353,02201203
6799451725,Falafel Bistro,,,53.6207109,10.1018972,05507515
6811015259,Brammibals Donuts,Neuer Kamp 3,20359,53.5572801,9.9652555,02202207
6812974279,Burger mit Glück,,,53.4616292,9.9787831,07701701
6814702000,Fähre 7,,,53.545465,9.9708105,01104112
6841205595,Dominos,Singapurstraße 4,20457,53.5430742,9.9963991,01102103
6855146285,Grill Imbiss,,,53.5960452,9.9134161,03309321
6872035862,Wurst & Durst,,,53.5536497,10.0065375,01105114
6872035863,Punto Ernesto,,,53.5535682,10.006525,01105114
6872035864,Sallis Kebab Grill,Glockengießerwall 8,20095,53.5535891,10.0064316,01105114
6872035865,Sahha,,,53.5535859,10.0062705,01105114
6872035866,Mr. CLOU,,,53.5535046,10.0062154,01105114
6898113534,Borstel Kebab,Borsteler Chaussee 113,22453,53.6066222,9.9795277,04403406
6898113536,Croque Factory Groß Borstel,Borsteler Chaussee 103,22453,53.6066508,9.9794463,04403406
6945123098,KFC,Moorstraße 1,21073,53.4569155,9.9853746,07701702
6981336174,Smileys,Borsteler Chaussee 197,22453,53.6099185,9.974362,04403406
6981345514,China Express Zixin,Borsteler Chaussee 179,22453,53.609722,9.9745525,04403406
6984611712,Burger Lounge,,,53.5995476,9.9943684,04405408
7016937117,dean&david,,,53.5537604,10.0027588,01101101
7045159480,Mr. Phung,,,53.5510558,9.9944769,01101102
7045159481,Bo Bo Asian Fusion,,,53.5512003,9.9946197,01101102
7045159482,La pasta Franco,,,53.5511159,9.9945902,01101102
7045159483,Franco Due,,,53.5512334,9.9944864,01101102
7047509218,Hokkaido Sushi,,,53.5550231,9.844385,02210222
7063883233,Dominos,Spaldingstraße 110,20097,53.5494855,10.0187082,01106116
7088243950,Dominos,Käkenflur 14b,22419,53.6719248,10.0002853,04413432
7099441009,Wenden Kebap,,,53.5500291,10.0362098,01106118
7114488798,Saigon Quan,Borsteler Chaussee 90,22453,53.6064752,9.9807749,04403406
7114589734,burgerme Hamburg Groß Borstel,Borsteler Chaussee 114,22453,53.6071581,9.9793454,04403406
7126306833,Thai foo,,,53.6044801,10.1582203,05518526
7154933806,My Kebaps,,,53.581533,10.0130121,04405413
7212421662,Steak House,,,53.5920101,9.9357954,03309321
7220739941,Gepellos Pizza,,,53.503864,10.2121765,06601601
7242008401,Asia Top,Bahrenfelder Straße 330,,53.5592608,9.9280519,02204211
7299174692,Döner Treff,,,53.4604005,9.9784615,07701701
7299331163,Viet-Thai Gourmet,,,53.4611965,9.9823353,07701702
7299738009,Dubara,,,53.4611704,9.9823443,07701702
7411794411,Manavgat,,,53.7126219,9.9931893,0
7465859249,Dominos,,,53.5080737,10.2513523,0
7530815401,McDonalds,,,53.6930706,10.3206057,0
7623149463,burgerme,,,53.4643961,9.9786355,07701701
7640703021,Smileys Pizza,,,53.4704504,9.8235919,07714715
7644359502,Next Level Grill,Nordalbingerweg 17a,22455,53.6402803,9.9481764,03306318
7704999839,Kumpir & Döner,,,53.5737067,10.0714874,05502507
7716707985,Imbiss Eck,,,53.5453044,9.9713564,01104112
7727053109,Imbiss am Nedderfeld,Nedderfeld 15,22529,53.6036043,9.9665774,03305317
7741494998,Tikka Biryani,Methfesselstraße 67,,53.5804096,9.9466923,03301301
7745467158,Asia Quick,,,53.6030678,9.9108582,03308320
7805911992,Tadim Urfa,,,53.5146894,9.9874302,01116137
7843988275,Happy Donazz,,,53.5730769,10.0663147,05502505
7855436558,VietWOK,,,53.6490566,10.0137462,04413432
7855436559,Kaya,,,53.6490446,10.0135974,04413432
7896667185,Star Bahrenfelder Grillhaus,Bahrenfelder Chaussee 53,22761,53.5653357,9.9120408,02205216
7923632033,Pizza Hot Chili,Eißendorfer Straße 130,21073,53.4566127,9.9583799,07709710
7996825330,Emilia Ristorante,,,53.6540063,10.0912736,05511519
8000485088,Croque & Crepes,,,53.6212089,10.0820884,05507515
8000485089,Mr. Asia,,,53.6213353,10.0822387,05507515
8002695777,Yoko Sushi,,,53.6205058,10.0822043,05507515
8002695781,Dominos,Bramfelder Chaussee 340,22175,53.6199274,10.0817,05507515
8004730460,Bobby & Fritz Currywurst & Pommes,,,53.6002838,9.9774723,04402405
8042541560,Berek Döner,Edith-Stein-Platz 3,21035,53.48688,10.1800272,06614615
8044778669,,,,53.7047761,10.0076544,0
8068923455,asia hub,Große Bergstraße 177,22767,53.5516767,9.9459198,02201204
8069169089,Fischbrötchen Manufaktur,,,53.546082,9.9706933,01103105
8089055944,Burger bro,Billstedter Platz 25,22111,53.541425,10.1060509,01112130
8213628405,Blondos Pizza Delivery,Alsterdorfer Straße 263,22297,53.6077909,10.0065337,04404407
8334928135,La Tua Pizza,Rotkäppchenweg 3,22119,53.5619833,10.1186539,01112130
8412006569,The Burger Brothers,Kieler Straße 185,25474,53.6736704,9.9035655,0
8422552389,NKD Pizza,,,53.5882639,9.953063,03305317
8560473188,Sel Chicken,Billstedter Hauptstraße 51,22111,53.5401152,10.1025443,01112130
8564430295,Yoko Sushi,,,53.6028994,9.9111176,03308320
8566216788,Sel Kebaps,Billstedter Hauptstraße 51,22111,53.5400853,10.1026175,01112130
8690366866,Affenfelsen Niendorf,Paul-Sorge-Straße 142b,22455,53.6342839,9.9534975,03306318
8824405807,Donr,,,53.5714713,10.0642322,05502505
8824431071,Subway,Wandsbeker Marktstraße 8,22041,53.570547,10.0617213,05503510
8826266911,Dominos,Kieler Straße 67,25451,53.7291262,9.8974285,0
8830474048,Kebab Dream,Helmut-Steidl-Platz 1,22143,53.6049353,10.1551192,05518526
8881094765,Djengos Döner,,,53.5583143,9.9491598,02201204
8888340217,Fisch Pauli,Marktstraße 21a,20357,53.5583344,9.9728075,01104109
8931236653,Döner Point,,21107,53.5151162,9.9871037,01116137
8933221684,Imbiss bei Schorsch,,,53.5511658,9.994347,01101102
8956039602,Döner Welt Getränke Welt,Reeperbahn 103,20359,53.5492036,9.9610698,01104112
8956039603,Burger Heroes,Reeperbahn 99,20359,53.5491961,9.9612978,01104112
8956039604,Hood Burger × Döner,Reeperbahn 95,20359,53.5491891,9.9615092,01104112
8957825402,JAYJAYS,,,53.5941761,9.9971616,04405409
8997232044,Döner 58,,22523,53.6161409,9.9052297,03308320
9025877145,Papa Johns,,,53.5477797,9.9291378,02204214
9041974663,Subway,,,53.57023,9.8623876,02209221
9077550914,Kiez Döner,,,53.5499031,9.9579594,01104110
9155601436,Croque Lounge - Hamburg,Paul-Sorge-Straße 5,22459,53.6222496,9.9511147,03306318
9171671719,Kings Döner,Lohkampstraße 11,22523,53.6085635,9.9026239,03308320
9221058618,masra Döner & Backshop,,,53.5502046,10.0779971,01111128
9223580762,China Service & Sushi Zuhause,,,53.5137495,9.9872835,01116137
9236605393,Teas,,,53.5516934,9.9956013,01101101
9245829387,Bagel Pösel,Mittelweg 25a,,53.567989,9.9953003,03302312
9247124097,Arin Döner,Dingstätte 11,25421,53.6610233,9.7985035,0
9248502723,Asia Pham,Fahltskamp 8a,25421,53.660467,9.8009102,0
9248502726,Deal Döner,Fahltskamp 1a,25421,53.6609077,9.8000613,0
9254550192,Soul Sushi,,,53.5931316,9.9279385,03309321
9312325224,Vy Delivery,,,53.5750171,9.9599529,03301305
9330691049,Subway,Möllner Landstraße 3,22111,53.5398901,10.1038081,01112130
9342126419,Traumkuh,Grindelallee 146,,53.5694556,9.9797307,03302311
9342138121,Çiğköftem,,,53.5674456,9.9803727,03302311
9343920428,Kelms Küche,Bramfelder Chaussee 345,,53.619531,10.0806602,05507515
9379907468,Frittenfee,,,53.7208179,10.2743147,0
9426203249,Dil,,,53.5724241,10.0678232,05502505
9426797287,Jasino,,,53.5617549,9.9486794,02201206
9427821624,My Kebaps,Osterstraße 31,,53.5745825,9.9588164,03301306
9429503161,Long Asia,Münsterstraße 40,22529,53.5981106,9.9743636,03305317
9453638111,Urfa Foods,Neue Straße 1,21073,53.4610569,9.9780656,07701701
9476636469,Big Food Grill,Alte Holstenstraße 42,21031,53.4915764,10.2074207,06601601
9550580940,Onkel Curry,,,53.6790906,10.2606035,0
9595339693,Milkywayz,,,53.536885,10.0165619,01102104
9632210289,MAHAL,,,53.4883767,10.2085492,06602602
9632210292,,,,53.4884315,10.2082613,06602602
9649640211,Dö-Back Köz Haus,Alte Berner Straße 4,22147,53.6257841,10.140394,05518526
9666226856,Manu´s Kitchen,Beim Umspannwerk 153,,53.7382922,9.9816383,0
9725511097,Asia Do Anh,Friedrich-Ebert-Straße 31,25421,53.6622512,9.7990835,0
9732957727,Was wir wirklich LIEBEN - Marktwagen,,,53.5424767,9.9981182,01102103
9732957728,Was wir wirklich LIEBEN - Marktwagen,,,53.5905052,9.9866474,04402403
9736074572,Smileys Pizza Profis,Elmshorner Straße 46,25421,53.6676255,9.794174,0
9736074574,Call a Pizza,Berliner Straße 51,25421,53.6697981,9.7887328,0
9738445215,Mekong Yensushi,Stettiner Straße 6,22850,53.6899979,9.9796779,0
9738688914,Gaumenschmaus Hähnchengrill,,,53.7095872,10.017914,0
9741695416,Salzbrenner Bistro,,,53.5594333,9.9672089,01104109
9807274235,Pizza Moin Moin,,,53.6606837,10.0824827,05511519
9830571318,Burger King,Georgswerder Bogen 12,21109,53.5187351,10.0223378,01116136
9853733641,Dominos,Georg-Wilhelm-Straße 104,21107,53.5060601,9.9925385,01116137
9864301827,Hapiness Station,,,53.597056,9.9368477,03309321
9866436532,Lezzet Kebab House,Fuhlsbüttler Straße 144,22305,53.5912006,10.0448774,04410427
9874111212,Wentorf Döner,Berliner Landstraße 4-6,21465,53.4908826,10.252828,0
9941726656,Der Holländer,,,53.4722383,9.8860274,07713714
9981708841,Steelrunner,,,53.6009766,10.0715957,05507515
10032039119,Efes Grill,Bahnhofstraße 20,,53.7285336,10.2684483,0
10032353800,famila Fisch,,,53.679109,10.2597338,0
10032525066,Scharfe Ecke,,,53.6737647,10.239524,0
10038197432,Gisela Rodriguez,,,53.6425517,10.0141239,04413432
10061969198,Smileys,Bergstraße 6b,21465,53.5111717,10.251618,0
10087530390,Pizza Hot Chili,Wandsbeker Chaussee 57,22089,53.5672097,10.0426254,05501501
10089877010,Istanbul Kebap Haus,Richard-Köhn-Straße 2a,,53.6521647,9.791102,0
10106353014,Thai China Wok,Wellingsbütteler Landstraße 1,22337,53.6261556,10.0305969,04411430
10106572763,Burger Lounge,,22177,53.6113027,10.0736718,05507515
10117183185,Pommes Helden,Osterstraße 119,20259,53.5758885,9.9520268,03301306
10127232239,Doy Doy Kebap House,Kottwitzstraße 43,,53.5799212,9.9668381,03304316
10159106680,croque world,,,53.5792364,10.0194531,04408418
10178108105,GaumenSchmaus,Am Markt 10,25474,53.6644952,9.9053326,0
10231739757,Pizza Max,Saseler Chaussee 160,22393,53.6513362,10.1057455,05510518
10275333709,Real Sushi Hamburg,,,53.5885083,10.0510025,04410426
10300593464,Brammibal‘s Donuts,Harkortstraße 79e,22765,53.5592985,9.9364807,02203210
10568116631,Dominos,Bramfelder Chaussee 69,22177,53.5987042,10.0659806,05507515
10574097658,,,,53.57712,10.0268279,04408420
10625197353,Sushi Meister,,,53.6224095,10.1659624,05518526
10630880494,Hot Dog Station,,,53.5535681,10.0073181,01105114
10651170695,Subway,,,53.4896133,10.2066217,06602602
10702968488,Soul Sushi,,,53.5944661,10.1464426,05518526
10712208147,Çiğköftem,,21109,53.4979216,10.0091332,01116136
10717574513,Lá Vegan,,,53.5524875,10.0202588,01105113
10719399212,croque star,,,53.5880888,10.0465411,04410427
10737835530,Der Urfa Döner,,,53.5608075,10.0380448,01108121
10738153676,Yummi,,,53.5865664,10.1254007,05505513
10746483341,,,,53.6618778,9.7933754,0
10746538244,Baba Snack,,,53.6607159,9.8006791,0
10766377554,Buns Streetfood,,,53.5641035,9.9601954,03301310
10771718831,Kaya Feinkost,,,53.6225625,9.9519008,03306318
10778118028,Reeperbahn Döner,Reeperbahn 140,,53.5496925,9.9593344,01104110
10780213038,iCroque,,,53.5733574,10.0231657,04406414
10782026356,fresh,,,53.6495559,10.0153275,04413432
10787119606,Smileys,,,53.5446958,10.0249216,01106116
10787246286,the kumpir,,,53.5546751,9.9284476,02204213
10788636564,Burger King,Wandsbeker Marktstraße 91,22041,53.5724036,10.0674145,05502505
10812523121,Speedys Pizzaservice,Tannenhofstraße 8,22848,53.6814842,9.9815388,0
10860075942,JayJays,Stellinger Weg 28,20255,53.5793967,9.949488,03301302
10883782825,Codo,,,53.5564406,9.9669686,01104111
10897151739,Subway,,,53.577876,9.9372551,03301304
10911745107,Papa Johns,,,53.5913016,10.0450217,04410427
10919757655,John Peppo,Grindelallee 137,20146,53.5695837,9.9789198,03302311
10969206196,Taco Taco,Weidenallee 45,,53.5674951,9.9644662,03301310
10974881301,Binboga Kebap House,,,53.5106453,9.9869885,01116137
10976957794,Bobbys Bremsklotz,,,53.5187741,9.9513502,01116137
10996914219,Frühstück & Mittagstisch Imbiss,,,53.6136871,10.0780428,05507515
11002165769,Jasmin Restaurant,,,53.5468281,10.0353612,01106118
11023071697,Grill-Shop Winterhude,,,53.5829443,10.0188141,04405412
11025586067,Falafelicious,Bellealliancestraße 52,20259,53.5683497,9.9616287,03301310
11027865890,Dominos,Bargteheider Straße 75,22143,53.6024729,10.1449574,05518526
11032479397,Cheeky Pies,,,53.5670411,9.9568916,03301310
11033980993,Dominos,,,53.5679217,9.9559759,03301307
11034562925,Smileys,Baumacker 1c,,53.6130974,9.8980932,03308320
11039987875,Çiğköftem,Große Brunnenstraße 118,22763,53.5535609,9.9227048,02204213
11067439214,Kaya Döner,,,53.4390623,9.9896672,07704705
11078706764,Murder Burger,,,53.5563256,9.9636309,01104111
11158842231,Frisch Verliebt,,22587,53.563695,9.8129562,02211223
11163249937,Safi Food,,,53.5705518,10.0599346,05502505
11197315031,Mangal Kebaps,Reeperbahn 96,,53.549673,9.9615599,01104111
11219778441,Grill House,,,53.5743855,10.0371559,04408422
11222931050,Antepi Ustam Baklavalari,,,53.497849,10.0094827,01116136
11223050188,Most wanted Burger,,,53.6002046,10.1178062,05506514
11237727444,LQuán,Sachsenstraße 4,,53.5458226,10.0257417,01106117
11253705119,mammas canteen,,,53.560028,9.9366049,02203210
11272631011,burgerme,,,53.6514369,9.799452,0
11305470187,Hänsel und Gretel,Bramfelder Chaussee 308,22177,53.6179597,10.0792386,05507515
11305470188,Smileys Pizza,Bramfelder Chaussee 308,22177,53.6179032,10.0791715,05507515
11308531493,Haralds Imbiss,Geschwister-Beschütz-Bogen 3,22335,53.6206725,10.0055706,04403406
11310138451,Claires Croque,,,53.5511695,9.9499038,02201205
11313723320,Yoko Sushi,,,53.6861866,10.2390897,0
11343273100,Grilled cheese wonderland,Seilerstraße 40,20359,53.5505392,9.9636846,01104111
11366997943,Hesburger,,,53.5485775,9.9604811,01104112
11366997945,Kizzeria,,,53.5487626,9.9611611,01104112
11367144302,Mekong,,,53.5494359,9.95783,01104112
11367144303,Falafel Meister,,,53.5494392,9.9577669,01104112
11390010351,Haus des Döners,Vogelhüttendeich 74,21107,53.5167034,9.9897492,01116137
11403900630,Fat Bros,,,53.4606031,9.9827882,07701702
11422970857,Die Lütte Brücke 10,,,53.5454352,9.9641714,01104112
11432454839,Der Holländer,Rodigallee 242,22043,53.5707944,10.1237316,05504512
11443585830,JIN Chicken,,,53.4598688,9.9817413,07701702
11443585832,THAI FOO,,,53.4598381,9.9819665,07701702
11443585833,BoBoq,,,53.4598861,9.9821179,07701702
11460634790,Fresh Green,,,53.5574588,9.9890511,01103108
11540262114,Döner Kitchen,,,53.539103,10.0430947,01114132
11627785039,Big Bite,Haakestraße 3a,21075,53.4635847,9.9675903,07701701
11657301283,Suja,,,53.5564467,9.9667685,01104111
11669459647,La Delizia,Hoheluftchaussee 66,20253,53.582252,9.9719294,03304316
11669535914,Lookma,,,53.5814769,9.9722191,03304315
11737310352,Chutney Indian Food,,,53.5522686,9.9346816,02203210
11737380497,Sallis Kebap & Grill,,,53.5521707,9.9346789,02203210
11795839225,Sushi Up,,,53.5615975,10.0314065,04407417
11799692378,Original Korea Chicken,,,53.550177,9.95757,01104110
11799692381,Döner Freiheit,,,53.5505813,9.9574283,01104110
11824495377,Big Döner House,,,53.4712938,9.8540785,07714715
11832182959,Urfa`s Kebap,,,53.5883361,10.0450946,04410427
11835302546,Hot-Dog Station,,,53.5492452,9.9607361,01104112
11881666090,Cigkoftem,Rudolf-Klug-Weg 7,22455,53.6405903,9.9476065,03306318
11881765525,Mr.Goldies,Waldhofstraße 7,25474,53.6428687,9.8850145,0
11915685095,Abis Grill,,,53.5386107,10.1270771,01112130
11935234548,My Kebaps,,,53.5604465,10.0299683,04407417
11950662287,Griechische Spezialitäten,,,53.7095681,10.017931,0
11950668653,Keskos Kebab,,,53.709605,10.017899,0
11956473138,Avanti Kumpir & Falafel,,,53.5552127,10.0086133,01105114
11958270841,Ocakbasi 27.,,,53.5383086,10.1229908,01112130
11962981211,Pizza Max,,,53.6936662,9.9948599,0
11980689170,Louis Croque,,,53.5957877,10.0432421,04410428
11982605896,Bistro & Café Pförtnerhuus,Tilsiter Straße 162,22047,53.5928039,10.0952476,05502509
11988671802,Subway,Dratelnstraße 32,21109,53.4986475,10.0013975,01116137
12012405703,Kiss Pizza Pasta Burger,,,53.5474814,10.0950795,01111129
12015822944,Casa Italiana Harburg,,,53.4610545,9.9780588,07701701
12022357482,Crepes,,,53.5902057,9.9183696,03309321
12033804625,Mr. Fresh,,,53.6314674,9.9200541,03307319
12033949143,Gurbet Baklavalari,Elbgaustraße 32,22523,53.6066141,9.9018006,03308320
12073874006,Schmidt’s Bagelmanufaktur,Bartelsstraße 26,20357,53.5622495,9.9646477,02202207
12108134101,Ankara Kebap Tantuni,Böckmannstraße 27,,53.5545735,10.0155244,01105114
12115655517,Döner Royal,,,53.4595969,9.9820177,07701702
12144212001,Salli’s,,,53.552763,10.0038759,01101101
12177543801,Mr.Dumpling,,,53.5525528,9.9366931,02203210
12194983855,DB Casino,Hörstener Straße 100,21220,53.3966524,10.0690933,0
12211958401,Snackmacherei (Curry 73),Hammerbrookstraße 73,20097,53.5463032,10.0243563,01106117
12212058014,Döner Center,,,53.5018945,10.0088035,01116136
12228456969,Mundfein,Bergstedter Chaussee 77,,53.6658291,10.1207162,05516524
12230458912,Döner Platz,,,53.7080784,10.1086973,05514522
12231056486,Mensa Schulzentrum,,,53.7156075,9.993682,0
12285233828,FischHütte,,,53.5961209,9.9353463,03309321
12285919361,Sashimi Sushi,,,53.6312887,10.0063061,04412431
12305694222,Bobbys Burger,,,53.5492904,9.960188,01104112
12310389684,Sultan Döner,,,53.7289961,10.2567968,0
12312816763,Antalya Döner,,,53.4444306,10.2292311,06605606
12352055370,Saveur de Banh Mi,Hegestraße 44,20251,53.5834152,9.9823434,04401401
12382211486,Da San,,,53.4226022,10.0209825,0
12433168461,Burger Loft,Schanzenstraße 107,,53.5642698,9.965328,02202207
12438833385,Hoangry Kitchen,,,53.5574223,10.0507463,01108122
12438843885,Sharri,,,53.5011331,10.0088237,01116136
12451166812,Langenfelde Grill,,,53.5796021,9.9311662,03309321
12459677897,Dominos,,,53.4200443,10.0211555,0
12465126016,Vita Fresh,Kiebitzweg 2,,53.6015165,9.8372588,0
12512005978,Kalimera Bom Dia,Ohlstücken 4,21033,53.4947803,10.2054922,06601601
12515263115,Sushiko,,,53.5559155,10.0348571,01107120
12542721785,Kebap Grill,,,53.4191254,10.0213337,0
12571117126,Un Dos Taco,Tarpenbekstraße 51,,53.5942034,9.983674,04402403
12615435901,Elite Döner Imbiss,Nincoper Straße 149,21129,53.5152272,9.7929857,07716717
12615461601,bena hol Döner & Pizza,Nincoper Deich 1,21129,53.5151119,9.7932798,07716717
12616250195,Ruffs Burger,,,53.5528758,9.9322656,02204213
12629386632,Ph nomy Croque,,,53.5487748,9.9547577,02201201
12629392570,Watan,,,53.5544196,10.013096,01105114
12669631277,Mansoorys,,,53.5489206,9.9548101,02201201
12710218946,Mensa Geomatikum,,,53.5677567,9.9745011,03302311
12726459833,Bolle,Friedensallee 3-5,22765,53.5542604,9.9276922,02204213
12730710573,Sunar Kebap Haus,,,53.5600655,10.1078532,01111129
12731640962,YeS FresH,,,53.5406345,9.9987787,01102103
12735177186,Golden Döner,Waldstraße 21,22926,53.6695016,10.242967,0
12739433561,Subway,,,53.5402404,9.9991153,01102103
12739523370,Cinnaversum,,,53.5396696,9.9996316,01102103
12739547217,New York Bagel,,,53.5396002,9.9996115,01102103
12739561775,brammibals donuts,,,53.5397003,9.9984684,01102103
12739571806,Twistcafe,,,53.5393776,9.9992526,01102103
12739588686,The Soufflé,,,53.5394909,9.9994197,01102103
12739597652,Bake&Soda,,,53.5394452,9.9991245,01102103
12745905605,brammibals donuts,Eppendorfer Baum 34,,53.5844631,9.9826393,04402404
12775721402,Melissas Orient Buffet,Valentinskamp 18,,53.5554851,9.9863073,01103108
12786932682,Golab,,,53.5686291,10.0513382,05501502
12786994900,Pizza Himmelstein,,,53.5690325,10.0554419,05501504
12801034104,Subway,,,53.6045741,10.1546086,05518526
12801107433,Pizza Max,,,53.6166479,10.0776161,05507515
12804238291,Poori,,,53.5396851,9.998816,01102103
12804238293,Poke Bar,,,53.5405677,9.9977712,01102103
12804238296,Cucina,,,53.5397778,9.9987425,01102103
12804238297,Chingu,,,53.5394637,9.9991969,01102103
12804270702,Spießano,,,53.5397617,9.9995542,01102103
12804270703,Zushi Market,,,53.5395451,9.9989009,01102103
12817936500,Jimis,,,53.5386882,9.9983585,01102103
12819071305,Yoko Sushi,Poppenbütteler Weg 177,,53.6570916,10.0846902,05511519
12827766752,Dr. Smusy,Großer Burstah 18-23,20457,53.5485311,9.9895917,01101102
12837301835,Vita Juice,,,53.5394906,9.9976758,01102103
12837301840,GOSCH Sylt,,,53.5397635,9.9976234,01102103
12851114990,Çiğköftem,,,53.5399002,9.9986721,01102103
12868363645,Smileys,,,53.4851569,10.018874,01116136
12873069148,La Vera Pizza,,,53.5550734,9.9428214,02201204
12877160564,Eat Easy,,,53.5987031,9.9969936,04405408
12878125248,Karo Kebab House,Marktstraße 130,,53.5584994,9.9726494,01104109
12883796879,burgerme,Vierlandenstraße 31,21029,53.4858164,10.2103136,06602602
12897355256,The Döner,,,53.5799634,10.0817393,05502506
12919210013,Eidels Kebap,,,53.6080156,9.9044493,03308320
12921851506,Jayjays,,,53.5594814,9.9136008,02204212
12961596546,Asia Mekong,,,53.5818575,9.7549069,02214227
12961617768,Rissener Döner Pavillon,,,53.581701,9.7546678,02214227
12980907260,Moin Moin,,,53.5403656,10.2108492,0
12986511796,Dominos,,,53.6629879,10.2193974,0
12990043193,Dominos,,,53.5496272,9.9364534,02201203
13089032632,Croxy Croque,Berner Heerweg 98,22159,53.599503,10.1181043,05506514
13093838116,Elbburger,Jenfelder Allee 2-4,22043,53.5712141,10.1251558,05504512
13094257001,Tokiyo! Sandwiches,Wandsbeker Chaussee 212-214,22089,53.5691139,10.0557358,05501504
13097837676,Foodhall Hamburg,Dratelnstraße 24,21107,53.5001081,10.0022515,01116137
13109947375,Your Fried Chicken,,,53.5731987,10.0665168,05502505
13256144708,Oskar Bistro,,,53.5538445,10.2435874,0
13271981201,Freddys Imbiss,Hein-Hoyer-Straße 18,,53.5507737,9.9623867,01104111
13281572542,Gaumenschmaus,,,53.7316877,9.9966956,0
13281572545,Gaumenschmaus,,,53.7235066,9.9975143,0
13288825197,Homs Döner,Horner Weg 222,22111,53.5546369,10.0783905,01111128
13290829237,Erfan Döner,,,53.7271467,9.8982994,0
