id,lat,lon,name,street,zip_code,city
245214984,53.5966611,10.0215259,Café am Planschbecken,,,
262390792,53.5712716,10.1162154,Das Eis-Café,Rodigallee 167,22043,Hamburg
265568834,53.5796013,10.0252884,Café May,Von-Axen-Straße 2,22083,Hamburg
268499724,53.5969403,10.0048452,Jeffs Cheesecake Café,Linnering 5,22299,Hamburg
269898957,53.5510058,9.9253374,Pavillon,Bei der Reitbahn 9,22763,Hamburg
274850437,53.544986,10.0226721,Schanzenbäcker,Sachsenfeld 2,20097,Hamburg
274850441,53.5456124,10.0248212,Schanzenbäckerei,Hammerbrookstraße 89,20097,Hamburg
275633114,53.5517327,9.9982755,Espresso House,Alstertor 1,20095,Hamburg
278076924,53.6956871,10.1405574,Cafe zur Ohlstedter Apotheke,,,
279023056,53.5788223,10.0140897,Tre Pazzi,Hofweg 101,22085,Hamburg
279023078,53.5761226,10.0238954,Pritsch,,,
280167702,53.6932076,10.1187619,Zum Haselknick,,,
280709535,53.5590133,9.9645108,em - breakfast. coffee. waffles. drinks.,Neuer Pferdemarkt 14,20359,Hamburg
287514744,53.4495287,9.9384502,Cafe am Hainholz,,,
288039515,53.5331813,10.039865,Ninos Eiscafe,Rothenburgsorter Marktplatz 5,20539,Hamburg
288309626,53.564869,9.987091,MoHos,Schlüterstraße 10,,Hamburg
288309634,53.5627144,9.9890018,Café Canela,,,
288995964,53.7082656,10.1046377,Duvenstedter Eiscafé,Poppenbütteler Chaussee 8,22397,Hamburg
292290844,53.5629016,9.9774846,Eis-Livotto,,,
292829393,53.5530564,9.9310803,Knuth,Große Rainstraße 21a,22765,Hamburg
294701714,53.636155,9.8397158,Café Eis Stern,Hauptstraße 47,25469,Halstenbek
301149383,53.5708444,9.9788956,Café Douro,Grindelallee 168,20144,Hamburg
302672371,53.5677668,9.9815113,La Veneziana,,,Hamburg
302715021,53.5418192,9.9931964,Campus Suite,Großer Grasbrook 10,20457,Hamburg
303636738,53.5770067,9.9487168,Espresso House,,,
305266546,53.6024968,10.0438417,püük - fein + herausgeputzt,Lorichsstraße 28a,22307,Hamburg
308906255,53.4602348,9.9790602,Dedikodu,,,
311465092,53.5528347,10.0037572,Espresso House,Kurze Mühren 4,20095,Hamburg
313715843,53.5841685,9.8546292,Meckys Bistro-Café & Backshop,,,
319216630,53.5774137,9.9770362,Jour fixe,,,
319503160,53.5942962,9.9442076,Café Ines,,,
325963637,53.4014097,10.167856,Zur alten Vierländer Bäckerei,,,
332366021,53.634475,9.9190079,Junge,Frohmestraße 16,22457,Hamburg
340367742,53.5036903,10.212701,Eiscafe Elisa,,,
341788129,53.5582266,10.0126711,Grüneberg,,,
351575187,53.5521158,9.9322828,Coffee Fellows,Ottenser Hauptstraße 7,22765,Hamburg
355554334,53.5525328,9.9307404,Nessi,Große Rainstraße 18,22765,Hamburg
355585910,53.5569476,9.9278603,Torrefaktum,Bahrenfelder Straße 237,22765,Hamburg
364122986,53.5564901,10.0216254,Café-Shop Blueberry,,,
364123092,53.5571934,10.0228843,Café Berliner Tor,,,
364138836,53.5554615,9.9815072,Endlich-Salon,,,
364138837,53.5554532,9.981186,Double Coffee,,,
364138843,53.5541161,9.9797517,Copenhagen Coffee Lab,Poolstraße 34,20355,Hamburg
365997861,53.5691922,10.1629655,Eis Cafe Venezia,Hauptstraße 35a,22885,Barsbüttel
367030242,53.7123883,10.0000146,Eiscafé Pinocchio,Ulzburger Straße 304,22846,Norderstedt
370259494,53.6726249,10.1261323,Eisliebe,Wohldorfer Damm 10,22395,Hamburg
384430539,53.5913419,9.8736259,Liva,,,
385090863,53.5519335,9.94383,Anteplioglu,Große Bergstraße 199c,,
385124494,53.5528223,9.9307739,Rain Cafeatery,Große Rainstraße 15,22765,Hamburg
385177411,53.5671888,9.9871172,Café Nr. 28,Schlüterstraße 28,20146,Hamburg
385669383,53.567295,9.9843428,Café CampusBlick,Von-Melle-Park 8,20146,Hamburg
388299636,53.6196309,9.9516975,Coffee Club,,,
391529042,53.7308002,9.898128,Lavinis Eiscafé,Gerberstraße 6,25451,Quickborn
392677785,53.4882429,10.2141069,Il mío,,,
409233552,53.5812726,10.0120965,Espresso House,Gertigstraße 1,22303,Hamburg
409233566,53.581398,10.0102217,Café Canale,Poelchaukamp 7,22301,Hamburg
409233569,53.5816037,10.0106466,Eiscafé am Poelchaukamp,Poelchaukamp 3,22301,Hamburg
410226495,53.6083286,9.8390083,Eisart,Kiebitzweg 41,22869,Schenefeld
410438369,53.5718775,9.9527103,Maison Émilie,Emilienstraße 78,,
412741903,53.5717786,9.98916,Swedish Cream,,,
413546923,53.5703193,9.9858697,Liebling,,20146,
414037056,53.5664589,9.9837031,Cafe Knallhart,Von-Melle-Park 9,20146,Hamburg
414220899,53.55326,9.9521531,Park Cafe,,,
433294571,53.569849,10.0096268,Hansa Steg,Schöne Aussicht 20a,22085,Hamburg
433299709,53.5602185,10.0107642,La Dolce Vita,An der Alster 28a,20099,Hamburg
433300839,53.5581654,10.0041095,COCO riviera,An der Alster 72,20099,Hamburg
438141513,53.581715,9.9454414,Chez Nathalie,Lutterothstraße 88,20255,Hamburg
440241274,53.5681246,10.0166099,Literaturhaus Cafe,,,
441120275,53.5911235,9.9881888,Konditorei Lindtner,Eppendorfer Landstraße 88,20249,Hamburg
441266948,53.5578806,10.0121139,Espresso house,Danziger Straße 70,20099,Hamburg
442006772,53.5564395,9.9901686,Espresso House,Gustav-Mahler-Platz 1,20354,Hamburg
442443891,53.5513282,10.0009461,Elbphilharmonie Kultur Café Starbucks,,,
442871101,53.6718843,10.2391206,Noris Bar Il Gatto,Hagener Allee 7,,
446008335,53.5740263,9.9882788,Funk Eck,Rothenbaumchaussee 137,20149,Hamburg
449119801,53.6943251,10.1785334,Bäckereicafé,,,
450652001,53.5694245,9.9837686,LEspresso Bar,Grindelhof 45,20146,Hamburg
451658955,53.6402896,10.0175015,Antonios Eis-Cafe,,,
454616259,53.5683518,9.9952357,EISCAFE29,,,
457006309,53.5709355,9.9953424,Espresso house,Mittelweg 130,20148,Hamburg
457422216,53.5999992,9.9960826,Café du passage,Lattenstieg 4,22299,Hamburg
471767438,53.550284,9.9820098,Heferl,,,
475005177,53.5533568,10.0170236,Kaffeewelt,Böckmannstraße 3-4,20099,
489657283,53.555966,10.0082293,Cafe Westwind,Spadenteich 1,20099,Hamburg
500618033,53.5587826,10.0127916,Cafe Gnosa,Lange Reihe 93,20099,Hamburg
500644902,53.5583877,10.0127849,Cube Cafe.Bar,,,
500644908,53.557846,10.0115842,Bar Sankt Georg,,,
500872682,53.5930782,9.9941771,Café Leinpfad,,,
510617252,53.5487113,9.9878089,Starbucks,,,
510617258,53.5485259,9.9876341,PhiCoffee,,,
523283738,53.559744,9.8884758,Cafe Schmidt,Beselerplatz 10,22607,Hamburg
535406042,53.5616086,9.9485084,Schanzenbäckerei,Holstenplatz 20-22,22765,Hamburg
543635611,53.5676622,9.9813908,Café Porto,,,Hamburg
551491410,53.5461297,10.0245061,Snackmacherei Hamburg,Hammerbrookstraße 75,20097,Hamburg
580913155,53.4000091,10.1583653,Löschers Hofcafé,Hoopter Elbdeich 77,21423,Winsen (Luhe)
600286957,53.6008427,9.9556592,Kleines Hofcafe,Grelckstraße 19,22529,Hamburg
613106739,53.5915314,10.0022666,Il Gelato,,,
614228223,53.5588512,9.8013467,Kaffeegarten Schuldt,Süllbergsterrasse 30,22587,Hamburg
625215295,53.5838461,9.9841244,balzac coffee,Eppendorfer Baum 24,,
625770783,53.5752101,9.876299,DESY Bistro,,,
628631587,53.552534,9.9967777,La Paninoteca,Alstertor 21,20095,
630975409,53.5782294,9.9414659,Due Baristi,Langenfelder Damm 2-4,20257,Hamburg
635255010,53.5147302,9.9838288,Kaffeeliebe,Am Veringhof 23a,21107,Hamburg
635376674,53.5156964,9.9826325,Café Pause,,,
653107919,53.5775214,9.9538908,Cafe Strauss,Wiesenstraße 46,20255,Hamburg
656703922,53.6609945,10.0213706,Eiscafé Jacobs,Immenhöven 23,22417,Hamburg
674350591,53.5612148,9.9657269,Sul,Schanzenstraße 48,20357,Hamburg
674895707,53.5671128,9.9850868,Wuchercaphé,,,
684220908,53.6271345,9.9451025,Cafe ARTig,Graf-Anton-Weg 27,22459,Hamburg
684525531,53.4219986,9.8979756,CoffeeBaer,,,
687702174,53.5444256,9.9129429,Sutsche,Övelgönne 2,22605,Hamburg
697019337,53.579873,9.9802776,Cafe am Eck,,,
697736270,53.5594273,10.0079077,Cafe Prüsse,,,
703704384,53.5293917,10.0767456,Der Grill Shop,Grusonstraße 53,,
704394437,53.5181286,10.0873342,Billtrans,Halskestraße 56a,,
706970882,53.5485855,9.9779123,Gibbon,,,
713016838,53.5548356,9.9827949,Bistro Cà Phê Viet,Bäckerbreitergang 14,,
715727529,53.5295885,9.7388057,Harmshof,Königreicher Straße 88,21635,Jork
718600762,53.555506,9.9853736,Villani,,,
718613866,53.5556047,9.9882824,Junge,Gänsemarkt 44,20354,Hamburg
718622786,53.554833,9.9888072,Espresso House,,,
719567303,53.6294363,9.9281939,Ottos Eiscafe,Heidlohstraße 2b,22459,Hamburg
727229440,53.6071719,10.1732544,Junge,,,
728229430,53.5470548,9.9625955,Buttercrumbs Bakery,Bernhard-Nocht-Straße 95,20359,Hamburg
732078002,53.7274225,9.9964658,ERLEN Café,Erlengang 5-7,22844,Norderstedt
732874279,53.7072423,9.9889806,Moorbek Cafe,,,
740412878,53.5414394,9.9855479,Campus Suite,Am Kaiserkai 60-62,20457,Hamburg
741321990,53.5416437,9.9900413,K. u. K. Kaffeehaus,,,
743152028,53.5387931,9.9937924,Campus Suite,Am Strandkai 1,20457,Hamburg
773370626,53.5993886,10.0409791,Eiscafé Tanduo,Fuhlsbüttler Straße 291,22307,Hamburg
794053006,53.5550778,10.0083977,Nobis,,,
813205424,53.5828549,9.9741661,Cafe Tempo,Eppendorfer Weg 237,,Hamburg
829304806,53.6085106,10.0091598,Eis-Perle,,,
840945908,53.6015825,9.8887218,Magnifico,,,
842142410,53.6410896,9.9479658,Jaspers Café,Ernst-Mittelbach-Ring 80,22455,Hamburg
843250322,53.6421432,9.9158295,Eiscafé Höft,Burgwedel 67,22457,Hamburg
845378992,53.4594124,9.948836,AK Kiosk,,,
848715612,53.5887355,10.1072278,Kaffeebohne,,,
880212272,53.5558708,9.8053592,Ponton Op’n Bulln,Strandweg 30,22587,Hamburg
880220784,53.557904,9.802672,Marmalade Cafe,,,
880227742,53.5609008,9.8118866,Jayjays,,,
881791865,53.5566586,10.0618091,Cafe May,Caspar-Voght-Straße 7,20535,Hamburg
884694518,53.5499616,9.9304158,Ribatejo,Bahrenfelder Straße 56,22765,Hamburg
884708041,53.5512656,9.9303216,Masal Café,Bahrenfelder Straße 98,22765,Hamburg
884724336,53.5542862,9.9283737,Vulcão,Bahrenfelder Straße 165,22765,Hamburg
891566678,53.5775121,9.9519586,La Paz,Heußweg 49,20255,Hamburg
892590376,53.6901886,9.9096048,Palmencafé,Kieler Straße 5,25474,Hasloh
894112711,53.5445156,9.9058294,Strandkiosk,,,
896866244,53.5550643,9.9268206,Frisierbar Ottensen,Friedensallee 32,22765,Hamburg
897043285,53.5506273,9.925722,Katelbach,Große Brunnenstraße 60,22763,Hamburg
898954327,53.4579265,9.9667118,Cafe Bar Hamburg,Eißendorfer Straße 103,21073,Hamburg
905313642,53.5631541,9.9669229,Elbgold,Lagerstraße 34 C,20357,Hamburg
917978506,53.5965273,9.9873923,Delikate,Schubackstraße 4,20251,Hamburg
920655866,53.5720803,10.0750019,Eiscafé Jacobs,Schloßstraße 108,22041,Hamburg
942054400,53.6030311,10.1301109,Kappa Due,Alter Zollweg 199,22147,Hamburg
943991108,53.5489856,9.9256823,klatschmohn,Arnoldstraße 48,,
961420146,53.6041669,9.9541727,Nur Hier,Niendorfer Straße 25,22529,Hamburg
962977425,53.5792177,10.0666417,Café Kofje,Walddörferstraße 12,22041,Hamburg
976703942,53.5161423,9.9876256,Seu Café,,,
977466071,53.6056797,10.1175696,China Boy,,,
977466083,53.6047749,10.117451,Eiscafé Dante,,,
977807190,53.5531229,10.02319,La Malême,,,
978789518,53.6114429,10.0583982,Blandona,,,
981295143,53.5867476,10.0647803,Cems Backshop,,,
982628597,53.4729592,9.789122,Gleis 3,,,
982659444,53.5170003,9.9884818,Café Pianola,Vogelhüttendeich 62,21107,Hamburg
983452177,53.6822896,9.9983366,Eiscafé Geppetto,,,
983452211,53.6815867,9.9970326,Cup&Cino,Ohechaussee 11,22848,Norderstedt
983495515,53.6616158,9.7948829,Cero Coffee,,,
985216764,53.5816443,9.75723,,,,
985216779,53.5815928,9.7549756,,,,
990207483,53.5906675,10.0152615,Kaffeerösterei Coffee Unlimited,Borgweg 13,22303,Hamburg
993802429,53.490974,10.2075442,Junge,,,
1050229093,53.5507652,9.9292424,Von der Motte,,,
1055561588,53.5584743,9.8118969,Café Stern,Elbchaussee 587,22587,Hamburg
1078570334,53.5495169,9.9271659,Cafė Olė,Keplerstraße 2,22765,Hamburg
1078581478,53.5510953,9.9258508,el rojito,Große Brunnenstraße 68,22763,Hamburg
1078586454,53.5516737,9.9259973,Beys,Ottenser Hauptstraße 64,22765,Hamburg
1078587777,53.5517311,9.9265766,Laundrette,Ottenser Hauptstraße 56,22765,Hamburg
1078598535,53.5520223,9.9311542,Capos Coffee,,,
1079079246,53.5592454,9.8110184,filón Tapas Bar,Am Kiekeberg 1a,22587,Hamburg
1081848075,53.563678,9.80817,Lühmanns Teestube,Blankeneser Landstraße 29,22587,Hamburg
1082025926,53.5611098,9.8110979,Riva,Blankeneser Bahnhofstraße 36,,
1094041304,53.5472208,9.9452609,Schlee Café,,,
1110705276,53.5683074,9.9640067,Weidenkantine,Weidenallee 61,20357,Hamburg
1148155252,53.6297369,10.0228247,Elite Grand Café,Erdkampsweg 46,22335,Hamburg
1148156646,53.62923,10.0234456,Café Kirchenbank,Erdkampsweg 38,22335,Hamburg
1149300132,53.6281232,10.0248755,Café Mutsch,Erdkampsweg 18,22335,Hamburg
1176890405,53.5798585,9.9424764,Adam Cafe City,Müggenkampstraße 45,20257,Hamburg
1189267069,53.5799487,9.9435847,Pancake Panda,Müggenkampstraße 34,,
1191289186,53.5176985,9.9869451,Lino,,,
1193588001,53.620003,10.0330009,Cafe Restaurant Harmonie,,,
1263239556,53.5737808,10.015241,Emmas,Hofweg 63,22085,Hamburg
1263360539,53.5748621,10.0195882,Avi - Kaffee und Proviant,Zimmerstraße 52,22085,Hamburg
1269116631,53.4951061,10.2062591,Casa reccia,,,
1277163003,53.6128383,10.0253977,Eiscafé il Gelato,Alsterdorfer Markt 18,22297,Hamburg
1280483671,53.5788525,10.0456225,Eis Qgel,Dehnhaide 56,22081,Hamburg
1280644193,53.5703946,9.976892,Hadleys,Beim Schlump 84a,20144,Hamburg
1314106748,53.7180077,9.775556,Dielen-Café,,,
1314106802,53.7183045,9.7755458,Hof-Café,,,
1345539089,53.5538339,9.9281386,Cafe Centrale,Nöltingstraße 4,22765,Hamburg
1345874096,53.6070794,10.1184253,Naan,August-Krogmann-Straße 10,22159,Hamburg
1355395085,53.5579624,9.9892598,Campus Suite,Stephansplatz 2-8,20354,Hamburg
1375496844,53.6730382,10.2388561,Caligo Coffee,Rondeel 4,22926,Ahrensburg
1376676142,53.6628759,10.2859324,Eiscafe Il Giardino,,,Großhansdorf
1379951519,53.4653637,9.9622508,Heimfelder Café,,,
1391540151,53.5650629,9.9836992,Golden Temple Teehaus,,,
1411408403,53.5577818,10.0115021,Café Uhrlaub,Lange Reihe 63,,Hamburg
1415697231,53.6722896,10.2379305,,Hamburger Straße 7,22926,Ahrensburg
1415799108,53.598183,9.853832,Kuchenfein,Altonaer Chaussee 1,22869,Schenefeld
1416317139,53.5586335,9.9726892,Café klatsch,Glashüttenstraße 17,20357,Hamburg
1417823153,53.6730194,10.2395617,Junge,Rondeel 5,22926,Ahrensburg
1469287147,53.5243912,10.0523778,Café Kaltehofe,,,
1482103376,53.5499314,10.0047076,Campus Suite,Steinstraße 5-7,20095,Hamburg
1483712606,53.5787848,9.956415,Deike,Lutterothstraße 5,20255,Hamburg
1492030996,53.5964903,9.9821141,Lespresso,,,
1495815801,53.5572845,10.0523161,Marias Café,Carl-Petersen-Straße 122,20535,Hamburg
1500721369,53.5684594,9.963921,Café Estrella,Weidenallee 63,20357,Hamburg
1502029200,53.5679255,9.9817075,Espresso House,Grindelhof 15,20146,Hamburg
1502029219,53.5632154,9.9878896,Libresso,,,
1502662573,53.5802899,9.9794599,nous,Klosterallee 67,20144,Hamburg
1504456972,53.5774866,9.9706807,Cafe Hagelstein,Bismarckstraße 98,20253,Hamburg
1504457061,53.5784734,9.9745541,Ufer,Bismarckstraße 151,,Hamburg
1505478474,53.5838831,9.9785092,LOEWEN Gastwirtschaft,Eppendorfer Weg 264,20251,Hamburg
1509824160,53.6270319,9.8327363,Bäckerei Schlüter,Dockenhudener Chaussee 48,25469,Halstenbek
1525291972,53.558327,9.9693796,Pampá,Marktstraße 92,20357,Hamburg
1550016988,53.4746875,9.8762392,Bäckerei Kamps,,,
1561371106,53.5550347,9.9909982,Starbucks,Neuer Jungfernstieg 5,20354,
1561538988,53.5560647,10.0091698,Caravela St. Georg,Lange Reihe 13,20099,Hamburg
1561539057,53.5593239,10.012467,Bistro Kleinod,,20099,
1562385962,53.562453,9.9618184,Transmontana,Schulterblatt 86,20357,Hamburg
1565935297,53.640484,9.9472378,Kolls,Rudolf-Klug-Weg 7,22455,Hamburg
1571347848,53.5493294,10.0129585,Café Münzburg,Münzplatz 11,20097,Hamburg
1571348539,53.5549298,10.0126222,Café Curiousa,,,
1574464390,53.5520568,9.9290137,Mar y Sol,Ottenser Hauptstraße 36,22765,Hamburg
1574464503,53.5517092,9.9278259,Ivy,Mottenburger Straße 26,22765,Hamburg
1578704270,53.5483196,9.996491,Bei Maria,Große Reichenstraße 14,20457,Hamburg
1585709115,53.5505106,9.9623457,Cafe May,,,
1590668931,53.5765793,9.9433942,MAY,Lappenbergsallee 30,20257,Hamburg
1607039269,53.5682444,10.0485117,Eiscafé Otto,Wandsbeker Chaussee 181,22089,Hamburg
1607039287,53.5690026,10.0435255,Würfel & Zucker,Eilbeker Weg 39,22089,Hamburg
1623244456,53.5587638,10.0136488,hugsandplugs,Lange Reihe 102,20099,Hamburg
1623989349,53.5572065,10.0216292,Oh Its Fresh,,,
1624222159,53.5240325,10.0172302,Eiscaffee Dino,Veddeler Brückenstraße 162,20539,Hamburg
1639023471,53.5410851,10.2144181,Das Eiswerk T&O,Markt 1,21509,Glinde
1640543957,53.5455546,10.0231642,Oh Its Fresh,,,
1642881548,53.6141138,10.1564111,braakermühle,,,
1650215040,53.5234487,10.0150749,Votra,,,
1650221321,53.5240584,10.0173184,Monikas Café,Veddeler Brückenstraße 160,20539,Hamburg
1656096429,53.4625044,9.9693747,No Name Cafe,Kasernenstraße 12,21073,Hamburg
1656096464,53.4594875,9.9701711,Café insgrüne,,,
1657857391,53.4064112,9.8556908,Waldhuuske,Rosengartenstraße 2,21224,Rosengarten
1658785406,53.5533837,9.9616576,Café Stark,,,
1668900333,53.4662643,9.987384,Backhaus Wedemann,,,
1759791300,53.5586584,9.9815545,Café Jungiusstraße,,,
1761447522,53.599832,10.1167839,Dolce & Gelato,Eckerkoppel 7,22159,
1763478266,53.5386635,9.8638828,,,,
1768194498,53.4897406,10.2124942,Schlosscafé,,,
1774105788,53.578166,10.015707,Trucys,,,
1774111005,53.5536584,10.002529,Campus Suite,Brandsende 2-4,20095,Hamburg
1778895074,53.5970591,9.9972136,Cafe Galao,Alsterdorfer Straße 48,22299,Hamburg
1781081225,53.5459217,9.9815246,Amber Café,Schaarsteinwegsbrücke 2,20459,Hamburg
1785310133,53.551925,10.053276,Shabos Café & Bar,,,
1796123872,53.5690453,10.0614264,Hopfen. & Malz,,,
1799649592,53.5810262,9.9517368,Eisbüttel,Lutterothstraße 45,20255,Hamburg
1800638002,53.5804596,10.0374208,Konditorei Ulrich Münch,Weidestraße 26,22083,Hamburg
1806536680,53.5774292,9.9613829,Magic Weiher,,,
1811412936,53.5402051,10.1358582,Winter,Möllner Landstraße 202,22117,Hamburg
1813634930,53.5893293,10.0161242,Magnus-Hirschfeld-Centrum,Borgweg 8,22303,Hamburg
1819205369,53.574455,10.0731243,Löffelhaus,Wandsbeker Zollstraße 3,,
1819871702,53.5969487,10.0717068,Eis-Cafe Arktis,Werner-Otto-Straße 42,,
1823376856,53.5777749,9.9421403,Pastelaria Transmontana II,Lappenbergsallee 48,20257,
1830719741,53.5869162,10.0187648,Kafaya’s Café & Spécialités,Semperstraße 64,22303,Hamburg
1848077244,53.5542577,9.8444425,Eiscafé Dante,Nienstedtener Straße 3c,22609,Hamburg
1851239296,53.5780438,9.9427501,Curcuma,,,
1869742767,53.584423,9.9744972,La Caffètteria,Abendrothsweg 54,20251,Hamburg
1893863031,53.7142179,10.0001416,La Patate,,,
1909865366,53.5488607,9.9936352,Zimt & Zucker,,,
1909894526,53.5498937,9.994348,Cafe Paris,Rathausstraße 4,20095,Hamburg
1909913517,53.5501008,9.9950359,Café Everyday,,,
1911665652,53.4357766,9.9788527,Back und Kios 55,,,
1912212944,53.5541984,9.9858317,noé,,,
1912723935,53.5522231,9.9860858,Stadtbistro,Große Bleichen 68,20354,Hamburg
1912857426,53.5513397,9.9934983,Starbucks,,,
1918543518,53.5579922,9.9884707,Joe & The Juice,,,
1935772558,53.5549655,9.9891871,Café Hamburg,,,
1935772590,53.55451,9.9891199,Dolce&Gelato,,,
1935772592,53.5547903,9.9890153,New York Bagel Bar,,,
1937256939,53.5578468,9.9900451,Planten Coffee,Esplanade 23,20354,Hamburg
1937305247,53.5571526,9.9899636,Caravela,,,
1939337175,53.5942626,9.9758491,Elenas Backbistro,Geschwister-Scholl-Straße 155,20251,Hamburg
1939345220,53.5943041,9.9851639,IL piccolo CAFÈ,Geschwister-Scholl-Straße 29,20251,Hamburg
1941369003,53.4589093,9.9770546,Helms Lounge,Museumsplatz 2,21073,Hamburg
1942791855,53.5904934,10.0152916,Avanti Kiosk,,,
1945767288,53.6490234,10.1642035,Hamers Cafe,Claus-Ferck-Straße 4,22359,
1974128682,53.549898,9.9869464,Comebuy,,,
1974983118,53.5602554,9.9267927,Café June,Bahrenfelder Steindamm 43,22761,Hamburg
1979150830,53.661231,9.7955459,Remise,Dingstätte 27,25421,Pinneberg
1983556540,53.5537278,9.9874489,Ruperti,,,
2012113683,53.5928971,9.9893249,Eppendorfer Eiscafé,,,
2026508683,53.5542579,9.9797302,marie luise,Poolstraße 32,20355,Hamburg
2085867786,53.5754048,9.9454465,Eclair au café,,,
2086129019,53.6735291,10.2390874,Cafe Rondeel,Große Straße 42,,Ahrensburg
2089691179,53.5583986,10.011469,Café Koppel,Koppel 66,20099,Hamburg
2122541094,53.5654591,9.9617822,Mehrgenerations Haus e.V.,,,
2131207500,53.6583908,10.0206078,MATCH - Billard-Cafe,,,
2135383225,53.6164964,10.1148477,Rohlfs Bäckerei,Neusurenland 109,22159,Hamburg
2136515331,53.5038899,10.2134266,Cafe Meyns,,,
2138180708,53.5680648,10.023119,Surimex Cafe Bistro,,,
2145288709,53.5991188,9.9970829,May,Alsterdorfer Straße 84a,22299,Hamburg
2151782564,53.5503539,9.9646134,Lieblings Café Bar,Detlev-Bremer-Straße 50,20359,Hamburg
2156443820,53.5609276,10.0300268,Mit Herz & Zucker,Lübecker Straße 29,22087,Hamburg
2164565017,53.5695687,9.8985885,Freda Café & Bistro,Theodorstraße 48,22761,Hamburg
2183115064,53.7145646,10.0001415,Café an der Ulzburger Straße 324,Ulzburger Straße 324,22846,Norderstedt
2188338846,53.5639661,10.0425645,snoopkraam,Hirschgraben 44,22089,Hamburg
2195611627,53.5548815,9.9887582,Espresso House,,,
2249960236,53.5584999,10.012475,Casa Portugal,,,
2264534402,53.5494464,10.0027453,Lieblings,Altstädter Straße 15,20095,Hamburg
2268137398,53.554827,10.0176159,Cafeteria Studierendenwerk,,20099,
2268683530,53.6429591,10.0715697,Café im Herrenhaus,Wellingsbüttler Weg 71,22391,Hamburg
2270938681,53.4897181,10.2092261,Café Bouquet,,,
2278248223,53.5736809,9.846956,Café Bohne,Rugenbarg 8,22549,Hamburg
2290064746,53.5567924,10.0101367,Cotidiano,Lange Reihe 29,20099,Hamburg
2295959224,53.5951397,9.9836161,CREMA & BEANS,,,
2300972681,53.5675112,9.9833136,Café Paranoia,,,
2301140869,53.488379,10.209354,,,,
2301145969,53.488062,10.2123348,Eiscafé Ciprian,,,
2301162520,53.4881811,10.2134095,Cafè la Petite Rue,,,
2303472465,53.5575493,10.0105431,peaberries Kaffee,,,
2306883446,53.5426902,9.9975756,Wildes Fräulein,Überseeboulevard 2,20457,Hamburg
2314320341,53.5461875,9.9760896,Café Sul Hafen,Ditmar-Koel-Straße 10,20459,Hamburg
2322408268,53.4882002,10.2087865,Tchibo,,,
2322454983,53.4882289,10.2092049,Eiscafé Ciprian,,,
2322461463,53.4874984,10.2073208,Kaya Salate Feinkostgeschäft Hüsna Karahan,,,
2322462534,53.4886974,10.2072303,KUPA Saftbar,,,
2322464333,53.4883981,10.2095858,Pane & Vino,,,
2322470975,53.48828,10.2086577,Ristorante Vero,,,
2340961457,53.5491642,9.9939324,Caffe I Vigneri,Kleine Johannisstraße 17,20457,Hamburg
2341553441,53.5635567,10.0418884,Café Brooks,Hasselbrookstraße 37,22089,Hamburg
2380892775,53.6159474,10.0245044,alsterback,Alsterdorfer Straße 470,22337,Hamburg
2398686966,53.5949917,9.9993638,Winterhuder Kaffeehaus,,,
2398743471,53.5926963,10.0010057,Cafe Neo,,,
2415803982,53.5764653,9.9522791,Eiscafe Tropea,Osterstraße 116,20259,
2443312788,53.5483844,10.0018725,Palang good coffee,Fischertwiete 1,20095,Hamburg
2443414477,53.5918423,10.1364021,Eiscafé Röhling,Tonndorfer Hauptstraße 170a,22045,Hamburg
2444898772,53.5774153,10.0181999,Delzepich Eis,Winterhuder Weg 67,22085,Hamburg
2450291764,53.4411015,9.9936226,Café am Park,,,
2454225450,53.543817,9.9880392,Speicherstadt Kaffeerösterei,,,
2476885583,53.5447605,9.9398457,Café Schmidt,Große Elbstraße 212,22767,Hamburg
2477492233,53.4190716,10.2704734,Das Elbcafe,Drennhäuser Elbdeich 19,21423,Drage
2477977760,53.5499571,9.9621547,HSV Kaffeepause,,,
2487905864,53.5457119,9.9517933,Special Connection,Fischmarkt 11,,
2496074279,53.5656165,9.9840746,CampusCafé,Von-Melle-Park 5,20146,Hamburg
2503289159,53.4888176,10.2116202,Café Greco,,,
2506867662,53.6331151,10.0047581,McCafé,,,
2510276175,53.6025743,10.0410609,Café May,Fuhlsbüttler Straße 402,22309,Hamburg
2517436068,53.5934758,10.0521207,espresso,,,
2517731413,53.5428095,10.0022997,Weltcafé ElbFaire,Shanghaiallee 12,20457,Hamburg
2526546538,53.5101461,9.9896185,vju im Energiebunker,Neuhöfer Straße 7,21107,Hamburg
2556853836,53.4978486,10.0089998,Calabrese Eiscafé,,21109,Hamburg
2562114483,53.6334886,9.9528697,Eiscafé Siebenhüner,,,
2613076730,53.5621522,9.9632782,Chakra,Susannenstraße 11,20357,Hamburg
2619851503,53.5614172,9.9622325,Café Stenzel,Schulterblatt 61,20357,Hamburg
2648992041,53.6267198,10.0236179,Haciendo Cafe,Hummelsbütteler Landstraße 1,22335,Hamburg
2670469182,53.5397437,10.1059747,Cafe Crema,,,
2683107676,53.5845712,9.9823822,Speicherstadt Kaffeerösterei,,,
2714443747,53.5683626,9.9562121,Eclair au Café,Eppendorfer Weg 1,20259,Hamburg
2737288044,53.6496046,10.1635042,In der Zwischenzeit,Claus-Ferck-Straße 10,22359,Hamburg
2776307762,53.4632624,9.9702961,sofacafé,,,
2833731899,53.5513688,9.9826548,Public Coffee Roasters,Wexstraße 28,20355,Hamburg
2847763104,53.4920122,10.2074549,Bax Café Crème,Alte Holstenstraße 30,21031,Hamburg
2878938194,53.5053226,9.9862077,Deichdiele,Veringstraße 156,21107,Hamburg
2885023887,53.5841705,9.996289,Café par ici,Maria-Louisen-Straße 1,22301,Hamburg
2901503667,53.5682546,9.9798028,Quo Vadis,Grindelallee 95,20146,Hamburg
2906917852,53.5931015,9.9884523,Formidable,Eppendorfer Landstraße 120,20251,Hamburg
2909009104,53.5940013,9.9874279,Hülsen Petit Fisch Bistro,,,
2909009115,53.5926567,9.9878466,Hermitage Cafè,Martinistraße 6,20251,Hamburg
2909009147,53.59324,9.9881455,Là Phin,Eppendorfer Landstraße 109,,
2919461599,53.5688979,9.9636687,Fofftein,Weidenallee 67,,
2919467710,53.5670605,9.9647301,Juwelier Espressobar,Weidenallee 29,20357,Hamburg
2926146804,53.5877115,9.9845638,Junge,Eppendorfer Landstraße 29-31,20249,Hamburg
2929432319,53.5833972,10.0129619,Café Missingsch,,,
2930983854,53.5529644,9.9923497,Café Ferdinand,,,
2931952951,53.730812,9.9038075,Lavinis Eiscafé Bistro,Bahnhofstraße 88,25451,Quickborn
2940646845,53.5806355,9.9495039,Mia Mio,Hellkamp 70,20255,Hamburg
2952556848,53.574867,10.0367753,Albatros Café,Wagnerstraße 5,,
2968518695,53.5796197,9.9663154,Nord Coast,Eppendorfer Weg 171,20253,Hamburg
2971954607,53.4962161,10.0027988,Wilhelms im Wälderhaus,,,
2997326929,53.493617,10.1999854,Student Affairs,,,
3008713082,53.542293,10.0007724,Kleine Heimat,Hongkongstraße 2-4,20457,Hamburg
3053154313,53.5590588,9.9746437,LiZ Libertäres Zentrum,Karolinenstraße 21,20357,Hamburg
3061275181,53.6893638,10.2581207,Funtasia 2.0,,,
3076523672,53.5506798,10.0168518,Corner Café,,,
3094677270,53.6821571,9.9804784,Leonardo,Achternfelde 1,22850,Norderstedt
3108894229,53.5585513,9.8121894,Carroux Kaffeerösterei,Elbchaussee 583,22587,Hamburg
3123453887,53.5454709,9.9735266,Cafe Melt,Johannisbollwerk 19,20459,Hamburg
3123495668,53.5457055,9.9735229,Cafe am Hafen,,,
3136102797,53.5543849,10.01473,Back-Lava,,,
3138041041,53.5542163,9.8239689,MAATS Blankenese,Elbuferweg 133,22609,Hamburg
3161366542,53.5773547,10.053903,Schön-Café,,,
3171187723,53.5583089,9.974516,Panther cafébarkitchen,Marktstraße 3,20357,Hamburg
3197186726,53.6029408,10.0409581,Pastelaria Carlos,Fuhlsbüttler Straße 412,22309,Hamburg
3217719874,53.5803678,10.0003727,Bobby Reich,Fernsicht 2,22301,Hamburg
3223703512,53.5497575,9.9679283,MOJO Jazz Café,,,
3236951109,53.5513905,9.995057,Bubble Tea,,,
3252612351,53.5753522,9.9545636,Carlos Coffee,Osterstraße 83,,
3255110343,53.5775981,10.017372,Eclair au cafe,Hebbelstraße 15,22085,Hamburg
3265265483,53.7069209,9.9942929,Cafeteria Latina,Rathausallee 19,,
3266554561,53.5498826,10.0015825,Die Rösterei,,,
3267601462,53.5437705,9.9166007,Elbwarte Augustinum,Neumühlen 37,22763,Hamburg
3267845045,53.5444614,9.9460599,EisBar,Große Elbstraße 126,22767,Hamburg
3277905053,53.648465,10.1681571,Cafe Liam,Wiesenhöfen 7,22359,Hamburg
3295704197,53.5547225,9.9623544,Eis Pauli,Wohlwillstraße 37 (links),20359,Hamburg
3320679119,53.554796,9.9999236,Ballintimes,,,
3327495788,53.5485175,9.9972344,Hamburg Bäckerei,,,
3349207340,53.4638752,9.9831154,Vintage Café,Karnapp 5,21079,Hamburg
3357714647,53.54535,10.0030396,Oh its fresh!,,,
3366923018,53.5710285,9.8620475,Starbucks,,,
3370930314,53.5585071,9.9741156,Gretchens Villa,Marktstraße 142,20357,Hamburg
3387957397,53.5575138,9.9752402,Ma Karo,,,
3401837553,53.5237328,10.2345173,Berliner Prinz,Gutenbergstraße 13,21465,Reinbek
3404094140,53.5790478,9.885067,Café CFEL,,,
3413804255,53.5704062,9.8869512,Das Cafe,,,
3435568630,53.5586338,10.0054208,barca,An der Alster 67a,20099,Hamburg
3436722849,53.5790249,9.9531532,La Douce,,,
3439023957,53.4220315,10.0237223,Das Höfenhaus,,,
3440671961,53.5112682,10.2348494,Cafe Brasil,,,
3451080324,53.6034814,10.1545314,Steidl,,,
3460178864,53.5470636,9.9750434,Café Johanna,Venusberg 26,20459,Hamburg
3461615592,53.5953658,10.150294,Schmidtchen Cafehaus,Rahlstedter Straße 68,22149,Hamburg
3462081561,53.5459388,9.9747366,Milch,Ditmar-Koel-Straße 22,20459,Hamburg
3462081565,53.5459802,9.9749485,Pasteleria Cristal,Reimarusstraße 4,,
3462081566,53.5452471,9.9751229,Cafe Marisol,,,
3474188163,53.5158575,9.9875529,Knusperkeks,,21107,
3474793612,53.580919,10.011768,Luicellas Ice Cream,Mühlenkamp 21,22303,Hamburg
3491077934,53.5920808,9.9886571,Campus Suite,Eppendorfer Landstraße 102,20249,Hamburg
3503894271,53.5529244,10.001512,Enjoy Coffee Bar,,,
3536740038,53.5439874,9.9789813,Espresso House,Vorsetzen 31,20459,Hamburg
3550761678,53.5401582,10.0042816,Café HCU,,,
3560701384,53.6534595,9.8293051,Barrossa Eiscafé,,,
3571556893,53.6515132,10.0960128,Alsterliebe,,,
3588227830,53.5545073,9.927292,Pasteleria Cafe Veloso,Friedensallee 9,22765,Hamburg
3595917682,53.5688495,10.0436967,Eiscafé Il Salottino,Eilbeker Weg 39,22089,Hamburg
3603412583,53.5683584,10.0920184,Seasons,,,
3603697381,53.5460691,10.0245601,Maya Kaffeehaus,Hammerbrookstraße 75,20097,Hamburg
3603697383,53.5448682,10.0248753,alegria,,,
3603698298,53.5455591,10.0181845,Coffee Fellows,,,
3613604044,53.5686478,9.9951662,Henkelmanncafe,,,
3616123745,53.563385,9.9878004,Cafe dellArte,,,
3632119818,53.5587701,9.975196,Goldenblack,Karolinenstraße 16,20357,Hamburg
3646425289,53.7080882,10.1079457,Caros Konditorei und Davids Café,,,
3647000015,53.643188,10.1888729,Bambusgarten,Eulenkrugstraße 190,22359,Hamburg
3647828113,53.5942866,10.1454062,Beatles,,,
3647842257,53.5931639,10.1386967,Cafe around the world,,,
3653903852,53.571715,9.9585119,Black Line,Eppendorfer Weg 67,20259,Hamburg
3655970038,53.6029146,10.024532,45’LIK,Überseering 15,22297,Hamburg
3656847907,53.5519351,9.9434089,Caffino,,,
3664754343,53.5770749,9.9427228,ima vegan,Lappenbergsallee 36,20257,Hamburg
3668931449,53.5803364,9.9384751,Langenfelder Frühstücksecke,,,
3669227588,53.5502779,10.0018041,Happy Waffel,,,
3670766225,53.551142,9.94529,Cafe Buondi,Jessenstraße 4,22767,Hamburg
3670889372,53.550193,10.001963,Alissa Eis,,,
3671884998,53.5788956,9.9467585,Cafe Delice,,,
3671923065,53.5782277,9.9474205,Café Estoril,,,
3672073235,53.5760111,9.9508221,MAD about Juice,Osterstraße 133,20255,Hamburg
3672359341,53.548461,9.9628258,Mothers Fine Coffee,,,
3676705748,53.5648198,9.8802947,Elbwein,Beselerstraße 27,22607,Hamburg
3680185789,53.5293462,10.037895,Entenwerder1,Entenwerder 1,20539,Hamburg
3686175204,53.5932111,10.0446035,Mosaic,Fuhlsbüttler Straße 176,22307,Hamburg
3688386316,53.5771421,9.9512018,Café estoril,,,
3688490997,53.5790425,9.9492774,Cafe Yapistir,,,
3696097578,53.5795441,9.9492387,Café Tuana,,,
3696100956,53.5802518,9.9481025,geen,Stellinger Weg 38a,20255,Hamburg
3696100958,53.5804676,9.9477583,meraki,Stellinger Weg 38f,,
3697640374,53.5512043,10.0028407,Roncalli Grand Cafe,,,
3710411779,53.5794326,9.9561346,Eiscafé Elena,,,
3710411784,53.579742,9.9559496,Glück und Selig,,,
3710985305,53.6266775,10.02318,Lalé Café,Ratsmühlendamm 30,22335,Hamburg
3712584264,53.5486363,10.0030381,Erdapfel,,,
3727886206,53.545377,9.9660623,Coffee and more,,,
3733646095,53.5697536,9.9840813,Cafe Leonar,Grindelhof 59,20146,Hamburg
3740637266,53.5443668,9.9772343,Brotstube,,,
3743921831,53.6197571,10.033235,Café Schwesterherz,Alsterdorfer Straße 572,,
3750771258,53.5427175,10.0952816,Yildiz,,,
3758950382,53.5053322,9.9858429,Café Belém,Veringstraße 157,21107,Hamburg
3758950384,53.5072528,9.9875864,Café Gegenüber,Weimarer Straße 81,21107,Hamburg
3759321077,53.553201,10.0031997,The Bakerys,,,
3763238289,53.5918233,9.9731697,Health Kitchen,,,
3769358709,53.5726818,9.9673843,Pera,Bundesstraße 96,20144,Hamburg
3770365661,53.5998336,9.9969184,Dream Cafe,Alsterdorfer Straße 90,22299,Hamburg
3770463611,53.5677579,9.9643014,Café 53,Weidenallee 53,20357,Hamburg
3785741354,53.5486339,9.97787,Autogepäckträger am Michel,Englische Planke 6,20459,Hamburg
3789649731,53.5576055,10.0054647,Mayfair coffee,,20099,
3807461866,53.5465554,9.9880626,Nord Coast Coffee Roastery,Deichstraße 9,20459,Hamburg
3820771779,53.5524729,9.9635997,Mimosa,Clemens-Schultz-Straße 87,,
3827732090,53.5550961,9.9839951,Jupibar,,,
3827732091,53.5552852,9.9840289,Nasch,Caffamacherreihe 49,20355,Hamburg
3831508193,53.5670325,9.9822238,T-Stube,,,
3863354065,53.61806,10.239644,Braaker Mühle,Braaker Bogen 33,22145,Braak
3871142075,53.5161117,9.9872315,Sera Quie,Veringstraße 27,,
3874810066,53.5746461,9.8874675,GenussWelt,Max-Born-Straße 2-4,22761,Hamburg
3876487135,53.5838124,9.9702027,Almaz,Hoheluftchaussee 90,20253,Hamburg
3906458203,53.6832581,9.9979457,CAFÉ freddo,Ulzburger Straße 5,22850,Norderstedt
3914415519,53.593376,10.0525234,friends,,,
3923381023,53.6191984,9.9509572,Eat & Sweet,Tibarg 5,22459,Hamburg
3927801938,53.5828432,10.0120296,Stockholm Espresso Club,Peter-Marquard-Straße 10,22303,Hamburg
3941448853,53.5571956,9.9889288,Favoloso,,,
3943681439,53.5504537,9.9824699,Pausenschön,,,
3948209801,53.5805735,10.0125147,MAD about juice,Mühlenkamp 12,22303,Hamburg
3948209802,53.5801451,10.012892,Public Coffee Roasters,Mühlenkamp 6a,22303,Hamburg
3948984293,53.5799271,10.0125677,New York Bagel Bar,Mühlenkamp 1,22303,Hamburg
3949959358,53.5845021,9.98356,Petit Café,Hegestraße 29,20249,Hamburg
3951528935,53.5821751,10.0149643,Bistro libanese LEmir,,,
3952565549,53.4594541,9.9501356,Campus Suite,Eißendorfer Pferdeweg 52,21075,Hamburg
3954373870,53.5538786,10.0819309,Cafe May,Am Gojenboom 46,22111,Hamburg
3957268435,53.5826442,10.016773,Trucys,Gertigstraße 41,22303,Hamburg
3958612897,53.5748484,10.0191927,Bistro Winzerhood,Zimmerstraße 44,22085,Hamburg
3988883686,53.5584653,9.9669189,Good One Café,Sternstraße 25,20357,Hamburg
3991068898,53.5515837,9.9368465,Tokas,,,
4007423404,53.558908,9.9116191,Crispi,,,
4007423406,53.5598762,9.9106027,Wallys Cafe,,,
4046034829,53.5719726,9.9596006,Speisekammer,Weidenstieg 5a,20259,Hamburg
4046592953,53.5435774,9.9978343,Orogelato,,,
4051686202,53.5682431,9.9952629,Lattemacchiato,,,
4054678589,53.5801862,9.9683306,kropkå,Eppendorfer Weg 174,20253,Hamburg
4057799723,53.5765015,10.0490146,"Schmidtchen Café, Barmbek",Friedrichsberger Straße 66,22081,Hamburg
4061856712,53.5539156,9.9789596,Mohltied,,,
4065568172,53.5787994,9.9740883,Cafe Fele,Bismarckstraße 128,20253,Hamburg
4065569790,53.5765271,9.9691881,Cafe Lual,Bismarckstraße 84,,
4103667606,53.5597755,9.9671286,Manufact Coffee Roasters,Sternstraße 68,20357,Hamburg
4112409689,53.6478995,10.0157692,Cafè Del Rheyna,Tangstedter Landstraße 32,22415,Hamburg
4114640489,53.556151,9.9630025,Graupi Bistro&Café,Wohlwillstraße 54,20359,Hamburg
4127958123,53.5529223,9.9602008,kraweel,Paul-Roosen-Straße 6,22767,Hamburg
4137247040,53.4490736,9.952894,Café Beerental,Beerentalweg 46,21077,Hamburg
4142414924,53.5560892,9.9470539,Sein,Hospitalstraße 107,22767,Hamburg
4144366169,53.4529954,9.9875986,Bar Lisboa,,,
4144382804,53.4573197,9.9850268,Lokumhan,Seevepassage 2,21073,Hamburg
4144383866,53.4549651,9.9871651,Enjoy Cafe & Cocktails,Wilstorfer Straße 78,21073,Hamburg
4144383870,53.4544615,9.9873311,Public Cafe,Wilstorfer Straße 84,21073,Hamburg
4144993060,53.4574995,9.9873475,von Allwörden,Seeveplatz 1,21073,Hamburg
4144993073,53.4575844,9.9870341,,Seeveplatz 1,21073,Hamburg
4153696180,53.566357,9.9803209,Portugal,Rentzelstraße 11,20146,Hamburg
4155915065,53.4563531,9.9872816,Tea Motion,Hannoversche Straße 86,21079,Hamburg
4158117691,53.6312351,10.0063164,Starbucks,,,
4166910151,53.5904631,10.0570524,Köster-Cafe,,,
4168104808,53.4565168,9.9871863,Segafredo,Hannoversche Straße 86,21079,Hamburg
4179244645,53.4902502,10.008976,,,,
4192504378,53.596472,9.9977453,Ristoretto,Himmelstraße 45,22299,Hamburg
4213486595,53.5971064,9.9897417,Barmeiers Café & Biergarten,Eppendorfer Landstraße 180,20251,Hamburg
4222174589,53.5814615,10.0103754,Cafe Canale,Poelchaukamp 7,,
4222407517,53.5836518,9.9766501,Amira,Eppendorfer Weg 255,20251,Hamburg
4222420939,53.5816339,9.9707649,Favorita,Eppendorfer Weg 215,20253,Hamburg
4228968838,53.5839174,9.9839517,Elbgold,Eppendorfer Baum 26,20249,Hamburg
4229616467,53.4115702,9.9760799,Clubhaus TC Fleestedt,,,
4234152588,53.6818405,9.979882,OXEN Café,Ochsenzoller Straße 103,22848,Norderstedt
4234626095,53.58153,10.0205818,Grindel Backhus,,,
4239152642,53.5766884,9.9777227,Tayas,Grindelberg 75,20144,
4246883734,53.5032832,10.1383715,Alte Deichkate,,,
4246883735,53.577109,10.0674053,Dos Hermanos,,,
4250896289,53.5556281,10.0633857,Café Auszeit,Horner Weg 68,20535,Hamburg
4252311195,53.5623794,9.9819302,Café Seepavillon,,,
4260142726,53.5796526,10.0265372,Dudes Coffee & Cake,Flotowstraße 22,22083,Hamburg
4261654909,53.5828603,10.0475036,ElbBarista,,,
4269441389,53.6035412,9.8167262,Dorfcafe,Uetersener Weg 4,22869,
4286361091,53.5825548,10.019122,Rooster,,,
4294779434,53.5486974,10.0905528,Cafe Sol Portugal,Washingtonallee 56,22111,Hamburg
4318839941,53.6075374,9.902279,Michis Bistro und Cafe,Ekenknick 7,22523,Hamburg
4341946067,53.6546084,10.1098024,Café Pause,,,
4347960698,53.6701424,10.0062202,Eight Corners,Jütlandring 12,22419,Hamburg
4373498908,53.5837389,10.0089445,"Vibes Coffee, Drinks & More",Goldbekplatz 1,,
4399732315,53.6210211,10.0326544,Café & au Lait,,,
4415553560,53.5609299,9.9601175,espressolution,,,
4415674396,53.5629524,9.9611793,Waffelaria,,,
4417417292,53.5775506,9.9416122,Public Coffee Roasters,Lappenbergsallee 43,20257,Hamburg
4421175088,53.580603,9.9731008,Pape 2 Kaffeehaus,,,
4421243423,53.5831718,9.97911,Gray,,,
4422758357,53.5903644,10.0153098,Fein & Mein,,,
4424769124,53.5929784,10.0034867,Café Ein & Alles,,,
4425715154,53.5960449,9.9974712,Café Fabric,,,
4425720276,53.5956027,9.9978404,echtzeit,,,
4425722108,53.703947,10.0080667,Sweeties,,,
4435624077,53.5536308,9.9988732,Brühwerk,Ferdinandstraße 40a,,
4449708007,53.5534192,9.9289484,Codos,Bahrenfelder Straße 137-139,22765,Hamburg
4484992671,53.5413559,9.9835858,Störtebeker Beer & Dine,Platz der Deutschen Einheit 3,20457,Hamburg
4493188048,53.5485084,9.9779059,Cafe am Michel,,,
4532414672,53.4459599,9.8866676,Falknershop,,,
4548352647,53.5694242,10.0613052,Four Seasons,,,
4565806641,53.595458,10.0439774,Café Aura,Fuhlsbüttler Straße 222,22307,Hamburg
4569994593,53.5532851,9.9615497,Kandie Shop,Wohlwillstraße 16,20359,Hamburg
4585643484,53.547497,9.9373839,Café König,,,
4591405016,53.5818205,10.0104868,Blanco Coffee,Poelchaukamp 4,,
4594768452,53.5435707,10.2983884,Café InTakt,Sachsenwaldau 8,21465,Reinbek
4683465596,53.5470618,9.9575376,St. Pauli Nixe,Antonistraße 4,20359,Hamburg
4692945379,53.5812094,9.97956,Little Amsterdam,Klosterallee 69,20251,Hamburg
4693152989,53.5511853,9.9271056,TIDE Treibholz & Feinkost,Rothestraße 53,22765,Hamburg
4699910294,53.5662578,10.0245181,Goldherz,Hartwicusstraße 20,22087,Hamburg
4722588763,53.4805864,10.2410413,Café Stellar,August-Bebel-Straße 196,21029,Hamburg
4730584781,53.5131387,9.815312,Café Obsthof Puurten Quast,,,
4755355321,53.5380288,9.8643551,Holsten Bäckerei,Hein-Saß-Weg 30,21129,Hamburg
4767132321,53.5543267,9.9314072,Leglers - Modern Bistro,Hohenesch 55,22765,Hamburg
4791588522,53.5624615,9.9597262,betahaus Café,,,
4836459499,53.5344303,10.0413994,Caglar Bäckerei,,,
4842555233,53.4924067,10.0555977,Ackerperlen Offener Garten,In der Weide 56,21037,Hamburg
4853794456,53.5424113,9.9992377,Nachhaltigkeitspavillon OSAKA9,Osakaallee 9,20457,Hamburg
4860479875,53.5497019,9.9985081,Zeit Café,,,
4866949330,53.5582209,9.9707514,La Maison,Marktstraße 36,20357,Hamburg
4866957108,53.5421598,10.0044685,Yokohama Coffeebar,Yokohamastraße 10,20457,Hamburg
4890717198,53.599524,9.9964179,Eis Eis Baby,,,
4909426984,53.4299727,9.7618566,Melkhus,Grauener Weg 3,21629,
4933567609,53.5496054,9.9930555,elbgold,Schauenburgerstraße 50,20457,Hamburg
4938248008,53.6737953,10.2391777,Cafe Zeitlos,Große Straße 40,,
4987943721,53.5619261,10.0369147,Cafe Josephins,,,
5020762108,53.5650648,9.9293104,Goldene Kanne,,,
5026683808,53.5414124,9.9901017,Tarterie Jolie,,,
5026766021,53.5526512,9.9630251,Café du Port,,,
5045482739,53.5547934,10.0075424,Mutterland Café,Kirchenallee 19,,
5046354930,53.562515,10.0388084,Elisa – Konditorei und Café,Conventstraße 21,22089,Hamburg
5055863326,53.559845,9.9648186,KaffeeKontor,,,
5062572337,53.5415821,10.2125972,Markt Café Stadtbäckerei Glinde,Markt 10,21509,Glinde
5071036525,53.5538652,9.9621264,Muräne Café Bar Events,Wohlwillstraße 34,20359,Hamburg
5092109524,53.6439719,10.0479199,Café Neumann,Brillkamp 8,,
5113281072,53.4423127,9.8855333,,,,
5122201882,53.5712553,10.0160517,No-Ne-Bistro,,,
5167753173,53.608066,9.9043762,Eis Café San Marco,,,
5172794550,53.5549909,9.9567445,Café Winklers,Winklers Platz 2,22767,Hamburg
5172812146,53.5524912,9.9572504,Maria Café,Kleine Freiheit 68,22767,Hamburg
5179967439,53.5623112,9.9619796,DÄMER Kaffeerösterei,,,
5181331277,53.5574059,9.9709395,café panda,,,
5186803225,53.5540787,10.0854779,Horner City Bistro Cafe,,,
5233268938,53.567073,9.9686023,Katers Köök,Kleiner Schäferkamp 24,20357,Hamburg
5241156122,53.5778827,9.9511085,Luca Bistro e Vino,Stellinger Weg 11,20255,Hamburg
5244858906,53.5409587,10.1053883,Café Lia,Billstedter Platz 30,22111,Hamburg
5252885388,53.5697683,9.9823053,Wundervoll,Rappstraße 16,20146,Hamburg
5252935439,53.5699666,9.9842766,Café David,Grindelhof 63,20146,Hamburg
5252951827,53.5704306,9.9850458,Salon Wechsel Dich,Grindelhof 62,20146,Hamburg
5262038971,53.545374,9.9872044,Café am Fleet,Deichstraße 45,20459,Hamburg
5282343412,53.6030024,10.0238428,Café Carlos,,,
5312104844,53.5462629,9.976371,Coffee & Cakes,Ditmar-Koel-Straße 8,20459,Hamburg
5319099422,53.5670944,10.0192818,Café Näscherei,,,
5338732659,53.5902246,10.044713,Simit Factory,,,
5338792895,53.58943,10.0457472,Leontes,Fuhlsbüttler Straße 116,22305,Hamburg
5338792897,53.5905063,10.0451827,Copenhagen Coffee Lab,Fuhlsbüttler Straße 132,22305,Hamburg
5341006403,53.5644003,9.9593057,Amarê,Schulterblatt 115,20357,Hamburg
5343555361,53.640597,10.0823292,Cafe Reinhardt,,,
5428634821,53.5568172,9.9628002,The Basement,Beim Grünen Jäger 3,,
5437911211,53.5698525,10.0176187,Café O Fado,,,
5454666854,53.5930986,9.9870965,Brechtmanns Bistro,Erikastraße 43,20251,Hamburg
5469127222,53.5649238,10.0339012,Bistro Belpasso,Wartenau 12a,22089,
5487682717,53.5942916,9.9836792,Möwenblick,Tarpenbekstraße 51,20251,Hamburg
5522224922,53.4104308,10.2197544,Hofcafé Eggers,Kirchwerder Mühlendamm 5,,
5537959624,53.5577371,9.9093232,Elbdeli,Friesenweg 4,22763,Hamburg
5557860221,53.5510729,10.0456882,Relax Café,Wendenstraße 375,20537,
5567588682,53.5406204,10.1013391,La Dersimo,Schiffbeker Weg 4,22111,Hamburg
5582688327,53.5448984,9.9780522,Mili´s Cafe,Neustädter Neuer Weg 20,20459,Hamburg
5600363421,53.5631268,10.0214846,KinEz,Ifflandstraße 69,22087,Hamburg
5617834076,53.6600484,10.0159451,Kaffeepause bei Maren,Diekmoorweg 12a,22419,Hamburg
5640685672,53.5833822,9.9800972,Cafe Lowinskys,Lehmweg 36,20251,Hamburg
5667881837,53.5507003,9.8437886,Weinwirtschaft Kleines Jacob,Elbchaussee 404,22609,Hamburg
5670388162,53.5579924,10.0118252,Le Parisien,Lange Reihe 71,,
5677186252,53.5830685,10.0182924,Linda,,,
5679455044,53.5971192,10.0087444,Schmidt & Schmidtchen,Linnering 1,22299,Hamburg
5703584721,53.5586978,9.9720809,Futur III,,,
5706272199,53.5416713,9.9960612,TRDLO Factory,Am Sandtorpark 14,20457,Hamburg
5713580423,53.5849325,9.9804723,mimosas Brunch Club,,,
5730442617,53.4468096,9.897287,Café Einfach Rosa,Am Blöcken 4,,
5775366253,53.5522492,10.001646,WonderWaffel,Lilienstraße 15,20095,Hamburg
5795791520,53.5539308,9.8656189,Schmidt und Schmidtchen,,,
5795793853,53.5528085,9.8657138,Museumscafé,Baron-Voght-Straße 50,22609,Hamburg
5813412151,53.5202248,9.8137136,Bundts Cafe,Hasselwerder Straße 85,21129,Hamburg
5826418053,53.5046375,10.1691598,Hof Neun Linden,Billwerder Billdeich 480,21033,Hamburg
5841589725,53.5531762,9.9746848,Park Café Planten un Blomen,,,
5851135336,53.647386,10.0117854,Paradeis Café,,,
5858982221,53.551203,10.0031946,Flowers Whisper,Mönckebergstraße 7,,
5873582251,53.5810904,10.0085911,Café Hosch,Poelchaukamp 19,22301,Hamburg
5888267885,53.5745109,10.015271,Braakermühle,,,
5888498470,53.4611467,9.9800684,Cafe am Sand,,,
5891806576,53.464902,9.794005,Wöbcke,,,
5899750861,53.5830582,10.0099007,elbgold,Mühlenkamp 59,22303,Hamburg
5923960437,53.5566249,10.025095,bistro fresh,,,
5936212833,53.5681526,9.9815002,Hanging Out Café,Bornstraße 18,20146,Hamburg
5939659453,53.5797402,9.9463871,Studio Gusto,Methfesselstraße 62,,
5961530484,53.6044492,10.0203491,Cafeteria,Überseering 35,22297,Hamburg
5976254878,53.588144,9.9863719,flamingo flower,Woldsenweg 1,20249,Hamburg
6024281452,53.5772815,10.0185072,Café Mama Silvia,Winterhuder Weg 65,22085,Hamburg
6028150307,53.5755446,10.0293471,LORDS Deli,Beim Alten Schützenhof 16,,
6043548524,53.5869263,10.0200472,Frau Kowolik,Hanssensweg 3,,Hamburg
6090360962,53.6510446,10.0951799,Hamburg-Kaffeerösterei,Stormarnplatz 8,22393,Hamburg
6107008385,53.5516292,9.9653787,Playground Coffee St.Pauli,Detlev-Bremer-Straße 21,20359,Hamburg
6150429385,53.5829774,9.9817277,was wir wirklich LIEBEN - Deli,Hegestraße 28,20251,Hamburg
6172487917,53.5662639,9.8219609,Bistro,,,
6271427821,53.5777222,10.0627107,Cafe May,Stormarner Straße 34,22049,Hamburg
6284629308,53.5506922,9.9302897,Eaton Place,Bahrenfelder Straße 80-82,22765,Hamburg
6304690454,53.5652046,9.9777151,Instinct Coffee,Rentzelstraße 48,20146,Hamburg
6328702787,53.5462089,10.0018003,Schmidtchen Speicherstadt,Poggenmühle 3,20457,Hamburg
6374378143,53.4649811,9.9585032,Café Rennkoppel,,,
6388122997,53.5642931,9.8260961,Bake & Coffee,,,
6389219687,53.5821611,9.9701506,Avenue 95,,,
6418928324,53.4997779,10.0231585,Mühlencafé,Schönenfelder Straße 99,21109,Hamburg
6420600708,53.461006,9.9809525,Ria de Aveiro,,,
6461083068,53.4578752,9.9808759,Café Refugio,,,
6474383737,53.4904754,10.20923,Seemannsgarn,,,
6482258085,53.5593078,9.9644503,Juicery by em,Neuer Pferdemarkt 12,20359,Hamburg
6493765275,53.5642834,9.9816878,Café Pharaonen,An der Verbindungsbahn 10,20146,Hamburg
6501251054,53.593279,9.9448339,Café Pronto,Koppelstraße 49b,22529,Hamburg
6508962809,53.4894253,10.2096255,"Cafe ""in aller Munde""",,,
6513077975,53.52755,10.0557135,Café Schlick,Kaltehofe-Hinterdeich 9,20539,Hamburg
6515215910,53.6171472,10.013538,Café Alsterberg,Maienweg 145,22297,Hamburg
6548502284,53.4586219,9.9842279,Mrs. Waffel,,,
6551499152,53.5454291,9.9652615,Watergate,,,
6553126885,53.5721232,9.9516979,Denkbar,,,
6601169662,53.5644807,9.9753079,Schrødingers,,,
6630974391,53.5491964,9.9339719,Cafe Schmidtchen,,22765,Hamburg
6638332942,53.5256273,10.0206493,Café Lounge Hamburg,,,
6640328607,53.5751657,9.9573596,1407,Osterstraße 50,20259,Hamburg
6640459314,53.5757189,9.9545774,Copenhagen Coffee Lab,Osterstraße 80,,
6640459316,53.5757433,9.954458,Trucys,,,
6641611034,53.5756187,9.955232,THIRDROOM,Emilienstraße 22-24,,
6658822248,53.5537327,9.9294476,Mikkels,Kleine Rainstraße 10,22765,Hamburg
6670057235,53.6595985,10.1902808,Hofladencafé Gut Wulfsdorf,Bornkampsweg 39,22926,Ahrensburg
6712189984,53.611995,10.0585057,Das Café,Schreyerring 27,22309,Hamburg
6747161708,53.6588388,10.1979813,Robben Café,Bornkampsweg 31l,22926,Ahrensburg
6814055709,53.6028806,10.0241948,City-Back-Shop,,,
6870842061,53.5537418,9.9824456,Bistré,,,
6924790948,53.5593059,9.9275529,Cafe Coffeine,,,
6952289096,53.5705483,10.0165997,Café & Bar Amarillo,,,
6960492761,53.5817848,10.0621288,Café Dialog,Straßburger Platz 9,22049,Hamburg
6983536390,53.4871698,10.2191902,Café Flop,Wentorfer Straße 26,,
7006629637,53.5253601,10.0175712,Café Nova,,,
7009861485,53.5848887,9.9803162,eat. drink. love.,,,
7033946193,53.5447494,9.9966922,Genuss Speicher,,,
7080714209,53.5847541,9.9812749,Henk & Henri,,,
7089578179,53.6732122,10.0076089,Campus Suite,Langenhorner Chaussee 560,22419,Hamburg
7101447049,53.5925048,10.043976,Café NEON,Fuhlsbüttler Straße 163,22305,Hamburg
7106754225,53.5538568,9.9291351,Eclair au Café,Kleine Rainstraße 1,22765,Hamburg
7121921386,53.5451271,10.0329772,Presscafé,Süderstraße 112a,20537,Hamburg
7126100825,53.5662236,9.9649784,Café Lorenz,Margaretenstraße 76,20357,Hamburg
7145705485,53.5847545,9.9695297,Kaffee Aramo Roasters,,,
7191907401,53.5519557,10.0534313,Café E.N.A,,,
7195649433,53.5878226,10.0448923,Espresso House,Krüsistraße 7,22305,Hamburg
7205657651,53.5659096,9.9662114,Copenhagen Coffee Lab,Kleiner Schäferkamp 58,20357,Hamburg
7235493120,53.513716,10.2114491,Dallmeyers Backhus,,,
7237484519,53.5925974,9.9598853,Mc Queen,Grandweg 66,22529,Hamburg
7332940921,53.4710359,9.9325579,Caféwerk,,,
7401274697,53.594705,9.9836596,Los Amigos,Tarpenbekstraße 55,20251,Hamburg
7434870526,53.5418999,10.165923,Eiscafe Venezia,Möllner Landstraße 28,22113,Oststeinbek
7502661477,53.608471,10.0089647,Friedrich - Café-Bistro-Bar,Alsterdorfer Straße 283,22297,Hamburg
7510227421,53.5945011,9.9785343,Cafè & Crème,Geschwister-Scholl-Straße 120,20251,Hamburg
7530815402,53.6942672,10.3240934,Coffee Fellows,,,
7562168152,53.5830814,10.0145567,Noor Coffee,,,
7599483931,53.5566919,9.9672957,Copenhagen Coffee Lab,,,
7599714656,53.5648304,9.9839826,Honeybee Breakfast,Grindelallee 18,20146,Hamburg
7611580201,53.5583608,9.9728572,CAFE BY DOKUWA,Marktstraße 21,20357,Hamburg
7649438797,53.4709078,9.8237032,Cafè Priča,Cuxhavener Straße 482,21149,Hamburg
7680108985,53.548652,9.9981124,Marshall Street Café,Schopenstehl 30,20095,
7711434956,53.6259205,10.1378349,,,,
7804247047,53.5584628,10.0124399,blanco,,,
7810939908,53.5512113,10.0032445,Joy&Tea,Mönckebergstraße 7,,
7880920280,53.5590396,10.0126795,vis à vis snackbar,,,
7893962871,53.5551104,9.9905618,Hunt Coffee,,,
7899932320,53.5572867,10.010823,homely,,,
8016363792,53.5429903,9.9982614,Toni,,,
8084280490,53.5990009,9.9138145,Campus Suite,Kieler Straße 573,22525,Hamburg
8120357764,53.5401527,10.0028007,foodlab café,,,
8121848715,53.5123121,10.0891064,bonjour,,,
8190647514,53.5508897,9.9490753,Café Lagos,Louise-Schroeder-Straße 26,22767,Hamburg
8245207240,53.5873576,10.0329539,Nan Café,,,
8333699690,53.4003135,9.975854,Matthies Gartencenter Cafe,,,
8361370753,53.6126328,10.0244553,alstersnack,Alsterdorfer Markt 10,,
8365798311,53.5521059,9.9885873,Camping Coffee,,20354,
8414792654,53.5544981,9.9469226,Kapitel Drei,Hospitalstraße 69,22767,Hamburg
8418479194,53.6044005,10.0300986,Café Zwei Herz,Loki-Schmidt-Platz 7,22297,Hamburg
8433020917,53.5467952,10.0171644,Café Irma,,,
8487338102,53.5617448,9.9398043,Vierundvierzig QM,Susanne-von-Paczensky-Straße 5,22765,Hamburg
8525030710,53.5679416,9.9808149,La Veneziana,,20146,
8602022050,53.4385859,9.9048611,RöstereiCafé Koffietied,,,
8663158815,53.5625282,9.9561087,Cantina 33,Oelkersallee 33,22769,Hamburg
8664313724,53.5646248,9.9592386,The Flower Bar,Schulterblatt 115,20357,Hamburg
8690484157,53.5725378,9.9075262,Park Café am Lutherpark,Holstenkamp 119,,
8780343407,53.7167664,9.9396765,Starbucks,,,
8809434850,53.6500254,10.0131628,Fräulein von Elbe,Langenhorner Markt 12,22415,Hamburg
8826256756,53.7293136,9.8973446,Cafe King,Kieler Straße 69,25451,Quickborn
8827134637,53.4586314,9.983789,Te Cadi,,,
8829216802,53.5568415,9.9278935,Eisfabrik,Bahrenfelder Straße 233,22765,Hamburg
8918435113,53.5685644,9.8254332,Lieberbrook,Schenefelder Landstraße 95,22589,
8939935748,53.5711195,9.9173979,Gewächshaus-Hamburg,Holstenkamp 80,22525,Hamburg
8941397668,53.6135135,9.8997705,Eis Langner,Pflugacker 7,22523,Hamburg
8948085617,53.5713525,9.9582774,Caffè 57 ½,Eppendorfer Weg 57,20259,
8952525143,53.7128826,10.0200086,Bistro & Cafe Seeterrassen,Stormarnstraße 55,22844,Norderstedt
8976060497,53.515984,9.993613,Gözleme Café,,,
8980800962,53.5586568,9.9134562,Qubism,,,
9025843784,53.6817032,9.9828355,KÆF Rösterei & Café,Ochsenzoller Straße 120,22848,
9029795693,53.6808094,10.2431024,Café GOLD,Lübecker Straße 6,22926,Ahrensburg
9063798204,53.6322812,10.0261661,Café Paari,Kleekamp 4,,
9064021646,53.5489561,9.9275319,Patan Café,Rothestraße 37,22765,Hamburg
9067212217,53.5795955,9.9491845,Café Eims,Hellkamp 52,,
9076188084,53.7305533,10.2569392,Croque & Crêpes Bargteheide,Alte Landstraße 38,22941,Bargteheide
9082364531,53.5508139,9.9912211,Isabella,,,
9084506818,53.4742588,9.8762231,Mersin Café,,21147,Hamburg
9155278190,53.4629968,9.9705177,Café ZessP,,,
9164550417,53.5492261,10.0771673,Bistro Dersimo,,,
9180068417,53.5496673,10.0016001,JusTea,,,
9197170798,53.6825425,10.0069427,Eichen Café,Segeberger Chaussee 48,22850,Norderstedt
9221058518,53.5493123,10.077296,Le Dersimo,,,
9257975493,53.5600917,9.9487937,Gegenwind,,,
9290782643,53.6044536,9.8963203,duCafé,,,
9330210303,53.5598456,9.9889058,Dolce Vita,Dammtordamm 4,20354,Hamburg
9387843214,53.5579136,9.9627825,kiosque.,Beim Grünen Jäger 14,,
9389394065,53.4943663,10.0030748,Refugium,Am Inselpark 20,21109,Hamburg
9403372161,53.5718719,9.9560935,MÄDCHEN*CAFÉ,,,
9603525294,53.5708546,9.9781337,Gundermann,,,
9631244752,53.5768316,9.9697014,ujote espresso,Bismarckstraße 88,20253,Hamburg
9633823596,53.5558559,9.9860236,Campus Suite,Valentinskamp 88-90,20355,Hamburg
9687018752,53.6137193,10.0770103,Marco’s Bistro de Glamour,Bramfelder Dorfplatz 4 A,22179,Hamburg
9687018755,53.6131538,10.0773208,Cozymir,Bramfelder Dorfplatz 10,22179,Hamburg
9689682399,53.582421,9.979664,Ændré,Lehmweg 31a,20251,Hamburg
9701139205,53.5557493,9.9904021,Eiscafe San Remo,,,
9705471826,53.4760025,10.134926,Christines Café,Vorderdeich 275,21037,Hamburg
9706610607,53.4595567,9.9814943,Café Bom Dia,,,Hamburg
9771303817,53.5547938,9.9284359,Copenhagen Coffee Lab,,,
9779608370,53.5106993,9.7302371,Brücken Bäckerei,Estebrügger Straße 113,21635,Jork
9783951899,53.5772214,9.9474164,golden bean,,,
9826188719,53.5821957,9.940885,Himmlische Versuchung,Steenwisch 41,22527,Hamburg
9846791718,53.6540977,10.2610809,Rosela,Sieker Landstraße 116,,
9878437717,53.5908272,9.9251275,Café Wonne und Segen,Molkenbuhrstraße 8,22525,
9918847328,53.5916133,10.0457006,MalinaStories Café,Hellbrookstraße 61,22305,Hamburg
9931402617,53.5557996,10.0203474,Café Herzstück,Alexanderstraße 18,20099,
9947271621,53.6356152,9.9190115,Liness,Frohmestraße 11,22457,Hamburg
9951632985,53.5864608,10.0856583,Café Nordwind,Friedrich-Ebert-Damm 79,,
9954236317,53.5932223,9.9870968,Nonna Neta,,20251,
9959602996,53.6009899,9.9910844,Anleger Hamburg,,22297,
9959789143,53.6746932,10.0294482,Campus Suite,,,
9980667217,53.5424246,10.003165,Holsten Bäckerei,Shanghaiallee 15,20457,Hamburg
9980687917,53.5432914,10.0001043,Kaispeicher B Cafe-Bar,,,
9981708842,53.6018336,10.0701184,Kiosk,,,
9988464254,53.5583789,9.9703059,Verlan Cafe,,,
10075640520,53.5122431,10.2519452,The Vintage,Am Rosenplatz 8,21465,Reinbek
10086509589,53.5585905,9.9571723,Café Schneckenhaus,,,
10127734294,53.5518097,9.9400032,Brotstube by Schanzenbäckerei,Neue Große Bergstraße 250,22767,Hamburg
10128031465,53.5806292,9.9685597,Café ROOTS,Eppendorfer Weg 193,,
10152878101,53.6876441,10.0397755,Café am Glashütter Markt,Mittelstraße 62,22851,Norderstedt
10173349106,53.5514321,9.9377431,Merdane Café Patisserie,,,
10175979944,53.5717732,10.0287346,illy,,,
10235689318,53.5878105,10.0369333,Schmidt & Schmidtchen,Wiesendamm 28,22305,Hamburg
10236750827,53.5527036,10.0034998,Kaffee Fleck,,,
10259157000,53.5655873,9.9527665,LUA,Langenfelder Straße 75,,
10268255288,53.4884793,10.2105368,Schmidtchen Bergedorf,Kupferhof 1,21029,Hamburg
10290900235,53.4870214,10.2141235,Eisige Liebe,,,
10572561539,53.5730636,9.9605939,Black Hat Coffee,Eppendorfer Weg 66,,
10575197082,53.4872553,10.2085211,Schmidtchen KörberHaus,Holzhude 1,21029,Hamburg
10589684171,53.5821506,10.0148804,Cheescake Heaven,,,
10749295722,53.5579483,9.8485877,Hygge the farm,Cordsstraße 5-9,22609,Hamburg
10778099091,53.5490621,9.9601083,Champions Coffee,,,
10778432421,53.5542444,10.0181445,Jebena,,,
10780177312,53.5700929,10.0262643,Double Coffee,,,
10780391059,53.620062,9.9488689,Info-Café,,,
10781134950,53.7300919,10.2672943,Café Svenssøn,Rathausstraße 23,22941,Bargteheide
10784368347,53.548278,10.0124908,The Gardens Table,Spaldingstraße 41,20097,Hamburg
10786713845,53.5141806,9.9852519,Die Minibar,Am Veringhof 21,,
10786713850,53.5123496,9.9867171,Aroma,Veringstraße 69,,
10801765828,53.5078406,10.0006563,SUL Portugal Café & Bistro,,,
10823791822,53.5808268,10.1324565,Café Termoli,Kaskadenpark 2,22045,Hamburg
10875226405,53.5588799,9.9636133,Deathpresso,Beim Grünen Jäger 27,,
10886807151,53.5550909,9.9422713,Sandcafé,Max-Brauer-Allee 84,,
10891238470,53.5890406,9.8306689,Beamstop,,,
10896060684,53.6546617,10.0909224,Das Eiswerk Florenz,Heegbarg 31,22391,Hamburg
10911715893,53.5443507,9.9770379,Donutman,,,
10914496650,53.5832201,9.9798869,Mirel,Lehmweg 35,20251,Hamburg
10920151523,53.5791673,9.9565006,MYNT,Lutterothstraße 8,20255,Hamburg
10946039384,53.5945279,9.9976722,Schmidts Bagel,Hudtwalckerstraße 31,22299,Hamburg
10946039385,53.550109,9.9839258,Schmidts Bagel,Alter Steinweg 1,20459,Hamburg
10948791474,53.5585367,9.8114019,Sicily,,,
10949367988,53.5802861,10.012287,CODOS,Mühlenkamp 7,22303,Hamburg
10961541568,53.4081506,10.2082007,Café Molina,Kirchwerder Mühlendamm 75a,21037,Hamburg
10968644740,53.6271349,10.1224312,Kult Eis,Lienaustraße 3,22159,Hamburg
10979325148,53.5523145,10.0412121,alpha Coffee Bar & More,,,
10992597598,53.6072669,9.9031438,Café Steeedt,,,
11016459009,53.6055331,10.0403103,Café Gourmet,Elligersweg 5,22307,Hamburg
11016476066,53.5719737,9.892873,The Roastery,,,
11020474171,53.5373937,10.0150287,Paradiesvogel,,,
11022830900,53.5676849,9.9596834,Café Noem,Lindenallee 48,20259,Hamburg
11030241504,53.4563256,9.9580683,Istan Blue,Eißendorfer Straße 173,21073,Hamburg
11034000941,53.5685662,9.9553009,Good one,Eimsbütteler Chaussee 71,,
11034062005,53.5462678,10.0590222,Boot e.V.,Osterbrookplatz 18,20537,
11034086604,53.5664052,9.909928,Sunsirius Bistro & Markt,Bahrenfelder Chaussee 70A,22761,
11079128456,53.5831322,9.9857124,engelke,,,
11081868396,53.5585047,9.8120555,Strandkind,Elbchaussee 585,22587,Hamburg
11091608964,53.5685399,9.9895593,Okzident,,,
11096826007,53.545823,9.9911823,Sushi Mozart,Katharinenstraße 12,20457,Hamburg
11107709543,53.5696293,10.0171724,Steffs wild roots,Hofweg 13,22085,Hamburg
11110314245,53.5470316,9.996743,Little Tiana,,,
11151315602,53.5514802,10.0021574,Cinnamood,,20095,
11162679623,53.5588529,9.9635331,Kaffeerösterei Deathpresso,,,
11164067874,53.6650134,10.0896603,Cafe Reinhardt - Cafe,Poppenbüttler Hauptstraße 37,22399,Hamburg
11164438990,53.5813345,10.0095869,Kaffee kernig,Dorotheenstraße 36,22301,Hamburg
11179074453,53.5939898,9.9964953,Bubble Tea,,,
11179074554,53.5933495,9.9871031,Marie,,,
11219409636,53.5676616,9.954896,Campus Cafe,,,
11231060159,53.6116429,10.0746118,Café Konditorei Melodie,,,
11235482968,53.5561155,10.0223641,Café Zahnrad,Berliner Tor 21,20099,Hamburg
11267273069,53.5649936,9.9215359,Cafémilonga im el abrazo,Beerenweg 1d,22761,
11279628064,53.5523161,9.932075,Comebuy,Ottenser Hauptstraße 10b,22765,Hamburg
11310189382,53.5521938,9.9398748,CODOS,Große Bergstraße 247,22767,Hamburg
11343177495,53.5621076,9.9643522,Trader,Bartelsstraße 37,,
11358074584,53.56168,9.9652621,blanco coffee,Bartelsstraße 2,,
11360226869,53.653092,10.0904177,Rosalie’s,,,
11360382038,53.5750385,9.9552206,Copacabana Coffee,Emilienstraße 19,,
11367144299,53.5494238,9.9580613,Bei Teresa,,,
11383243669,53.5691308,9.9791869,Cafe Grindel,,,
11383246269,53.5651088,9.9854385,Café Carl,Von-Melle-Park 3,20146,Hamburg
11403900608,53.4597646,9.9823691,Çaglar,,,
11438135740,53.5528651,9.9916631,The Coffee Shop,Poststraße 6,,
11443818059,53.5055038,9.9851822,Ayasofya Café,,,
11443818063,53.506383,9.9859314,Starcafe,,,
11472969820,53.5474551,10.0520761,Klönsnack,,,
11499702509,53.5519495,10.0052255,Röstlich - Coffee Brothers,Mönckebergstraße 2-4,,
11541236251,53.591629,9.9883336,Heavens Gaarden,Eppendorfer Landstraße 96,20249,Hamburg
11542557630,53.6013731,9.9554435,Ottos Eiscafé,Rütersbarg 2,22529,Hamburg
11583861293,53.5945255,9.9845481,belum.coffeebar,Geschwister-Scholl-Straße 32,20251,Hamburg
11616089502,53.6333111,10.0534575,Café Paari,,,
11670460981,53.5699053,9.9786351,Mug & Muse,Grindelallee 139,20146,Hamburg
11727085217,53.4544144,9.9873681,Bulgari,,,
11728676641,53.5536993,9.9847746,Springers,,,
11730064550,53.4562919,9.9862158,Cafe Infinity,,,
11739416205,53.5546313,9.9810766,Comptons,,,
11750861792,53.5769874,9.9429859,Der Geheime Garten - Blumencafé,Grundstraße 16,20257,Hamburg
11799599697,53.5846935,10.013285,Bean There,Forsmannstraße 27,,
11811064810,53.5582871,9.9718808,Teikei,Marktstraße 25,,
11838409683,53.5499256,9.8981972,Kleines Bistro,,,
11838823658,53.5127209,9.9866978,Lovaena Café,,,
11872095184,53.505944,9.9874881,Café yade,,,
11873915875,53.5680317,9.959799,La Bête Noire,Bellealliancestraße 35,,
11881392748,53.5934865,9.899027,Mutterland x Montblanc Haus,Hellgrundweg 98,22525,Hamburg
11881514926,53.6405044,9.9473087,Ottos Eiscafé,Rudolf-Klug-Weg 7-9,22455,Hamburg
11897320839,53.6016684,9.9553429,Wohnzimmer,Rütersbarg 6,22529,Hamburg
11947908822,53.7100611,9.9995877,Start Cafe,Ulzburger Straße 274,22846,
11954671416,53.6190082,9.9017649,Café am Park,,,
11955040982,53.5505369,9.9975543,OMEN Café,Mönckebergstraße 21,20095,Hamburg
12039957248,53.5399211,10.0101352,Bake & Soda,,,
12054072831,53.6150767,10.0527558,Cafe und Hofladen Hof Bullerbü,Fritz-Flinte-Ring 41a,22309,Hamburg
12057667492,53.5257423,10.0199417,Espresso Bar,,,
12057667494,53.5240631,10.0167231,AMARS,,,
12057676265,53.52347,10.0152518,Elbinsel Café & Bistro,,,
12065383280,53.5501936,9.9620833,Hein Hoyer Dreams,,,
12080619597,53.5933967,10.2669221,Brittas Dielen-Café,Hauptstraße 1,22946,Brunsbek
12082805325,53.5596898,9.9870128,Café Blomen,,,
12084018972,53.6159605,10.2404313,Oma in Braak,,,
12104415101,53.5763679,10.0239629,11:11,,,
12118686031,53.5648488,9.7564967,Tonis Elbcafé,Rissener Ufer 23,22559,Hamburg
12123977445,53.5673545,9.9854924,Café Hübris,,,
12143929901,53.5294869,9.9607142,Bistro Ahoi!,,,
12149955504,53.5584527,9.9717558,Moin Karo - Café,Marktstraße 119,,
12155577059,53.5453837,9.9825758,Butterbrot,,,
12163125579,53.5575128,9.970684,Kowalskis,,,
12172755638,53.5684343,10.0185036,Dennys Café & Wein,,,
12188249201,53.5857724,10.0081804,Isioka,,22301,
12188947414,53.5561397,9.9700252,CONSTANT GRIND,,,
12190036127,53.5610216,9.8110136,Roederers Café,,,
12192528557,53.5553543,9.9904743,Leos Cafe,,,
12204976574,53.5663936,9.9788826,Breakfastdream,Bundesstraße 42,20146,Hamburg
12207807539,53.559305,9.9375907,Lille Kinder Buchhandel und Cafë,Lille Torv 3,22765,
12215063865,53.5148376,10.0009374,DOON,,,
12221804046,53.5834317,9.9823665,Herr Max,,,
12221804047,53.5835231,9.982527,Gotcha Matcha,,,
12246387038,53.5813264,9.9700156,Dailycioso,,,
12248397601,53.594427,9.9968076,CULDT - Coffee Unlimited,,22299,
12292235069,53.5406678,9.9994435,Espresso House,,,
12303966943,53.582161,9.9730231,Café LEEV,,,
12306869211,53.5492663,9.9448552,ITALBROT,,,
12327466399,53.4883275,10.2085208,TEA MOTION,,,
12367528680,53.5774953,10.0820073,Bella Notte,,,
12393892531,53.5453195,9.9871068,4 Walls,Deichstraße 47,,
12433854502,53.5942778,9.9772921,La Lumière,Geschwister-Scholl-Straße 137,20251,Hamburg
12438844575,53.501735,10.0099942,Madeira,,,
12438872791,53.5016197,10.0108224,Milchfee,,,
12458826593,53.5519442,9.9923229,Café du Chocolatier,Alsterarkaden 12,20354,Hamburg
12476052932,53.5855202,10.0075288,Copenhagen Coffee Lab,Poßmoorweg 6,22301,Hamburg
12506310998,53.621432,9.9921864,Bartesse,,,
12509819384,53.5438032,10.0021685,Mr. Coffee,Koreastraße 7,,
12512520707,53.5778667,9.9884595,Atelier du par ici,Rothenbaumchaussee 189,20149,Hamburg
12570647050,53.563735,9.9285208,Meet me in the morning,,,
12623984603,53.6538111,10.1147591,Die Ise - Die Chocolaterie,Waldweg 9,22393,Hamburg
