id,lat,lon,name,street,zip_code,city
65763474,53.5573864,10.0098445,ADFC Geschäftsstelle,Koppel 34-36,20099,Hamburg
68413607,53.6499918,10.1618732,Kundenzentrum Walddörfer,,,
156865589,53.5538014,10.084909,Baubüro HN,,,
201812125,53.5502503,9.992872,Hamburgische Bürgerschaft,Rathausmarkt 1,20095,Hamburg
253410313,53.5850268,10.0590121,Gorillas,Alter Teichweg 71,,
257693056,53.5549683,10.0217565,Studierendenzentrum HAW,,,
259980329,53.5801498,9.9756454,AOK,,,
264503029,53.4556927,9.9364976,Turnerschaft Harburg,,,
277790183,53.5973501,10.042436,Die Continentale,Fuhlsbüttler Straße 263,22307,Hamburg
277790190,53.5966036,10.0429085,"Ulf Meins,Klaus Riez,Sebastian Grimme",Fuhlsbüttler Straße 257,22307,Hamburg
277790191,53.5965033,10.0429619,Jucknat & Partner,Fuhlsbüttler Straße 257,22307,
290633652,53.562657,9.9572332,Wrenkh KochEvents,Max-Brauer-Allee 251,,
291151840,53.561719,9.9476999,Finanzamt Hamburg-Altona,,,
294012235,53.5356556,10.0426606,Deichwacht Hamburg-Mitte,,,
298575950,53.6418023,10.0378221,Weiss,Hummelsbüttler Hauptstraße 59,22339,Hamburg
303234623,53.552148,9.9378286,Neues Amt Altona,Große Bergstraße 264,22767,Hamburg
309795404,53.5631484,9.9175287,Lebenswerk Coaching + Beratung Christine Porschke,,,
315111051,53.5457451,9.9732893,Schwedisches Honorarkonsulat Hamburg,,,
319503542,53.5948177,9.9449426,Finanzamt Hamburg Am Tierpark,,,
339978685,53.5674512,9.9759099,Institut für Pharmazie,,,
344618609,53.5439643,9.9199149,Rickmers Reederei/Group,Neumühlen 19,22763,Hamburg
344870985,53.5491939,9.9223876,FuH,,,
345583282,53.5614367,9.9788955,Bezirksamt Hamburg-Mitte Bauamt Verwaltung Planten un Blomen,,,
355598971,53.5564346,9.9242333,Medienagentur teege.me,Planckstraße 7a,22765,Hamburg
360838959,53.5616559,9.9165025,Fast Lane Institute for Knowledge Transfer GmbH,Gasstraße 4a,22761,Hamburg
360841307,53.5612205,9.9164077,ROCCAT GmbH,Gasstraße 4,22761,Hamburg
360842390,53.5629035,9.9165168,CDK Hanseatic Medical Trade GmbH & Co. KG,Paul-Dessau-Straße 3f,22761,Hamburg
360871652,53.5618605,9.9140254,Basko Healthcare,,,
375527999,53.4720158,9.891034,KFZ Sachverständiger Elmers,,,
375677300,53.5546932,9.9406016,Mohr Rechtsanwälte,,,
383677297,53.55248,9.9478284,oose eG,Schomburgstraße 50,22767,Hamburg
391530717,53.7356178,9.9011824,Geschäftsstelle TuS Holstein Quickborn,,,
393174964,53.5756363,9.9533527,Vattenfall Kundencenter,Osterstraße 103,,
393186219,53.5750138,9.9514333,SUNS CARE,Heußweg 22,,
410821998,53.5984057,9.8500478,Taxi-Ruf Schenefeld Gbr,,,
411017022,53.5776821,10.0383649,Canel e.V.,Hamburger Straße 169,,
411017023,53.5768535,10.0377785,Thomas Bockwoldt,,,
422571628,53.5441014,10.0249173,City BKK,,,
422571629,53.5443927,10.0246877,Barmer GEK,,,
427948530,53.5697931,9.9758332,Institut für die Geschichte der deutschen Juden,,,
427948539,53.569677,9.9755631,Forschungsstelle für Zeitgeschichte Hamburg,,,
427948721,53.5696644,9.9760938,Institut für Friedensforschung und Sicherheitspolitik an der Universität Hamburg,,,
432425871,53.6482271,10.2810432,DRK OV Großhansdorf,Papenwisch 30,22927,Großhansdorf
450394233,53.5500569,9.9566927,Silver Monkey GmbH,Nobistor 10,,
462758519,53.6595035,10.0955671,Schiffszimmerergenossenschaft,Heegbarg 89,22395,Hamburg
477335595,53.5460612,9.9616125,Pütz Security AG,,,
497034463,53.561524,9.953253,Christoph Nies Cycles,,,
521465219,53.5468696,9.9723755,Arbeitsgemeinschaft freier Jugendverbände,,,
530693339,53.5576076,9.9915696,Consulado General de Guatemala,,,
530902716,53.5641893,9.8131952,Kundenzentrum Blankenese,Sülldorfer Kirchenweg 2a,22587,Hamburg
541393168,53.5515848,10.0027598,Honorarkonsulat von Kenia,,,
556010401,53.6624666,9.7991457,Finanzamt Pinneberg,Friedrich-Ebert-Straße 29,25421,Pinneberg
567926925,53.5828351,9.9712812,Gorillas,Hoheluftchaussee 76,20253,Hamburg
570516890,53.6077937,10.07153,HafenCity-Media,Bramfelder Chaussee 181,22177,Hamburg
583203491,53.5492566,10.008679,Mobil BKK,Hühnerposten 2,20097,Hamburg
588475216,53.5498259,9.9912661,Handelskammer Hamburg,Adolphsplatz 1,20457,Hamburg
588652039,53.5747314,10.0423069,Nordlicht e.V. Geschäftsstelle Standort Nord,,,
608092050,53.5699506,9.9783829,Hamburger Microcomputer Hochschulgruppe e.V.,,,
610428541,53.653307,10.1029428,Suddenbrock Immobilien,,,
610428542,53.6533447,10.1029243,Dr. Andre Bohnes,,,
615155955,53.5456244,9.9929453,"Bibliothek, Statistisches Amt für Hamburg und Schleswig-Holstein",Steckelhörn 12,20457,Hamburg
615364790,53.5399557,10.0422135,Jobcenter,,,
653913206,53.5532984,9.9295124,Barmer,Bahrenfelder Straße 138,22765,Hamburg
675768834,53.579551,10.1035975,miet-fix Maschinen- & Gerätevermietung,Holstenhofkamp 6,22041,Hamburg
675768844,53.5790953,10.1031798,miet fix - Anhänger,Holstenhofkamp 2,22041,Hamburg
710355003,53.557499,9.9918672,Honorarkonsulat der Republik Guatemala,Esplanade 6,20354,Hamburg
748827204,53.5440433,9.9933578,Honorargeneralkonsul von Sri Lanka,,,
766762630,53.6116077,10.0745907,EHB Rechtsanwälte,Bramfelder Chaussee 226,22177,Hamburg
800936800,53.47152,9.8700666,Der Neue Ruf,Cuxhavener Straße 265b,21149,Hamburg
842591456,53.5798136,10.1202704,Zyto Service,Albert-Schweitzer-Ring 18,,
863595734,53.6523533,10.2610302,,Ahrensfelder Weg 11,22927,Großhansdorf
900583010,53.6425507,10.0462757,Rainer Müller,Hummelsbütteler Markt 1,22339,Hamburg
915434253,53.5952807,9.9467564,Neusoft Technology Solutions GmbH,Hugh-Greene-Weg 2-4,22529,Hamburg
955722481,53.5946462,9.9442718,TUV Rheinland Group,,,
956012339,53.6187464,9.9513065,ASB Hamburg-Eimsbüttel Hauptgeschäftsstelle,,,
978789520,53.6098771,10.0585753,Müller & Förstermann,,,
983452180,53.6812913,9.9965812,LBS Immobilien,Ohechaussee 19A,22848,Norderstedt
983505128,53.6615498,9.7956608,Stadtmarketing Pinneberg,Dingstätte 28a,25421,Pinneberg
1017868272,53.5530432,9.9769408,Handwerkskammer Hamburg,Holstenwall 12,20355,Hamburg
1029373356,53.6607134,9.7973015,Zollamt Pinneberg,Am Drosteipark 1,25421,Pinneberg
1039082036,53.6762079,9.9978952,Jungheinrich AG - Informationstechnologie,,,
1072849245,53.5729975,9.8413673,Generalagentur Giebler und Bredehöft Provinzial Versicherung,Osdorfer Landstraße 251,22549,Hamburg
1112854742,53.7291687,10.2693151,Opternus GmbH,Bahnhofstraße 5,22941,Bargteheide
1115417448,53.5483932,10.0144453,MAYA Kaffee 1991,,,
1282079757,53.578839,10.0457355,Kfz-Sachverständigenbüro Wolfgang Fährmann,Dehnhaide 58,,
1302567766,53.5429013,10.2480894,ASS Aufzugservice Stöckling,,,
1303517455,53.5703999,10.2396195,Rief Schornsteintechnik,,,
1312352056,53.5515189,10.2486391,Daniel Denzau Malereibetrieb,Möllner Landstraße 13,21465,Reinbek
1312352059,53.5516217,10.2489788,Ingenieurbüro Zimmermann & Partner,Möllner Landstraße 11a,21465,Reinbek
1314554046,53.5510293,10.2502942,Lau Verlag,Kirschenweg 10b,21465,Reinbek
1340397731,53.5838294,10.0427538,a cute color,Hufnerstraße 20,22083,Hamburg
1346840733,53.5508011,10.0390766,telent,,,
1375168994,53.5947914,9.9448522,Finanzamt Hamburg für Prüfungsdienste und Strafsachen,,,
1375170086,53.5948303,9.9450392,Finanzamt Hamburg-Eimsbüttel,,,
1383010988,53.6221092,9.9519955,Grossmann & Berger,Tibarg 37,22459,Hamburg
1415886403,53.4224783,10.0152929,Turnverein Meckelfeld von 1920 e. V.,,,
1418901073,53.6742646,10.2377502,Wentzel Dr.,,,
1423405007,53.5791896,10.0736337,Wohnungsgenossenschaft Hamburg-Wandsbek von1897 eG,Gladowstraße 20,22041,
1426560261,53.5898846,10.044901,Adventure Tours,Fuhlsbüttler Straße 119,22305,Hamburg
1427320278,53.4645725,9.984568,Institut für Lufttransportsysteme,,,
1427320280,53.4645292,9.984708,Institute of Control Systems,,,
1452699119,53.462837,9.9733943,A&L Personallogistiker,,,
1472936558,53.5617632,9.9941542,msg nexinsure ag,Neue Rabenstraße 6,20354,Hamburg
1486350120,53.554958,10.0548689,SAGA Geschäftsstelle Mitte,Hammer Landstraße 120,20537,Hamburg
1491994761,53.5962105,9.9835824,i.do - Berufsprofiling für Mütter,,,
1502211905,53.5616216,9.9470609,Lemke Personalservice,,,
1502662523,53.5792093,9.9866084,Generalkonsulat - Uruguay,Hochallee 76,20149,Hamburg
1524859705,53.5492448,10.0001671,Grüne Jugend Hamburg (GJHH),,,
1561370931,53.54862,9.98975,Hamburger Abendblatt Digital,,,
1589625410,53.580306,9.961733,Musicworks,Heckscherstraße 3,20253,
1590992483,53.5876009,9.9491406,Rock Lobster Webdesign,,,
1613188095,53.5595065,9.8855463,Engel & Völkers,,,
1613188106,53.5596035,9.8829351,Grossmann & Berger,,,
1613188291,53.559581,9.8824033,Mollwitz - Architektur und Grundstücke,,,
1673123969,53.5544546,9.9901045,ROSE & PARTNER – Rechtsanwälte Steuerberater,Jungfernstieg 40,20354,Hamburg
1673178703,53.6197919,9.9518145,Rechtsanwälte Puskas & Kollegen,Tibarg 38,22459,Hamburg
1673428667,53.5534653,9.9775943,Rechtsanwältin Ina Marie Koplin,Bei Schuldts Stift 3,20355,Hamburg
1692991555,53.579152,10.0645439,Landesgeschäftsstelle Piratenpartei Hamburg,Elsässer Platz 1,22049,Hamburg
1752252644,53.5796025,10.1190264,Baukeramik Pegel,,,
1752262462,53.579375,10.1187657,Metallbau Senkpiel,Albert-Schweitzer-Ring 12,22045,Hamburg
1752263921,53.5793702,10.1185008,Tischlerinnung,Albert-Schweitzer-Ring 10,22045,Hamburg
1752266357,53.5801675,10.1206043,Draeger Safety,Albert-Schweitzer-Ring 22,22045,Hamburg
1752281597,53.5789996,10.1217362,Hilti,Kuehnstraße 73,22045,Hamburg
1752281606,53.5788503,10.1211594,OKI,Kuehnstraße 71,22045,Hamburg
1778947621,53.5976726,9.9967697,ALT/SHIFT,Alsterdorfer Straße 59,22299,Hamburg
1783580668,53.5641851,10.0225531,Generalkonsulat der Republik Indien,Graumannsweg 57,22087,Hamburg
1783580675,53.6464997,10.1839796,Honorarkonsulat der Republik Albanien,,,
1783580679,53.5446991,9.9447167,Honorarkonsulat der Republik Mosambik,,,
1783664528,53.5526617,9.9965328,Donner & Reuschel AG,,,
1786248261,53.6259903,10.0261189,Rechtsanwalt Lampe,Ratsmühlendamm 19,22335,Hamburg
1787908170,53.5570668,9.9916616,Honorarkonsulat des Vereinigten Königreichs Großbritannien und Nordirland,,,
1790471119,53.5764498,9.9181593,Logos Verkehrsplanung und Verkehrstechnik,Winsbergring 42,22525,Hamburg
1809979620,53.5749301,10.0373855,HUK Kundendienstbüro Christiane Bals,Holsteinischer Kamp 1,22081,Hamburg
1813589721,53.5494183,9.9928391,Waku Waku,,,
1817095676,53.4625979,9.9782074,Die Linke Harburg,Wallgraben 24,21073,Hamburg
1842970345,53.614612,10.008554,AMS-Event Mobility,,,
1854143192,53.6004707,9.8362843,Bürgerbüro,,,
1859055064,53.5850192,9.950662,Rauhes Haus - Ambulante Hilfe,,,
1867097594,53.5483349,10.0249613,alfatraining Bildungszentrum,Frankenstraße 12,20097,Hamburg
1900211313,53.5798934,9.9882749,Generalkonsulat der Republik Ecuador,,,
1900211314,53.5732293,9.9882063,Honorarkonsulat der Republik Kenia,,,
1900211327,53.5974428,10.0742184,Honorarkonsulat der Republik Moldau,Haldesdorfer Straße 46,22179,Hamburg
1900211328,53.5485491,9.9883903,Honorarkonsulat der Vereinigten Mexikanischen Staaten,Großer Burstah 42,20457,Hamburg
1900211329,53.5708293,9.9879651,Honorarkonsulat des Haschemitischen Königreichs Jordanien,,,
1912735060,53.5539195,9.987538,Kulturbehörde,,,
1912743390,53.5572263,9.9882829,Öffentliche Rechtsauskunft- und Vergleichsstelle Hamburg,,,
1918693923,53.4144028,10.2650606,Gemeindebüro,,,
1927281455,53.598276,9.8581079,Provinzial,,,
1927285253,53.597907,9.856295,Bärbel Petrikowski-Cieslak,,,
1927496535,53.5986404,9.8588128,Abgeordnetenbüro Frank Schmitt,,,
1927558454,53.598962,9.8494577,West Umzüge,Altonaer Chaussee 36,22869,Schenefeld
1946607824,53.5992767,9.8485717,DEVK Lars Ziegler,Lornsenstraße 3,22869,
1948006870,53.5632912,9.8099502,Marquardt&Noack Immobilien,,,
1960874663,53.5548126,9.9840088,Honorarkonsulat Norwegen,,,
1961353150,53.7213061,9.9877067,Olli-G Design,Zaunkönigweg 16,22846,Norderstedt
1962443448,53.5653139,9.8339953,IconScreen,Kronprinzenstraße 26,22587,Hamburg
1964221091,53.5381434,10.0277521,SILPION IT-Solutions GmbH,Brandshofer Deich 48,20539,Hamburg
1972807649,53.5520079,9.9917201,Honorarkonsulat Belarus (Weissrussland),,,
1972807655,53.5523768,9.9927006,Honorarkonsulat Lettland,,,
1974102878,53.5505151,9.9873229,Honorarkonsulat Kolumbien,,,
1983595836,53.5458993,9.9816694,Breeze Industrial Packing,,,
1983595859,53.5482982,9.9830885,COSCO,Herrengraben 74,20459,Hamburg
1991934244,53.6269765,10.0248992,Pflegedienst Reimers & Muroni,Erdkampsweg 7,22335,Hamburg
1992428951,53.5602038,9.9268448,,Bahrenfelder Steindamm 41,22761,Hamburg
1999607090,53.556799,9.9860053,Bigpoint GmbH,,,
2012099289,53.5601602,9.9948036,Akademie für Publizistik,Warburgstraße 8-10,,
2016698984,53.5526291,9.9842084,Generalkonsulat Republik Korea,,,
2024632665,53.6676863,10.2288537,Allianz Günther Derjung,,,
2025507694,53.70903,10.2117743,Netto Büro Hamburg / Schleswig-Holstein,,,
2026745382,53.4706804,9.8539366,Alianz,,,
2094827162,53.7087983,10.2310235,Ammersbeker Sport- und Landschaftsbau,Timmerhorner Straße 2,22949,Ammersbek
2094827163,53.7088299,10.2307633,Autoankauf,Timmerhorner Straße 2,22949,Ammersbek
2112104444,53.5551614,10.0087014,Erzbistum Hamburg Referat Kinder und Jugend,,,
2117576798,53.5450745,9.9705198,Elbe Erlebnistörns,,,
2117790923,53.5751535,10.0216732,SWYM - Die Schwimmschule,Winterhuder Weg 90,22085,Hamburg
2125070706,53.5555266,10.0298286,Naturschutzjugend Hamburg,Klaus-Groth-Straße 21,20535,Hamburg
2125700209,53.5502454,9.9823995,Buchhaltung Röhm,Michaelispassage 7,,
2125772815,53.5520497,9.9883241,Offen Group,Bleichenbrücke 10,20354,Hamburg
2132542707,53.5457603,10.027582,Bundesnetzagentur Außenstelle Hamburg,,,
2138018965,53.5509151,9.9810349,BBS Rechtsanwälte,,,
2143501624,53.6629049,10.2859439,Reisebüro Stinnes,Schaapkamp 1b,22927,Großhansdorf
2151596402,53.5515428,9.9807074,Andreas Bunk Landschaftsarchitekt,,,
2154742116,53.5614467,9.9148753,Haiilo,Gasstraße 6a,,Hamburg
2188338859,53.5651266,10.0421997,Generalkonsulat von Chile,Hirschgraben 30,22089,Hamburg
2199252341,53.4811625,10.2186585,Ortsverband ASB Hamburg-Bergedorf / Rothenburgsort e. V.,,,
2200731785,53.5451215,10.0091869,Dole,Stadtdeich 7,20097,Hamburg
2229407933,53.5917025,9.9291267,Phoenix Security,Kieler Straße 407,22525,Hamburg
2246200685,53.6505514,10.1622277,Naval Architects & Marine Contractors Ltd,,,
2262370937,53.5903758,10.0902962,RMT GMBH,,,
2270039479,53.7293021,10.2602548,Gibbesch Immobilien,,,
2270436709,53.5629153,9.9167349,Heuer & Sachse Werbeagentur GmbH,Paul-Dessau-Straße 3c,22761,Hamburg
2270862604,53.4906525,10.2065766,Jugendberufsagentur,,,
2270862605,53.4905778,10.2063575,Agentur für Arbeit,,,
2306837951,53.5457127,9.9930225,Klub.k,,,
2306851006,53.5423941,9.9952648,Hanjin Shipping,,,
2306883443,53.5423622,9.9976815,Grossmann&Berger,,,
2311078757,53.5985103,9.9973184,"Bündnis90/DIE GRÜNEN, Kreisverband Hamburg-Nord",Bussestraße 1,22299,Hamburg
2311086457,53.5985121,9.9973961,"Bündnis90/DIE GRÜNEN, Fraktion Hamburg-Nord",Bussestraße 1,22299,Hamburg
2318514744,53.6038465,9.8952092,HUK-Coburg,,,
2318849927,53.5414921,9.986596,e3light,,,
2318849928,53.5412338,9.9861534,Meissler & Co,,,
2318864606,53.5416801,9.9897099,Engel & Völkers,,,
2321859551,53.556567,9.9627439,Ban Canteen,,,
2322343498,53.4850761,10.2141333,BÜNDNIS 90 / DIE GRÜNEN - Kreisverband Bergedorf,Töpfertwiete 28,21029,Hamburg
2341188460,53.5492417,10.0001844,BÜNDNIS 90/DIE GRÜNEN Landesverband Hamburg,,,
2341650882,53.5906348,10.0027401,Bendfeldt Immobilien,,,
2345406400,53.5979485,9.9470898,Norddeutscher Rundfunk,Hugh-Greene-Weg 1,22529,Hamburg
2347260859,53.6656648,9.9795969,Books on Demand GmbH,In de Tarpen 42,22848,Norderstedt
2352607648,53.5852756,10.0086381,PPI AG Informationstechnologie,Moorfuhrtweg 13,22301,Hamburg
2353621836,53.6012129,9.9902527,freenet.de AG,,,
2384054369,53.4725843,9.8396627,Loch & Braunsdorf Immobilien,,,
2387339823,53.5566032,10.0183379,Weiterbildung Hamburg,Steindamm 91,,
2388714840,53.5253349,10.0235382,Betonfirma KBK,Neuhäuser Damm 27,20539,Hamburg
2402556885,53.4722569,9.848009,GTÜ-Prüfstelle,,,
2404550433,53.4602843,9.9785659,luenzmann architektur,,,
2406660759,53.52704,9.7411075,Altländer Honig-Manufaktur & Imkerei,Groß Hove 82,21635,Jork
2425850512,53.5531712,9.9937274,ATG Alster-Touristik GmbH,,,
2430615985,53.5666,9.9571642,milch & zucker AG,Eimsbütteler Chaussee 23,20259,
2434964337,53.5912371,10.0992556,Fis Organisation GmbH,,,
2442651784,53.4722571,9.9309629,WKC Hamburg GmbH Planungen im Bauwesen,,,
2447846950,53.5799578,10.1031845,Salewsky Anwaltskanzlei,Ahrensburger Straße 105,22045,Hamburg
2463751413,53.5811516,9.931279,SKILL Networks,,,
2463752848,53.5812352,9.9314381,PROMO Datentechnik & Systemberatung,,,
2465057373,53.5716732,10.0707898,Bezirksamt Wandsbek,,,
2469770496,53.6609554,9.8015621,MAKRO Immobilien,Damm 6,25421,Pinneberg
2471286299,53.5714601,10.0706896,Bezirksamt Wandsbek - Standesamt,Am Alten Posthaus 1,22041,Hamburg
2476389652,53.5393885,9.9932576,NEW WORK Pier,,,
2482438998,53.5836929,9.9734065,screenmakers,Abendrothsweg 65,20251,
2495986413,53.5599008,9.9283898,Das Aufklebeamt - Werbegrafik,,,
2505862942,53.5566081,9.9233894,SENDESIGNAL Dialog & Design OHG,Planckstraße 13,22765,Hamburg
2506544248,53.7283406,10.2688167,Die Grünen,,,
2507158825,53.7292696,10.260213,Jutta Werner,,,
2507158903,53.7292787,10.2602274,Sven-Arne Werner,,,
2509550846,53.5857207,9.875152,CKP Bausanierung,,,
2509550848,53.5861313,9.8751573,YourNetwork Hamburg,,,
2515960441,53.6819967,10.0319614,M&P Gebäudeservice,Tangstedter Landstraße 500,22851,Norderstedt
2516016899,53.545324,10.0259324,Alphabeta GmbH,,,
2516080609,53.541795,10.0014999,Greenpeace e.V. Deutschland,Hongkongstraße 10,20457,Hamburg
2517719355,53.5412506,9.9864432,Hansestadt Immobilien,Am Kaiserkai 65,20457,Hamburg
2523326816,53.5575741,10.012632,Haus der Kirchlichen Dienste,,,
2525381148,53.5575771,10.012428,Caritasverband für Hamburg,,,
2534045746,53.4862517,10.2050567,Jobcenter,,,
2543226195,53.5565508,10.0183294,Beratungsstelle Weiterbildung Hamburg,,,
2546182346,53.5560041,9.9302665,coininaction d.sign,,22765,Hamburg
2546606764,53.5576381,9.9309291,Monkeys Music Club,Barnerstraße 16,,Hamburg
2550426041,53.5364116,10.0583176,Baby Natur Versand,Gustav-Kunst-Straße 2,20539,Hamburg
2562178702,53.6406335,9.9470888,ProNieNo,Rudolf-Klug-Weg 9,22455,Hamburg
2562184314,53.6404625,9.9467804,Hanseatic Capital,,,
2562624516,53.5510288,9.9374106,FlexCard GmbH,Bugdahnstraße 5,22767,Hamburg
2569639194,53.5542304,9.990516,armada consulting,Jungfernstieg 38,20354,Hamburg
2569654013,53.5541954,9.9905428,LOOK OUT! Modelmanagement Hamburg,Jungfernstieg 38,20354,Hamburg
2584251281,53.6530712,10.1036995,KFZ Gutachter,Stadtbahnstraße 39a,22393,Hamburg
2584251287,53.6533093,10.1059777,Itzehoer Versicherungen,,,
2584281274,53.6535325,10.1036053,CDU Bürgerbüro,,,
2584281284,53.6535325,10.103513,Allianz,,,
2584281288,53.6535302,10.1037015,Pflegedienst im Alstertal,,,
2590874314,53.5416155,10.0013117,Greenpeace Hamburg,Hongkongstraße 10,20457,Hamburg
2595613964,53.5582915,9.8090979,Dipl.-Psych. Carola Lutz,Bremers Weg 2,22587,Hamburg
2620060844,53.5791254,10.1209329,Concept2 Deutschland GmbH,Kuehnstraße 71,22045,Hamburg
2621922627,53.5959893,10.0628991,Willy Schmidt Büroservice,Bramfelder Chaussee 48,22177,Hamburg
2645523327,53.459932,9.9850054,Allianz Martin Naumann,,,
2659441103,53.4577495,9.9796697,Gesundheitsamt Hamburg-Harburg - Außenstelle Familie,,,
2661599175,53.4571012,9.9788195,württembergische,,,
2661599300,53.4575156,9.9791535,Jungenarbeit Hamburg e.V.,,,
2668424419,53.5970178,9.9764764,Internetq,Christoph-Probst-Weg 3,20251,Hamburg
2673439836,53.5496516,9.9812654,OBERMEYER,Michaelisstraße 24,20459,Hamburg
2680689954,53.593659,9.9883968,Maklerbüro R. Boisen,Eppendorfer Landstraße 132,20251,Hamburg
2680854328,53.5743864,10.0584799,Evert & Pausch Rechtsanwälte-Partnerschaft,Eilbeker Weg 197,22089,Hamburg
2712295288,53.5791239,9.9659005,DMSG - Deutsche Multiple Sklerose Gesellschaft Landesverband Hamburg e.V.,Eppendorfer Weg 154-156,20253,Hamburg
2721263206,53.5504991,9.9985633,RICHTERRECHTSANWÄLTE,Mönckebergstraße 17,20095,Hamburg
2723591502,53.5663359,9.9569557,magenta studio Druckvorlagen GmbH,Eimsbütteler Chaussee 21,20259,Hamburg
2732766963,53.5814188,9.9510853,Gravning,,,
2747662699,53.4358928,10.0086199,HypoKontor,Vogteistraße 41a,21079,Hamburg
2763497266,53.5558811,10.0301273,Cadlife GbR,Klaus-Groth-Straße 25b,20535,Hamburg
2763682220,53.5470411,9.9849685,mach 51,,,
2774648194,53.5521699,10.0122545,Reisering Hamburg,,,
2779017131,53.4870686,10.2119094,von der Heide,,,
2779041979,53.4866235,10.2121805,HSV Abteilungsbüro Rollstuhlsport,,,
2781513066,53.4595194,9.976989,Sieger Vermögensberatung,,,
2789061870,53.475915,10.2023293,GALAB Laboratories GmbH,Am Schleusengraben 7,21029,Hamburg
2826086644,53.5575931,9.9311392,Barner 16,,,
2826101717,53.5577381,9.9310802,17digital,,,
2830896950,53.5711285,10.0246183,Team Centric Software,,,
2832964416,53.5426166,10.0089966,HMV Hanseatische Materialverwaltung gGmbH,Stockmeyerstraße 41-43,,
2841872229,53.6645022,10.2264608,Hempel & Knappert Tankservice,,,
2851286640,53.4679761,9.8924315,Revierförsterei Hausbruch,,,
2860454920,53.5549539,9.9839563,Hanselaw Hammerstein und Partner,Caffamacherreihe 5,20355,Hamburg
2867199072,53.604443,10.0429112,Barmbek Working Class,Münstermannsweg 2,22309,Hamburg
2876397676,53.6671257,10.2328104,Agentur für Arbeit,,,
2900683952,53.5242249,10.0179102,Stadtteilladen Veddel aktiv e.V.,Immanuelstieg 5,20539,Hamburg
2914099093,53.5852292,10.0257613,Fugen Roesner,,,
2918616135,53.5495682,9.9915066,Europa-Union Hamburg e.V.,Adolphsplatz 1,20457,Hamburg
2919461597,53.5681083,9.9641194,AWO Sozialstation,,,
2919467718,53.5672891,9.9645864,Sabine Gruber Immobilien,,,
2923381211,53.4934837,10.2069132,Praxisklinik,Alte Holstenstraße 16,21031,Hamburg
2928914507,53.5817468,10.0116624,Grossmann & Berger,Mühlenkamp 34,22303,Hamburg
2933004657,53.6739895,10.2417983,Kanzlei Roß & Partner,,,
2965999767,53.5462607,9.9894153,uhrzeit.org GmbH,Holzbrücke 7,20459,Hamburg
2984604358,53.567555,9.9749697,Max-Planck-Institut für Meteorologie,Bundesstraße 53,20146,Hamburg
2985008033,53.6740468,10.2416947,SHBB Steuerberatung,,,
2987777859,53.6599851,10.3122509,Dr. Schaper,An der Buschkoppel 3,22955,Hoisdorf
2997264037,53.675943,9.8029696,FLSmidth Hamburg,Haderslebener Straße 7,25421,Pinneberg
2999311267,53.6041509,10.0277215,KWB Koordinierungsstelle Weiterbildung und Beschäftigung e. V.,Kapstadtring 10,22297,Hamburg
3014387069,53.5272629,10.0122003,Hauptzollamt Hamburg-Stadt,,,
3021262340,53.5481928,10.0039632,Bauer Media Group,Burchardstraße 11,20095,Hamburg
3021293382,53.5462723,10.0002816,NORD EVENT GmbH,,,
3046245532,53.4655345,9.9837929,BeOne Hamburg GmbH,Harburger Schloßstraße 30,,
3057065758,53.5264649,9.9462641,PTS Logistics,Am Vulkanhafen 6,20457,Hamburg
3074107018,53.4674699,9.9859797,SeaTerra,Lotsestieg 6,21079,Hamburg
3093774019,53.596057,9.9050625,Frimo,,,Hamburg
3095941839,53.4691624,9.8547034,"Dr. med. Christian Grau
Alexander Zorn",Neugrabener Bahnhofstraße 33,21149,Hamburg
3100190955,53.5805318,9.9465314,Mieterverein zu Hamburg,,,
3106969381,53.46589,9.98721,BDB Landesgeschäftsstelle Hamburg,,,
3121832765,53.4269684,10.307681,Creativ Bau Los,,,
3121870760,53.4277725,10.3098945,katrin hojer - grafik design,,,
3121873741,53.4267323,10.3127661,Andreas Prahl - Sicherheitstechnik,,,
3121875182,53.4206765,10.315109,Brüggemann Energiekonzepte,,,
3121901242,53.4241014,10.3213622,Sternenpyramide,,,
3123653234,53.6796026,10.0163962,Pastorat,Eichenkamp 14,22417,Hamburg
3123758772,53.5464141,9.9733504,Stattreisen Hamburg e.V.,Kuhberg 2,20459,Hamburg
3124412925,53.5487028,10.024966,date up,Frankenstraße 7,20097,Hamburg
3128994039,53.4609358,9.9796616,Allianz Versicherung Tchanra & Tchanra,,,
3129268992,53.5497851,9.9913613,eBusiness-Lotse Hamburg,Adolphsplatz 1,20457,Hamburg
3131056109,53.5818337,9.9436585,elbdudler GmbH,Lutterothstraße 100,20255,Hamburg
3131896036,53.5454555,9.9779517,KiteWorldWide,Neustädter Neuer Weg 6,20459,Hamburg
3139335715,53.5810458,9.9378351,hej Team,,,
3146065166,53.5493246,9.9958468,ABOUT YOU,Domstraße 10,20095,Hamburg
3148212017,53.5885538,9.8756328,DEVK,,,
3149812042,53.551255,10.0138997,Generali,,,
3150273377,53.5499553,10.0040554,Beehive Coworking,,,
3170152694,53.5696873,9.9776052,Franziskanerkonvent Hamburg,,,
3183008173,53.5799422,9.9418064,Steuerring,,,
3193108060,53.5492413,9.9228809,Carl Blunk Grundstücksverwaltung,,,
3214908173,53.7270835,10.2522381,Norbert Prehn,,,
3216000683,53.6758791,10.2383798,Provinzial Versicherungen,,,
3216000684,53.675855,10.2378986,Techniker Krankenkasse,,,
3219911924,53.5578067,9.9892063,Raffay & Fleck Patentanwälte,Stephansplatz 2 - 6,20354,Hamburg
3221627290,53.6413505,10.0802092,Engel & Völkers,Wellingsbüttler Weg 117,22391,Hamburg
3221693751,53.6272571,9.9505443,Nähschule Hamburg,Paul-Sorge-Straße 51a,22459,Hamburg
3227877029,53.5533233,9.9848636,KPMG AG Wirtschaftsprüfungsgesellschaft,Fuhlentwiete 5,20355,Hamburg
3236944291,53.5528947,9.9997654,Honorarkonsulat Island,Gertrudenstraße 3,20095,Hamburg
3240230668,53.5552626,10.0007056,Hamburg Wasser Kundencenter,,,
3240230674,53.5531346,9.9993012,Warburg-HIH Invest,,,
3241108813,53.6749162,10.2402615,Markt - Stormarner Tageblatt,,,Ahrensburg
3249907780,53.6612935,10.0065874,ClassiX,Oehleckerring 11,22419,Hamburg
3253184454,53.5723618,9.8932665,HSP STEUER Hamburg West GmbH & Co. KG,Luruper Chaussee 125,22761,Hamburg
3265069371,53.5517713,9.9573238,große freiheit – Gründeretagen,Simon-von-Utrecht-Straße 1,20359,Hamburg
3266787519,53.5242018,10.2172274,Repack Industrie-Verpackung,Glinder Weg 1a,21509,Glinde
3281180290,53.5450924,9.9704473,Barkassen-Meyer,,,
3283958867,53.5532247,9.9128823,MT Werbetechnik,,,
3287274961,53.5650155,9.9208367,Jimdo GmbH,Stresemannstraße 375,22761,Hamburg
3301475400,53.5517961,9.957242,PixelKiosk,Simon-von-Utrecht-Straße 1,20359,Hamburg
3314622896,53.5568753,10.0098157,BUND-Landesverband Hamburg e. V.,Lange Reihe 29,20099,Hamburg
3326676793,53.4655815,9.9740744,Deutsche Telekom,Buxtehuder Straße 25,,
3336730329,53.5742294,9.8437943,Katja Lichtenstein Rechtsanwältin,,,
3336730331,53.5732228,9.8451462,Henningsmeier Rechtsanwälte,,,
3343742294,53.5623857,9.959547,mindmatters,Eifflerstraße 43,22769,Hamburg
3358599859,53.5545556,10.0021633,Grundeigentümerverband Hamburg,,,
3359834748,53.5743173,10.1889668,,Kiebitzhörn 28,22885,Barsbüttel
3373750397,53.5478294,9.97998,Reisen und Bücher am Michel,Wincklerstraße 6,,
3385732048,53.5839887,9.855146,Saga-GWG Geschäftsstelle Osdorf,Bornheide 10,22549,Hamburg
3397354111,53.548932,9.9918865,Honorarkonsulat der Republik Kolumbien,,,
3409667604,53.5956939,10.0013576,Cäsar&Co Immobilien,,,
3410346604,53.4675063,9.9707144,luenzmann architektur,,,
3411362425,53.681981,9.9872845,Barmer,Europaallee 1,22850,Norderstedt
3412583386,53.7066677,9.9833166,Stahlmann Immobilien KG,Friedrichsgaber Weg 353,22846,Norderstedt
3417602101,53.5450233,9.9976646,Hauptverwaltung Hamburger Hafen und Logistik,Bei St. Annen 1,20457,Hamburg
3431408689,53.5286571,10.1485052,Jobcenter Mümmelmannsberg,Feiningerstraße 14,22115,Hamburg
3443344574,53.5690452,10.1642451,Sascha von der Born Immobilien,Hauptstraße 38i,22885,Barsbüttel
3443344575,53.5690041,10.1639177,Kanzlei Petrausch & Partner,Hauptstraße 38h,22885,Barsbüttel
3446613367,53.633659,9.8558086,OFB-Objektfunkbau GmbH,Gärtnerstraße 81F,25469,Halstenbek
3447352518,53.5816499,10.0108141,The Passionist,Poelchaukamp 1,22301,Hamburg
3448986382,53.5455759,9.9762445,"Gössler Kinz Kerber Schippmann
Architekten",,,
3451016366,53.6036428,10.154302,Naturheilpraxis Ina Kollmorgen,,,
3452067720,53.5538201,10.0029166,,,,
3456200911,53.5517717,9.9301043,Hamburger Sparkasse,Bahrenfelder Straße 83,22765,Hamburg
3458070039,53.5523396,9.9959641,"Marcard, Stein & Co",,,
3460178867,53.5545607,9.9812273,WK it consultants,,,
3462103465,53.5449171,9.9773625,LuzLicht,,,
3479913211,53.5836129,9.8807923,H-SEC,,,
3487468370,53.5488012,10.0025623,Tegtmeier Internet Solutions GmbH,Burchardstraße 14,20095,Hamburg
3503894268,53.5520051,9.9962173,Generalkonsulat der Republik Kroatien,,,
3507175018,53.5907682,9.9740346,Allianz,Martinistraße 52,20251,Hamburg
3507175027,53.5906411,9.9741928,carepoint movement,Martinistraße 52,20251,Hamburg
3508166904,53.5500607,9.8551511,Hermann Reemtsma Stiftung,,,
3526593914,53.5452529,9.9859554,"Costard, Tögel & Kollegen",Kajen 6-8,20459,Hamburg
3534074563,53.5765653,9.9193314,Jungheinrich Vertrieb Deutschland Niederlassung Hamburg,Schnackenburgallee 22,22525,Hamburg
3553897101,53.5424602,9.9948371,Hanns R. Neumann Stiftung,,,
3560701385,53.6535629,9.829162,Ingeborg List Immobilien,,,
3564324155,53.4620588,9.9756332,Bündnis 90/Die Grünen Harburg,,,
3578188433,53.6881704,9.9967423,Sprachfuchs Übersetzungsservice GmbH,Wiesenstraße 34,22850,Norderstedt
3578983553,53.5463063,9.9764826,Suomen kunniakonsulaatti,Ditmar-Koel-Straße 6,20459,Hamburg
3581236729,53.6506707,10.0978648,Bluhm & Perner,,,
3590774517,53.5292008,9.9613815,Zoll,,,
3592564640,53.6166006,10.001331,Deutsches Zentrum für Luft- und Raumfahrt,Sportallee 54 a,22335,Hamburg
3600793212,53.5665839,9.9968942,Rechtsanwälte Kienast & Gareis,,,
3603412568,53.5682317,10.0920401,Engel & Völkers,,,
3603536765,53.5487587,10.0139139,Salo und Partner,,,
3603697373,53.5453137,10.0222131,"Landesbetrieb Straßen, Brücken und Gewässer",,,
3603697375,53.5460221,10.0208,HUK-Coburg,,,
3603697379,53.545173,10.0214056,Bundesbauabteilung,Nagelsweg 47,20097,Hamburg
3603697384,53.545989,10.0207979,DFN CERT,Nagelsweg 41,20097,Hamburg
3603697392,53.5440784,10.0213817,VTG AG,Nagelsweg 34,20097,Hamburg
3603753023,53.5448944,10.0189033,Evergreen Shipping Agency (Deutschland) GmbH,,,
3610548893,53.5856381,10.0536334,Hauswartbüro Thor,Halbenkamp 1,22305,Hamburg
3613471993,53.5520109,10.0113925,Sindbad Reisen,,,
3613471994,53.5520654,10.011388,EST Lorek - Ekspresowo Solidnie Tanio,,,
3613471995,53.5520384,10.0113903,Becker Reisen Hamburg,,,
3613471996,53.5520905,10.0113859,Polenreisen,,,
3613546145,53.5655946,9.9868955,Techniker Krankenkasse,,,
3613640479,53.5475894,9.9675715,Honorarkonsulat Irland,,,
3614500129,53.5486761,10.003485,Sprinkenhof GmbH,,,
3617285496,53.5008064,10.1888882,Netthelp - Schülerfirma in Hamburg-Bergedorf,Richard-Linde-Weg 49,21033,Hamburg
3618277573,53.534201,10.0397189,SPD Carola Veit,,,
3618318683,53.5503753,10.0263284,KALO Gruppe Kalorimeta,,,
3620670234,53.5467349,10.0240658,Veolia,,,
3646616036,53.5978287,9.9003064,Deutsche Bahn,,,
3646616038,53.5980055,9.8988472,Linde AG Linde Gas,,,
3655270097,53.5524085,10.0019458,Poicon GmbH & Co. KG,Lilienstraße 11,20095,Hamburg
3655277115,53.5523957,10.0020049,Tikal Communication GmbH & Co. KG,Lilienstraße 11,20095,Hamburg
3655902547,53.546346,9.9737477,pixactly media GmbH,,,
3658890747,53.5523936,10.0019689,Lilienhof coworking office Hamburg,Lilienstraße 11,20095,Hamburg
3659316308,53.5542506,9.9872346,Rochus Mummert,,,
3659316309,53.5533233,9.9875672,E.R. Schiffahrt Gmbh & Cie KG,,,
3659316310,53.5532611,9.9875297,Honorarkonsulat des Vereinigten Königreichs Großbritannien und Nordirland,,,
3659316311,53.553301,9.9875833,Nordcapital GmbH,,,
3659358929,53.5529328,9.9874009,honert+partner,,,
3663771372,53.5799738,9.9485159,Homaris,,,
3664851718,53.5795973,9.9442166,Ubomi,,,
3669185999,53.5486453,9.9954674,Roever Broenner Susat Mazars,,,
3670795962,53.5557797,9.9820221,Emporio Quartiersmanagement,Valentinskamp 61,,Hamburg
3670803066,53.5544014,9.9814749,Geometry Global,,,
3670861243,53.5484973,9.9985565,Jobcenter,,,
3670882487,53.5484606,9.9983204,Helvetia,,,
3671923086,53.5780345,9.9470057,Engel & Völkers,Osterstraße 167,,
3672023957,53.5774071,9.9482376,Remax,,,
3672073236,53.5762579,9.9493775,Steingrube,,,
3672330495,53.5574524,9.9702407,Pixelgalaxie,,,
3672330499,53.5574858,9.969774,MRG Dienstleistungen,,,
3675434803,53.5555164,9.9852032,planet home,,,
3675434804,53.5554885,9.9855064,Funk Gruppe,,,
3676664926,53.5491556,9.9445262,,,,
3696097575,53.5794517,9.9493982,DKV,,,
3696097617,53.5787301,9.9507263,Mairisch Verlag,,,
3710411781,53.5774832,9.9526425,Deutsche Tibethilfe e.V.,,,
3710494784,53.5800315,9.9551795,SOS Kinderdorf,,,
3714834651,53.5998564,9.9316718,IT-Management & -Consulting (ITMC),Vogt-Kölln-Straße 30,22527,Hamburg
3715249563,53.5477663,9.9951588,Japanisches Generalkonsulat,Domstraße 19,20095,Hamburg
3719069076,53.5920859,10.002267,Stark Immobilien,,,
3721860271,53.5582462,9.9440952,Frappant e. V.,Zeiseweg 9,22765,Hamburg
3734215420,53.5486249,10.024115,BOS-it GmbH u. Co.KG,Frankenstraße 5,20097,Hamburg
3745545632,53.5486589,9.9880349,ThoughtWorks Deutschland GmbH,Großer Burstah 46-48,20457,Hamburg
3748284439,53.6754943,10.2390219,Heilpraxis Mende,Große Straße 12,22926,Ahrensburg
3749720530,53.5495814,10.0228506,Creditreform,,,
3749754578,53.5460039,10.0263746,Neue leben,,,
3750448951,53.581752,10.0098775,OPTIX DigitalPictures,,,
3761061326,53.5921228,9.9793442,Kompetenzzentrum für Sport- und Bewegungsmedizin,,,
3761062401,53.5900957,9.9769361,Medical Expert Training Center,,,
3761062402,53.5897367,9.9759019,Betriebsrat NPR,,,
3761062403,53.5903376,9.9785019,Personalabteilung,,,
3761062407,53.5902784,9.9783435,Verwaltung,,,
3761077095,53.5894262,9.9760473,Lob- und Beschwerdemanagement,,,
3761077096,53.5894662,9.9759986,Projektmanagement,,,
3761634793,53.6132828,9.9715921,DAEDELIC Entertainment GmbH,,,
3763096350,53.5705087,9.9759176,Serhat Kilinc,,,
3763110494,53.5711106,9.9683599,Pe Schmidt Coaching,Gorch-Fock-Straße 1,20357,Hamburg
3763231757,53.5930828,9.9748716,Kinderlotse e.V.,,,
3763231759,53.5930233,9.9749496,Psychosoziale Beratung und Suchtprävention,,,
3763243725,53.5937122,9.9764721,Institut für Biochemie und Molekulare Zellbiologie,,,
3763243726,53.5938007,9.9766584,Institut für Experimentelle Pharmakologie und Toxikologie,,,
3763243727,53.593732,9.9769548,Institut für Geschichte und Ethik der Medizin,,,
3763243728,53.5937122,9.97666,Institut für Klinische Pharmakologie und Toxikologie,,,
3763246531,53.5915573,9.9727205,GB-IT,,,
3763249363,53.5933443,9.9755569,Betriebsrat KSE / KLE / KGE,,,
3763249367,53.593452,9.9777416,Nierenregister,,,
3764392592,53.5855992,10.046321,Lunge der Laufladen,,,
3771238747,53.5883707,9.9718738,Institut für Sexualforschung,,,
3771250966,53.5881524,9.9721531,Institut für Versorgungsforschung in der Dermatologie und bei Pflegeberufen,,,
3771252535,53.5574126,9.9323076,Altoba,,,
3771857701,53.5900576,9.9711883,Einkauf,,,
3771857706,53.5881827,9.9706288,Hörsaal Augenklinik,Martinistraße 52,20251,Hamburg
3771857707,53.5898073,9.9728443,Hörsaal Frauenklinik,,,
3771857709,53.5899987,9.9710543,Krankenpflegeschule,,,
3771872349,53.5905528,9.9715297,Callcenter,,,
3771872351,53.5904101,9.971166,Emeritierte Professoren,,,
3771872352,53.5904598,9.971299,Forschungssektion Kinder- und Jugendgesundheit,,,
3771872354,53.5907099,9.9713129,KEE Energie,,,
3771872355,53.5907252,9.971443,KFE Klinik Facility Management,,,
3771872356,53.5906954,9.9711724,KME Klinik Medizintechnik,,,
3771898758,53.5899669,9.9709975,Krankenhaushygiene,,,
3771898760,53.589894,9.9718167,Ombudsmann,,,
3771898762,53.5899676,9.9718167,Schwerbehindertenvertretung,,,
3771898763,53.5905058,9.9714259,Servicecenter,,,
3771898764,53.5899373,9.9717492,WPR,,,
3771948710,53.5896815,9.9766567,Institut für Versorgungsforschung in der Dermatologie und bei Pflegeberufen,,,
3771948715,53.5896117,9.976869,CVcare,,,
3771948722,53.5894933,9.9767652,Transplantationskoordinatoren,,,
3771984000,53.5901876,9.9782553,IT,,,
3771984001,53.5892069,9.9753418,Sicherheitsdienst,,,
3771984003,53.5901363,9.97814,Unternehmenskommunikation,,,
3772008790,53.5916385,9.9732893,Klinik Gastronomie Eppendorf GmbH,,,
3772008791,53.5899407,9.970933,Klinik Logistik Eppendorf KLE,,,
3793439820,53.5432528,9.9904259,Honorarkonsul der Republik Finnland,,,
3799389450,53.5658177,9.9894275,Honorarkonsulat von Montenegro,,,
3799455485,53.5516636,10.0481842,pleach GmbH,Eiffestraße 464,20537,Hamburg
3809164054,53.5731679,9.9498576,Uniwearsal,,,
3809164056,53.5731806,9.9498293,Mago,,,
3818679438,53.5989168,10.0662127,Württembergische,,,
3820613161,53.5767925,9.9169114,AquaFree,Winsbergring 31,22525,Hamburg
3821615423,53.5491293,10.0022734,Hamburg Süd Reiseagentur,Burchardplatz 5,20095,Hamburg
3828560614,53.7077716,9.9942369,Standesamt Norderstedt,Rathausallee 50,22846,Norderstedt
3857131217,53.5842055,10.0469116,k3 Personaldienstleistungen,,,
3858892237,53.5667868,9.952464,Philipp und Keuntje,,,
3860995457,53.5688879,9.983996,Hamburgische Architektenkammer,,,
3877019090,53.562587,9.9571595,Hamburger Kochsalon,Max-Brauer-Allee 251,22769,Hamburg
3893432534,53.6100156,9.9588562,Das Kill-Team GmbH,Kollaustraße 116,22453,Hamburg
3896957807,53.5871306,10.0477457,"Swiridoff, Röhrs, Malligsen",,,
3899739131,53.5859072,10.0440128,Standort Barmbek-Uhlenhorst Einwohnerangelegenheiten,Poppenhusenstraße 6,22305,Hamburg
3910199739,53.5480479,9.8644783,Gerhardt Immobilien,Elbchaussee 322a,22605,Hamburg
3925496294,53.6409079,9.9485924,FuT Metallbau,Ernst-Mittelbach-Ring 57,22455,Hamburg
3926983178,53.5483992,10.0099161,Viva con Agua,,,
3936403657,53.5867295,10.0518708,Plan,,,
3942110720,53.6821106,9.9985651,Hausmann Immobilien,Schmuggelstieg 4,22848,Norderstedt
3942165447,53.6821712,9.9968455,Wüstenrot,,,
3954261598,53.6827135,9.9981177,André Riedel,Ulzburger Straße 1,22850,Norderstedt
3957302069,53.5743393,10.0213519,THB Grund-Schule,Winterhuder Weg 29,22085,Hamburg
3962616472,53.4853652,10.199567,Saga GWG - Bergedorf,,,
3980209715,53.548188,9.9895254,,,,
3982935715,53.6316909,10.0265889,SPD Kreisbüro Hamburg - Nord,,,
3992061070,53.5528305,10.0139341,Honorarkonsulat der Republik Nordmazedonien,,,
3998302066,53.5855271,10.066801,WSH Wohnservice Hamburg,,,
3999624427,53.5535993,10.0034074,Reisebüro Koch,,,
4007684116,53.5612903,9.9663394,einfach machen unternehmenskommunikation,,,
4009736166,53.5506264,10.1562638,A+S Alarm- und Sicherheitstechnik,,,
4009736167,53.5508969,10.156598,Alsco,,,
4009736168,53.5506765,10.1549034,CoDesCo IT Consulting,,,
4009736171,53.5500308,10.1554035,Hamburger Druckluft-Dienst,Im Hegen 10,22113,Oststeinbek
4009736174,53.5498967,10.1551474,Jürgen Bade Bestattungsbedarf,,,
4009738722,53.5513402,10.1553741,Reißwolf Archivservice,,,
4009738723,53.5501465,10.1544468,Rovocad,,,
4009738724,53.5490759,10.1539199,Schneider Automaten,,,
4009738725,53.5500568,10.1543063,Spedition Reimler,,,
4009738726,53.5497479,10.1527432,Yücel Trading,,,
4009771305,53.5504299,10.1585133,Cramer Sarggroßhandel,,,
4009771306,53.5495891,10.1589166,Egon Harig Brandmeldeanlagen,,,
4009771307,53.5501786,10.1587365,Emstec,,,
4009771310,53.5498176,10.1582633,Jan Bouman Sarggroßhandlung,,,
4009771314,53.5504947,10.1579764,Kompack,,,
4009771316,53.5504018,10.1580148,Ladebordwandservice,,,
4009771317,53.5492781,10.1590708,Masuch + Olbrisch,,,
4009771342,53.5499428,10.157958,Suris HDVI,,,
4009771343,53.5504807,10.1578172,Suris HDVI,,,
4009771344,53.5504526,10.1575517,Vopatec,,,
4009888867,53.548611,10.1601748,Döbler Werbeartikel,,,
4009888871,53.551568,10.1599177,Fuchs Fördertechnik,,,
4009888877,53.5495306,10.1602257,Jäckstein Ladenbau,,,
4009888879,53.5492369,10.1621256,Nurgida,,,
4009890943,53.5521302,10.1588951,Reiflexa,,,
4009890944,53.5493561,10.1632346,Roxall Medizin GmbH,,,
4009890945,53.5521111,10.1617263,Siebrecht Fassadentechnik,,,
4009890948,53.5497287,10.1608384,Uromed,,,
4010036099,53.5514958,10.163288,Siebert + Knipschild,,,
4016859938,53.4979146,10.0034758,Behörde für Stadtentwicklung und Wohnen,Neuenfelder Straße 19,21109,Hamburg
4016859939,53.4977289,10.0040808,Behörde für Umwelt und Energie,Neuenfelder Straße 19,21109,Hamburg
4016859940,53.4982988,10.0025146,Landesbetrieb Geoinformation und Vermessung,Neuenfelder Straße 19,21109,Hamburg
4019775251,53.56477,9.9208129,Studio Una Hager König GbR.,Stresemannstraße 375,22761,Hamburg
4019998671,53.5450435,10.0266915,Informationstechnikzentrum Bund,Süderstraße 63,20097,Hamburg
4020407280,53.6542732,9.7910899,,Heinrich-Boschen-Straße 7,,
4023722993,53.6758224,10.2371499,Diana Scharf,,,
4027627720,53.6758421,10.2371307,Anwaltskanzlei Mierau / Stefan Halfpape,,,
4031226512,53.5552742,10.0007944,Hamburg Energie Kundencenter,,,
4034396458,53.5803065,10.0303819,Fielmann Ventures GmbH,Weidestraße 118a,22083,Hamburg
4038521084,53.5866567,10.0441984,Baugenossenschaft FLUWOG-NORDMARK eG,,,
4043915241,53.5727189,9.9594598,Mo Architekten,Henriettenweg 1,20259,Hamburg
4046627613,53.5418434,9.9937389,Dahler&Company,,,
4060617877,53.5838853,10.0476482,Hanseatische Baugenossenschaft Hamburg eG,,,
4063808883,53.4585306,9.9822135,ROBIN WOOD Bundesgeschäftsstelle,Bremer Straße 3,21073,Hamburg
4069757474,53.5791605,10.0109628,Kannegieter Steuerberatung,Körnerstraße 18,22301,Hamburg
4073600504,53.5722523,9.9947987,DERMALOG Identification Systems GmbH,,,
4074878541,53.5848077,10.0422367,Baugenossenschaft Dennerstraße-Selbsthilfe eG,,,
4077141171,53.5893114,10.0980179,Jungheinrich Vertrieb Deutschland AG & Co. KG,Friedrich-Ebert-Damm 145,22047,Hamburg
4083030724,53.5811695,10.0088824,Dahler & Company,,,
4086584786,53.6032936,10.0188068,EDEKA DIGITAL GmbH,New-York-Ring 6,22297,Hamburg
4087724280,53.550177,9.9998704,Hamburger Hochbahn AG,,,
4090482071,53.4631925,9.9683429,Institut für Verkehrsplanung und Logistik,Am Schwarzenberg-Campus 3,21073,Hamburg
4108544215,53.5675078,10.0471545,Jadis Pflegedienst,,,
4117241830,53.6485616,10.0165325,Kanzlei Giese & Baric,,,
4123978578,53.6167917,9.8669283,Praxis für Allgemein- & Familienmedizin,Seestraße 250,25469,Halstenbek
4136474853,53.6153434,9.8652128,Barmenia Versicherungen,Siebentunnelweg 6,25469,Halstenbek
4144383879,53.457194,9.986666,Huk-Coburg,Moorstraße 15,21073,Hamburg
4144447596,53.4565367,9.9851172,Wilhelm Tel,Wilstorfer Straße 50,21073,Hamburg
4144996591,53.4582885,9.987241,Behinderten Arbeitsgemeinschaft Harburg,Seeveplatz 1,21073,Hamburg
4146767685,53.5467731,9.9884573,Schomerus & Partner,,,
4149391738,53.5483347,10.00992,Viva con Agua Arts gUG,,,
4168183874,53.4567195,9.9861527,Rechtsanwälte BEM,Moorstraße 4,21073,Hamburg
4168200195,53.4568091,9.9866123,Persona Service,Moorstraße 6,21073,Hamburg
4170564142,53.6039323,10.0118499,Landesbereitschaftspolizei Hamburg,,,
4197341396,53.5537481,9.9998859,Toptranslation GmbH,Ferdinandstraße 29-33,20095,Hamburg
4204260389,53.5504901,10.0280211,Wingmen Online Marketing GmbH,Anckelmannsplatz 1,20537,Hamburg
4210661806,53.572806,9.9806319,büro janhaarmann,Hallerstraße 5a (EG),20146,Hamburg
4211159375,53.5591189,9.993711,red6 enterprise software GmbH,Siegfried-Wedells-Platz 1,20354,Hamburg
4228171215,53.5776684,10.0346056,Pöppel von Bergner Özkan,,,
4229730033,53.5623748,9.9143113,eyefactive,Mendelssohnstraße 15,22761,Hamburg
4230585706,53.6125452,10.0245962,Hansen & Hansen,Alsterdorfer Markt 10,22297,Hamburg
4230585708,53.6121045,10.0243536,Grieger,,,
4241058083,53.5672406,10.0513192,Naturheilpraxis für Kinder und Jugendliche,Peterskampweg 19,22089,Hamburg
4242004442,53.5981954,10.0138356,Stadtpark-Verein Hamburg e. V.,,,
4246525835,53.548955,9.9639012,Generation Digitale,Spielbudenplatz 24-25,20359,Hamburg
4246697760,53.6739322,10.2400346,Sprick & Wachsmuth Vermessung,Große Straße 27-29,22926,Ahrensburg
4246853334,53.5804628,9.9759115,Vasgard GmbH,Straßenbahnring 15,20251,Hamburg
4258953060,53.5747622,9.9771287,Copterproject,Grindelberg 33,,
4258953061,53.5747251,9.9771257,G-G Immobilien,Grindelberg 33,,
4262130074,53.5457951,9.9394811,DAL JTE Group,,,
4281430693,53.5508686,10.0167347,Familienkasse Nord,,,
4281444892,53.4632546,9.9803767,Jugendberufsagentur U25,,,
4290947393,53.551449,10.0166509,Agentur für Arbeit,,,
4293545603,53.5759268,9.9758651,Allianz,Schlankreye 28,,
4300923313,53.5734805,9.9773265,MS/PROMOTION/GBR,Grindelberg 9,,
4308442091,53.5549443,9.9840099,ENITAS Deutschland GmbH,Caffamacherreihe 5,20355,Hamburg
4332332536,53.4677066,9.7927734,BDS Systemberatung GmbH,Bahnhofstraße 40,21629,Neu Wulmstorf
4348819281,53.5490968,9.9963668,Scientology,,,
4360036218,53.5460346,10.0227068,Hansaton,,,
4365393588,53.5622908,9.9579135,The Marmalade,,,
4365424268,53.5624871,9.9644157,Hamburger Mieterverein,,,
4365448905,53.5512402,9.945316,Deutsch-Tansanische Partnerschaft e.V.,Jessenstraße 4-6,22767,Hamburg
4368662671,53.7316056,10.2620921,PCP Capitalia UG,,,
4377983784,53.6479526,10.0138673,Palliativ-Care-Team Hamburger Norden,,,
4377984452,53.6480587,10.0152195,SPD Bürgerbüro,,,
4388760578,53.5630874,9.9134191,froglogic GmbH,Gasstraße 18,22761,Hamburg
4401035473,53.4577333,9.9363682,Harburger Tennis- und Hockey-Club,Vahrenwinkelweg 21,21075,Hamburg
4402553463,53.5571236,10.0066529,Widemann Systeme,,,
4405435790,53.544315,9.927555,Hon. Konsulat Malta,Große Elbstraße 277,22767,Hamburg
4415567437,53.5608401,9.9632141,oose Innovative Informatik eG,Schulterblatt 36,20357,Hamburg
4424764007,53.5944601,9.9969865,Hillmann & Partner,,,
4427753594,53.5010795,10.1974181,LVM Versicherung,Lohbrügger Landstraße 89,21031,Hamburg
4434232678,53.4653716,9.9848556,Futura Retail Solutions,Harburger Schloßstraße 28,21079,Hamburg
4449705224,53.5528827,9.9308365,wilhelm.tel ServiceCenter Hamburg-Altona,,,
4449723018,53.5505084,9.9406669,Polycarbonara,,,
4453294949,53.559196,9.994773,PricewaterhouseCoopers AG,Alsterufer 1,20354,Hamburg
4453945768,53.6809674,9.987842,Adlershorst Baugenossenschaft e.G.,,,
4453952034,53.6815219,9.987741,LOHI Lohnsteuerhilfe Bayern e.V.,,,
4453954011,53.6816486,9.9876382,Verwaltung Plambeck,,,
4455612142,53.7131766,9.9996566,HUK Coburg Kundendienstbüro Oliver Tenbergen,Ulzburger Straße 377,22846,Norderstedt
4461826960,53.4957963,10.1139791,Louis Zentrale Hamburg,Rungedamm 33-37,21035,Hamburg
4462437136,53.6821691,9.9871885,Strategus Steuerberatungs- und Wirtschaftsprüfungsgesellschaft,,,
4465966292,53.5253322,10.1681616,Ferd.Wiesehahn GmbH,Dorfstraße 26,,
4470471028,53.5661019,10.1848304,B.A.S Verkehrstechnik AG,Altes Feld 12,22885,Barsbüttel
4475310988,53.5455065,9.9867012,BPV Consult GmbH - Hamburg,Deichstraße 48-50,20459,Hamburg
4487355328,53.5434737,10.0008885,Gebr. Heinemann,,,
4491057995,53.5466109,9.9933408,,,,
4508504014,53.5916246,9.9826284,Competenzzentrum Epidemiologie und Versorgungsforschung bei Pflegeberufen,,,
4517242086,53.5445275,9.9351284,DAS WERK Hamburg,Große Elbstraße 145a,22767,Hamburg
4517851991,53.5826547,10.0280715,Zahnärztekammer Hamburg,Weidestraße 122b,,
4534983362,53.555399,9.9809194,Green Treppenlifte,,,
4534983369,53.5554351,9.9813951,Stiftung Denkmalpflege,,,
4556960545,53.5863256,10.0064427,HDI,,,
4557460186,53.5883026,10.0097559,Tierheilpraktikerin,,,
4607055872,53.5916005,10.0458304,Engel & Völkers,Hellbrookstraße 61,22305,Hamburg
4610679153,53.562792,9.9173579,SIX FOR SALE,,,
4610679154,53.5628007,9.9172809,Lieblings Rindermarkt GmbH,,,
4610764360,53.5575317,9.9877002,Landeszentrale für politische Bildung,,,
4617015261,53.5415409,9.985636,Dürkop Möller und Partner,Am Kaiserkai 62,,
4617026602,53.5439434,10.0026814,RTL Deutschland,,,
4622532911,53.6847755,9.9874549,Finanzamt Bad Segeberg - Außenstelle Norderstedt,Europaallee 22,22850,Norderstedt
4623992076,53.5824045,10.0075815,Lernanker - Praxis für integrative Lerntherapie,Dorotheenstraße 53,22301,Hamburg
4633114990,53.5757273,10.0624634,Kreisverband Wandsbek von BÜNDNIS 90 / DIE GRÜNEN.,Wandsbeker Königstraße 66,22041,Hamburg
4643932916,53.4818545,9.8837472,Karoradio,,,
4670781443,53.5475958,10.0199798,Berufsgenossenschaft Energie Textil Elektro Medienerzeugnisse (BG ETEM),,,
4682247721,53.5484437,10.0164453,Finanzamt Hamburg-Ost,,,
4691102150,53.5182243,9.9837131,GoMokry* e.V.,,,
4692272653,53.6380363,9.7870875,Pinneberger Tennis-Club,Voßbarg 12,25421,Pinneberg
4696369786,53.5454506,9.9811809,Generalzolldirektion Hamburg,,,
4696370783,53.5475651,9.9778804,Ingenieurbüro Grassl,,,
4696380729,53.568104,9.9879385,Universitätskolleg der Universität Hamburg,,,
4706986333,53.5554409,9.9846951,Regus Tagungsräume,Valentinskamp 24,20354,Hamburg
4716540769,53.5616184,9.9590676,aplanat Mietstudios Hamburg,,,
4733233950,53.5777408,9.9465422,KRT Medical Solutions GmbH & Co. KG,,,
4734741316,53.5812461,10.0270107,Implico GmbH,Weidestraße 120b,22083,Hamburg
4764708164,53.5871691,10.0575982,HANSA Baugenossenschaft,,,
4766768365,53.6586464,9.8000587,Drogen- und Suchtberatungsstelle,,,
4771171094,53.6064644,9.9024388,Immobilien Center,,,
4771171095,53.6062866,9.9017508,Abnehmen im Liegen,,,
4771171096,53.6064336,9.9022834,Hamburger Feuerkasse,,,
4791934753,53.5693614,9.8997647,West End Dogs Hundebetreuung,,,
4793881297,53.5566941,10.0032412,Honorarkonsularische Vertretung des Königreichs Thailand in Hamburg,,,
4812126912,53.6054019,9.8432003,west immobilien,,,
4817995398,53.6121662,10.1198527,Jobcenter,,,
4831129601,53.7314442,9.9032967,Wentzel Dr. Homes,Bahnhofstraße 59,25451,Quickborn
4831129603,53.7316536,9.9032926,Kanzlei am Forum,Bahnhofstraße 63,25451,Quickborn
4831187355,53.6290298,10.0134556,FENSTER-AS Nord GmbH,Alsterkrugchaussee 549,22335,Hamburg
4831594240,53.6292736,10.0179941,Gefühl für Räume,Etzestraße 34,22335,Hamburg
4835441202,53.5602408,10.0139664,Politikwerft Designbüro,Koppel 106,20099,Hamburg
4888269645,53.5482625,10.0165817,Finanzamt Hamburg-Oberalster,,,
4912961211,53.5539847,9.8445444,BUCHEN & KOOB GmbH,Nienstedtener Marktplatz 31,22609,Hamburg
4924077075,53.5564212,9.984581,AON Holding,,,
4932476414,53.5484993,9.9334505,DIE LINKE. Bezirksfraktion Altona,,,
4934970021,53.6704437,10.23446,Ambulante Pflege Zuhause,,,
4939202791,53.5868147,9.7432166,Honorarkonsularische Vertretung der Republik Uganda in Hamburg,,,
4945351340,53.5460263,9.9499082,Monday Consulting GmbH,Breite Straße 61,22767,Hamburg
4967796932,53.6137014,9.9709336,INSTA Steuerber.ges.mbH,,,
4995016023,53.5523636,9.9893504,Finanzbehörde Hamburg,Große Bleichen 23-27,20354,Hamburg
4998331984,53.6767243,10.2392578,InvaCon,Bei der Alten Kate 2,,
5026783122,53.5608674,9.965062,Querbild e.V.,,,
5032946197,53.5503368,9.968403,Deutsche Rentenversicherung Knappschaft-Bahn-See,,,
5039073625,53.5674528,10.0436653,J-Store online,,,
5056400018,53.4432916,10.1294813,Hamburger Feuerkasse,,,
5062907249,53.5826502,10.028032,CCV Deutschland GmbH,Weidestraße 122b,,
5075078812,53.5430409,9.9862333,Friends Factory,,,
5077736922,53.5519857,9.9226113,city-wohnen,,,
5098336887,53.4918771,10.2083785,Jobcenter,Ludwig-Rosenberg-Ring 41,21031,Hamburg
5107747621,53.6460856,10.0220842,Ulrich Quadt GmbH,,,
5109002228,53.6803709,9.9997198,Gemeindebüro Sankt Annen,,,
5109002229,53.7134852,9.9903599,Gemeindebüro Sankt Hedwig,,,
5117275185,53.5574033,9.9583772,NORD.NORD BMG Gmbh,Bernstorffstraße 95,22767,Hamburg
5126809338,53.6299461,9.8365255,Itzehoer Versicherungen,,,
5158319221,53.5727832,10.063544,Immobilienverwaltung Kruse / New Horizons Computer Learning Centers,,,
5180662096,53.5454996,10.047922,ATS Alpha Tech Systems,Hammer Deich 126,20537,Hamburg
5190485168,53.5538129,9.9800518,Elbwind Media GmbH & Co. KG,Poolstraße 7,20355,Hamburg
5200189418,53.5801324,9.9916821,Serben Konsulate,,,
5208409792,53.5987443,10.0734577,bonprix Handelsgesellschaft mbH,Haldesdorfer Straße 61,22179,Hamburg
5208797739,53.6011382,10.0707503,Otto (GmbH & Co KG),Werner-Otto-Straße 1-7,22179,Hamburg
5219386855,53.6201108,10.2310222,ThermoExpert Deutschland GmbH,Brookstieg 1,22145,Stapelfeld
5241245322,53.5528312,10.01291,Fard e.V.,Adenauerallee 10,20097,Hamburg
5242817711,53.5458534,10.0079471,Naturstrom,Oberhafenstraße 1,20097,Hamburg
5243803008,53.5446894,10.0019763,"Bundesanstalt für Wasserbau, Referat Schiffstechnik",Brooktorkai 20,20457,Hamburg
5244744560,53.4675447,9.9934039,ABEX,,,
5245788698,53.4892118,10.2114249,Gemeindebüro der Kirche,,,
5245811663,53.4864454,10.1973807,Laser Plus,,,
5247159604,53.54191,10.0014628,Green Planet Energy eG,Hongkongstraße 10,20457,Hamburg
5247494309,53.4895859,10.2089854,ver.di,,,
5247494314,53.490785,10.2098582,Heinke Rechtsanwälte,,,
5264782331,53.5692232,9.9842903,Knackscharf Rent,Grindelhof 48-50,20146,Hamburg
5266897038,53.5284947,10.3191841,Rüdiger Krafftzig,Pfingstholzallee 5A,21521,Aumühle
5299918421,53.6072782,10.0541885,Friedrich Karl Schroeder GmbH und Co. KG,Schwarzer Weg 8,22309,
5305811125,53.5510656,10.0458223,Teleperformance,Wendenstraße 375-377,20537,
5310539397,53.5458604,10.0278346,PROSTEP Hamburg,,,
5318431351,53.5549807,10.0003481,Njiuko GmbH,,,
5322014746,53.5547049,9.9807444,telos Systementwicklung GmbH,Kaiser-Wilhelm-Straße 93,20355,Hamburg
5327346045,53.5871102,10.0957407,M+F Technologies,,,
5330857199,53.557249,9.9926521,Leibniz-Institut für Globale und Regionale Studien,Neuer Jungfernstieg 21,20354,Hamburg
5340411621,53.6043095,10.1555145,Notariat Hamburg-Rahlstedt,Rahlstedter Bahnhofstraße 17,22143,Hamburg
5341006405,53.564355,9.9582188,DIBeratung,Eimsbütteler Straße 13,22769,Hamburg
5346969455,53.5494266,9.9916418,Junge Europäische Föderalisten Hamburg e.V.,Adolphsplatz 1,20457,Hamburg
5346969456,53.5494303,9.9916166,infopoint Europa,Adolphsplatz 1,20457,Hamburg
5349409411,53.5688814,9.9791543,Schülerforschungszentrum Hamburg,Grindelallee 117,20146,Hamburg
5350597021,53.6579964,9.8077288,FAW,Waldstraße 5,25421,
5360491572,53.5543429,9.9991776,Hinsch & Völckers,Ballindamm 13,20095,Hamburg
5361457121,53.4955079,10.0217582,Kanzlei Wasserstraß Kanzlei Napp,Kirchdorfer Straße 84,21109,Hamburg
5387484174,53.6580459,10.0848576,von Poll,,,
5389702694,53.644431,9.8111619,Drasdo-Immobilien,,,
5395721324,53.5224873,10.086812,KAEFER Construction GmbH,,,
5401734921,53.5434302,9.9838986,Körber-Stiftung,,,
5407688435,53.5496254,9.9985894,Zeitverlag Gerd Bucerius,,,
5407707942,53.5419282,10.2134509,German Homes,,,
5434905302,53.6717236,10.2405673,SPD-Büro Ahrensburg,,22926,Ahrensburg
5443617657,53.6446254,10.0892992,"Antje Müller-Mantwill, Steuerberaterin",Speckmannstraße 1,22391,Hamburg
5445601263,53.5590232,9.9629609,Citinaut,Stresemannstraße 9,22769,Hamburg
5464517822,53.575508,10.012472,JULIUS LANGHAGEL,Fährhausstraße 24,22085,Hamburg
5465586292,53.547544,9.9669988,Ingenics AG Office Hamburg,Zirkusweg 1,,
5468940740,53.6024029,9.9086685,Karl Körner Haustechnik,,,
5471018433,53.4858964,10.2104594,Sonja Behn,,,
5471018434,53.4858783,10.2103787,Anwaltliche Schuldnerberatung,,,
5471018435,53.485906,10.2103913,Sönke Hölter,,,
5480007569,53.5349565,9.9811139,Honorary Consulate of the Czech Republic,Werftstraße 5,20457,Hamburg
5486495196,53.5455868,10.0493959,AM Stapler,,,
5486495198,53.5448184,10.0496105,Nordland,,,
5488378078,53.4892594,10.2061597,Reisering Hamburg,,,
5496859744,53.4907796,10.2069472,Gesundheitsamt Bergedorf,,,
5496859746,53.4908118,10.207043,AOK Rheinland/Hamburg Geschäftsstelle Bergedorf,,,
5524199587,53.5465779,10.022303,Stiftung Grone-Schule,,,
5526347432,53.5463248,9.9878883,Honorarkonsularische Vertretung der Republik Kap Verde in Hamburg,,,
5532008058,53.514147,10.0262783,Abschleppdienst Bucholz,,,
5538284503,53.5869853,10.004859,Wohnwerte Hamburg e. K. Immobilien,Dorotheenstraße 107,22301,Hamburg
5538658576,53.6285953,10.0063304,Zollamt Hamburg-Flughafen,Flughafenstraße 1-3,22335,Hamburg
5572258549,53.6093629,10.0446068,Landesgeschäftsstelle Malteser Hamburg,,,
5572258550,53.6093913,10.0446042,Stadtgeschäftsstelle Malteser Hamburg,,,
5572258551,53.609419,10.0446017,Diözesangeschäftsstelle Malteser Diözese Hamburg,,,
5573829322,53.473343,9.9334066,Hexagon Manufacturing Intelligence GmbH,Tempowerkring 19,21079,Hamburg
5573855216,53.4736162,9.9335504,Treo Labor für Umweltsimulation GmbH,Tempowerkring 19,,
5574338809,53.5519639,9.9923612,Astorius Capital,Alsterarkaden 12,20354,Hamburg
5592057624,53.5807506,9.9766941,Lotto24,,,
5594630334,53.572434,10.0793699,Sewe & Timmke Immobilien,,,
5595008417,53.5723996,10.0793605,Detlef Deicke,,,
5595008418,53.5723996,10.0794079,Stefanie Wohlers Immobilien,,,
5595008419,53.5723956,10.0794493,SWiM Bildung,,,
5595008420,53.5723934,10.0794974,Uwe Dresp,,,
5595008521,53.5723943,10.0795448,Bovantis-Institut GmbH,,,
5595008522,53.5724251,10.0795463,Drebingship GmbH,,,
5595008523,53.5724269,10.0795004,Pamela-Lorenz-Coaching,,,
5595008524,53.5724291,10.0794538,Jema Immobilien,,,
5595008525,53.5724318,10.0794094,Bernd Lietzke,,,
5603672750,53.5537564,9.8445126,Meissler & Co,,,
5608867793,53.6912236,9.9154772,PEKATRONIC Elektronik Vertrieb e.K.,Garstedter Weg 21b,25474,Hasloh
5612883528,53.7067271,9.9930196,wilhelm.tel / Stadtwerke Norderstedt Kundenservice,,,
5615217925,53.5789555,10.0479224,Lohnsteuerhilfe Hamburg,,,
5627076528,53.5824823,10.0077992,Praxis Verena von Harrach Psychotherapie und Coaching,Dorotheenstraße 53a,22301,Hamburg
5628688533,53.5114141,10.1802009,Elb Sec,,,
5628688538,53.5104603,10.1830736,HDGG Gebäudereinigung,,,
5628688546,53.5091236,10.182749,Warschow Technischer Großhandel,,,
5628688560,53.5102178,10.1840767,Peter Polinski Transporte,,,
5628688571,53.5094857,10.1841626,Fil-Tec Rixen,,,
5628688572,53.5092002,10.1836637,Saunavertrieb Carsten Schubert,,,
5628688574,53.5084329,10.1838917,Stiftung Alevitische Gemeinde,,,
5628688576,53.5087471,10.1821858,Schornsteinfegerinnung Hamburg,,,
5634366539,53.5507477,9.9396981,Tourbook Software GmbH,Altonaer Poststraße 9a,22767,Hamburg
5640685673,53.5834423,9.9801199,von Poll Immobilien,Lehmweg 36,20251,Hamburg
5641864395,53.6846516,10.0540905,DMK IT Solutions GmbH,Hopfenweg 150,22851,Norderstedt
5659540392,53.5644946,9.7675359,Rezeption,,,
5663438118,53.6071008,10.1382811,Außenwirtschaftsbüro Rosinski,Grömitzer Weg 32a,22147,Hamburg
5669456532,53.5489775,10.028283,Riwal Arbeitsbühnenvermietung GmbH,Heidenkampsweg 45,20097,Hamburg
5671673142,53.4561811,9.9906404,Reisezentrum Deutsche Bahn,,21079,
5671945681,53.552649,10.0033894,moovel Group GmbH,Kurze Mühren 1,20095,Hamburg
5673649622,53.5804504,10.0377529,Absolut Personaldienst,Weidestraße 24,22083,Hamburg
5674460391,53.5414993,9.9930396,Hanse Windkraft GmbH,Am Kaiserkai 1,20457,Hamburg
5674850222,53.5832243,10.0092835,Paints Multimedia GmbH,,,
5687036890,53.4638125,9.9782738,H. S. I. Schuldenberatung Hakiju,,,
5695222024,53.4652158,9.9619993,Heilpartikerin Nuray Karaks,,,
5701917103,53.5846666,10.0166778,Seminarloft-Hamburg,Geibelstraße 46 B,22303,Hamburg
5706196921,53.5498894,9.9953758,MRLV Architekten,,,
5709704336,53.4642823,9.9639336,Arkads Kultur e.V.,,,
5711166108,53.5894889,9.9759072,Qualitätsmanagement und klinisches Prozessmanagement,,,
5726057343,53.4635468,9.9619759,Rechtsanwalt Kay Wolkau,,,
5731370981,53.4894716,10.1131981,EEC Events GmbH,,,
5747802468,53.6176938,9.9509388,E&M Projektbau und Technik GmbH,,,
5750708113,53.5691716,9.927889,Netzplan GmbH,Am Diebsteich 31,22761,Hamburg
5756750125,53.4574247,9.9838038,Grossman und Berger,Lüneburger Straße 1,21073,Hamburg
5757090519,53.4600158,9.9830821,Verwaltung der Geselschaft für Bioanalytik,Harburger Ring 17,21073,Hamburg
5757125858,53.4610297,9.9816486,Mieterschutzbund,,,
5757184019,53.4611735,9.9817739,"Notar Carsten, Erbenermittlung",Schloßmühlendamm 7,21073,Hamburg
5759381369,53.4708577,9.9160252,Würth Hamburg-Hausbruch,,,
5759385123,53.4587806,9.9802731,ZAG,Harburger Rathausstraße 40,21073,Hamburg
5759385125,53.4589478,9.980929,Hamburger Abendblatt,,,
5759410308,53.5682347,10.0483333,green lovers,,,
5759424543,53.5681886,10.0505652,Sabori Immobilien,Wandsbeker Chaussee 164,22089,Hamburg
5759433722,53.5678047,10.0483736,HBH,,,
5760380956,53.4606919,9.9819537,AGT Busvermietung,,,
5762361777,53.4631799,9.9815878,Impact,,,
5762361781,53.4627068,9.9821443,Randstad,,,
5762361782,53.4627842,9.9820609,AOK Rheinland/Hamburg,,,
5762361788,53.4630923,9.9826067,TC Tele Communication e.K.,,,
5762361793,53.4632797,9.9822355,Von Poll Immobilien,,,
5764424556,53.6282391,10.0077104,Flughafen Hamburg GmbH,,,
5768606225,53.553924,9.9834729,Kundenzentrum Hamburg-Mitte,,,
5768612768,53.5360617,9.8774423,Kundenzentrum Finkenwerder,,,
5768614932,53.5402752,10.1062719,Kundenzentrum Billstedt,,,
5768621012,53.4976617,10.0039632,Kundenzentrum Wilhelmsburg,,,
5772798940,53.5515416,9.9616284,jobcenter team.arbeit.hamburg St. Pauli,Simon-von-Utrecht-Straße 4a,20359,Hamburg
5774762638,53.4620506,9.9842474,Contipark Büro,,,
5774762644,53.4622099,9.9824109,STB Ammon,,,
5774762649,53.4626052,9.9821519,Rechtsanwälte Rochow und Kollegen,,,
5774762650,53.462606,9.9821113,Brasil Sport Marketing,,,
5775537453,53.4672112,9.7932454,Haustechnik Heinemann,,,
5777829553,53.584864,9.822911,,,,
5785663750,53.6310014,9.8720849,Förderzentrum Rellingen,Heidestraße 94-96,25462,Rellingen
5794161839,53.5543226,9.9185799,Gemeindebüro der Tabita Kirchengemeinde Ottensen-Othmarschen,Hohenzollernring 78a,22763,Hamburg
5794368853,53.4641181,9.794453,Tui,,,
5794368854,53.4639383,9.794541,Allianz,Bahnhofstraße 9,21629,Neu Wulmstorf
5794503027,53.4656432,9.7940203,Sportive,,,
5799592053,53.5224935,10.2579334,DEVK-Reinbek,Schönningstedter Straße 69,21465,Reinbek
5808442385,53.5506708,9.994851,Notariat Rathausmarkt,,,
5810022583,53.5506642,9.9673686,Amnesty International Bezirksbüro Hamburg,,,
5812902565,53.6309236,10.0275764,Allgemeine Soziale Dienste Fuhlsbüttel und Ohlsdorf,,,
5821406738,53.5520098,10.0113692,Buy & Fly Ticketservice,,,
5821406739,53.5520365,10.0113665,Peters-Reisen,,,
5821406740,53.5520648,10.0113637,Roaltassib,,,
5821406741,53.5520258,10.0116853,Eurolines Intertours,,,
5821406742,53.5520528,10.0116813,Easyflug24,,,
5830749359,53.5734878,10.0631011,Barmer,,,
5830749360,53.5730861,10.0613817,avanti,,,
5833046600,53.5417147,9.9967262,Syswe GmbH,Überseeallee 1,20457,Hamburg
5842357434,53.4725547,9.8489174,Lerdon & Partner,,,
5848159713,53.5649471,9.983062,Amt für Ausbildungsförderung,,,
5856380813,53.5745438,9.9476847,Büro wir,,,
5859151400,53.5502464,10.0033368,Finanzamt Hamburg-Mitte,,,
5859151401,53.5502488,10.0032496,Finanzamt Hamburg-Hansa,,,
5860998530,53.6046312,10.0404188,ALTEITER - Gebäudetechnik,Fuhlsbüttler Straße 456,22309,Hamburg
5861004055,53.6046934,10.0403938,SPD Abgeordnetenbüro,Fuhlsbüttler Straße 458,22309,Hamburg
5863463838,53.5458772,10.0457867,Brähler ICS,Hammer Deich 70,20537,Hamburg
5886303902,53.5268669,10.2394375,Güse,Borsigstraße 21,21465,Reinbek
5891008885,53.5442333,9.9498482,CP Corporate Planning AG,Große Elbstraße 27,22767,
5891754855,53.4630828,9.7958172,Matthias Wagner,,,
5891776039,53.463518,9.797138,Lohnsteuerberatungsverbund,Hauptstraße 44,21629,Neu Wulmstorf
5892771285,53.544024,9.9199021,Freenow HQ,Neumühlen 19,22763,Hamburg
5893520956,53.4657776,9.7940878,ACTO Orthopädietechnik,,,
5893616195,53.4638868,9.794449,Lancker,,,
5893616197,53.4643079,9.7942918,Hans-Peter Rampold,Bahnhofstraße 11b,21629,Neu Wulmstorf
5893616199,53.4642445,9.7943039,Signum,Bahnhofstraße 11b,21629,Neu Wulmstorf
5895964911,53.6028036,10.0437678,Die Linke,Hartzlohplatz 1,,
5896840103,53.5565809,9.9907457,Geospin GmbH,,,
5901507991,53.6021721,10.0228508,Bürogemeinschaft Rechtsanwälte City Nord Rechtsanwälte Bartels und Dickow,Mexikoring 9c,22297,Hamburg
5901520707,53.5831569,10.0001517,Republik Peru (Generalkonsulat),Blumenstraße 28,22301,Hamburg
5902700781,53.6441852,10.0128503,Rehbein Personaldienst,Langenhorner Chaussee 139,22415,Hamburg
5902788766,53.4744369,9.8989665,HSR,,,
5902788767,53.4749447,9.899165,Liermann Transporte,,,
5902788768,53.4755374,9.8986352,Kessler - Gerüstbau GmbH,,,
5902788770,53.4740143,9.8993281,Lippmann - German Ropes,,,
5902788773,53.4744163,9.8991553,Peter Jonas,,,
5907219002,53.4780709,9.8902153,Jo-Ras Bad- & Wohnungssanierung GmbH,Neuwiedenthaler Straße 145,21147,Hamburg
5907655387,53.5584767,9.9435487,dock europe e.V. Internationales Bildungszentrum,,,
5908518647,53.4743348,9.8995503,Busche,,,
5914861521,53.6130026,10.0749028,Carl Timmermann Wohnungsgesellschaft,Bramfelder Chaussee 239,22177,Hamburg
5914861527,53.6133368,10.0751039,Itzehoer Jelena Nohren,Bramfelder Chaussee 239,22177,Hamburg
5917738908,53.4631327,9.9798442,Resko Consulting,,,
5937797806,53.4638473,9.7997122,DEVK J. Nienstedt,,,
5939502134,53.463858,9.7999985,CET CHINT,,,
5939731706,53.4614944,9.7823961,Struwe Möbelspedition,Wilhelm-Raabe-Straße 3,21629,Neu Wulmstorf
5952314791,53.5562412,9.9578144,Renner Hainke Wirth Zirn Architekten GmbH,,,
5957294348,53.5800897,9.8690022,Grundstücksverwaltung Borgfelde Hausmeisterbüro,Akeleiweg 22,,Hamburg
5957299166,53.5799688,9.8689271,Ergoteam Flottbek,Akeleiweg 20,,Hamburg
5957304300,53.5796504,9.8689271,Ballett Studio Beate Schüßler Preuß,Akeleiweg 16,,Hamburg
5961530482,53.6049776,10.0195417,Hörsäle und Seminarräume des Philosophenturm,Überseering 35,22297,Hamburg
5992573619,53.5960471,10.130323,CreateWeb,,,
5993519417,53.464896,9.9616189,Duden Institut Hamburg-Harburg,,,
6003270380,53.5805248,9.9397281,Bibows Objektservice,Müggenkampstraße 80,,
6003276215,53.5396473,9.9944136,Engel & Völkers,,,
6013066636,53.4617503,9.9755074,Ambulanz Schrörs Hamburg-Harburg GmbH & Co KG,,,
6014797530,53.4615237,9.9822113,Miamedes Hausarztpraxis Harburg,,,
6019011165,53.5188132,10.0067282,Smart Grip GmbH,Stenzelring 17,21107,Hamburg
6023287932,53.5455784,10.1300284,Stüwe Design UG,Reinskamp 18,22117,Hamburg
6029083211,53.5403462,10.0415649,dataport,Billstraße 82,,
6037792377,53.4788749,9.9958567,Ing. Grimm Schweißtechnik,,,
6037854639,53.5904845,9.9716351,Informationstechnlogie UKE,,,
6042307987,53.4390234,9.9991143,Grollmus,,,
6046917363,53.5520725,10.0109395,ZOB-Verwaltung Hamburg,,,
6047148644,53.5500675,9.9980333,Itemis AG,Speersort 10,,
6052945655,53.621794,10.0102065,Audio Reference,,,
6054472526,53.5954041,10.0470236,SAGA-Geschäftsstelle Barmbek,Hellbrookstraße 18,22307,Hamburg
6055665031,53.5524206,9.9889256,Netlight Consulting,Große Bleichen 23-27,20354,Hamburg
6066219271,53.5190539,10.0503614,AMA Freight Agency GmbH,,,
6071211967,53.5387644,10.0316119,Lioko e.K.,,,
6074469785,53.5486052,9.9660122,Clubkombinat Hamburg e.V.,,,
6075792760,53.5489598,10.0010376,HIRSCHTEC GmbH & Co. KG,Burchardstraße 17,20095,Hamburg
6102886586,53.5804807,10.0184185,G-O-H.net • Webdesign Hamburg,Hauffstraße 2,22085,Hamburg
6106317183,53.561153,9.9598582,Das Meer ist blau.,,,
6126322350,53.5869422,10.0726148,Olympiastützpunkt Hamburg/Schleswig-Holstein e.V.,,,
6128126674,53.6496939,10.0135758,Standort Langenhorn Einwohnerangelegenheiten,Langenhorner Markt 7,22415,Hamburg
6134797724,53.5891823,9.7655636,ORVITAS UG,,,
6135001673,53.5344457,10.0710365,Günther Glunz Spedition,Großmannstraße 247-249,20539,Hamburg
6139654057,53.7052373,10.0085355,Gemeindebüro,,,
6142245653,53.5498802,9.9227147,binaroo technologies GmbH,,,
6145148684,53.5521201,10.0182385,SPD Bürgerbüro,,,
6145150385,53.5520951,10.0181458,Kanzlei HoHaus,,,
6145680683,53.673418,10.2398828,Stadtwerke Ahrensburg,Lohe 1,,
6166955672,53.6693725,10.0858055,Vermietungsbüro,,,
6167118733,53.5694568,9.9958193,Gemeinnützige Treuhandstelle Hamburg e.V.,Mittelweg 147,20148,Hamburg
6167118734,53.5694775,9.9960258,Hinweis Hamburg,Mittelweg 147,20148,Hamburg
6168738206,53.7311494,9.8946127,Stadtwerke Quickborn,,,
6175011602,53.5803322,9.7951238,Weko Sicherheitsdienste,,,
6176618032,53.5483197,10.0015392,Boston Consulting Group,Fischertwiete 2,20095,Hamburg
6177273164,53.5538694,10.0009113,Jobcenter,,,
6179632368,53.6817986,9.9920024,Soth,,,
6180686375,53.6253848,10.13944,Dr. v. Blittersdorff & Kollegen,,,
6180719436,53.6448517,10.0333647,EURO Möbeltransport,,,
6180719437,53.6449145,10.0332628,Hermes Shipping & Airfreight GmbH,,,
6202302870,53.5662764,10.0633043,Croatia Hamburg - Kroatische Kulturgemeinschaft e.V. Hamburg,,,
6202305527,53.565601,10.0635215,Wandsbeker Schützengilde e.V. von 1637,,,
6216373330,53.5495602,9.9960634,Bürgerschaftskanzlei,Schmiedestraße 2,20095,Hamburg
6221097866,53.5786517,9.9410573,Heilpraktiker,Langenfelder Damm 8,20257,Hamburg
6239606411,53.5498693,9.9781154,Der Hamburgische Beauftragte für Datenschutz und Informationsfreiheit,Ludwig-Erhard-Straße 22,20459,Hamburg
6241438855,53.5634432,9.9362981,Kfz Gutachter und Sachverständigenbüro Raiolo,Stresemannstraße 268,22769,Hamburg
6241474034,53.5756874,10.0623183,CDU-Kreisverband Wandsbek,Wandsbeker Königstraße 66,22041,Hamburg
6243649091,53.5526226,10.0034546,BIT-SERV GmbH,Kurze Mühren 1-3,20095,Hamburg
6246481790,53.5831129,9.9308817,Attingo Datenrettung GmbH,Warnstedtstraße 12 B,22525,Hamburg
6255813047,53.5670654,9.9963242,FMP Mundt & Born mbB Rechtsanwälte,Mittelweg 161,20148,Hamburg
6255817653,53.5690581,9.9957904,Rechtsanwälte Günther,Mittelweg 150,20148,Hamburg
6255845785,53.5511717,9.933515,Brandslisten GmbH,Winterstraße 2,22765,
6257883411,53.5583764,9.9103982,ensibo GmbH,Friesenweg 5,22763,Hamburg
6258047938,53.4756493,10.2477899,Igor Schmeer Dachtechnik,,,
6259600578,53.5508575,9.9629885,UNIBERG,Simon-von-Utrecht-Straße 85a,20359,Hamburg
6264770054,53.5529285,9.9859532,Generalkonsulat der Portugiesischen Republik,Amelungstraße 4,20354,Hamburg
6269157008,53.6491069,10.1665483,Kanzlei Bischoff,,,
6277009136,53.5509567,9.986217,MOIA,,,
6278275605,53.5677426,9.9622225,Industrial Workers of the World Hamburg,,,
6278275606,53.5677637,9.962193,Freie Arbeiter Union Hamburg,,,
6279368755,53.4651828,9.9630897,CM Reisen Hamburg,Heimfelder Straße 1,,
6280685751,53.5631644,9.9433136,MLPD,,,
6284357139,53.5428068,10.0005785,Wunder Mobility,,,
6284365836,53.5429933,9.9941045,S-KAI,,,
6294740394,53.5955993,9.9572619,,,,
6298992086,53.7188535,9.9989938,Rehfeld & Kollegen,Ulzburger Straße 356d,22846,Norderstedt
6301673429,53.4643462,9.9624408,Ge & Ko,,,
6302225175,53.5190005,10.0503136,Seven Seas Shipping & Logistics GmbH,,,
6302225177,53.5192344,10.0497204,LZH,,,
6302225192,53.5198066,10.0481399,Fercam AG,,,
6307831482,53.5476661,10.0198558,Sharp Devices Europe GmbH,Nagelsweg 33-35,20097,Hamburg
6311703905,53.6107606,10.1194704,Barrierefreies Hamburg e.V.,,,
6312285173,53.5217082,10.0441303,Zell & Mohr GmbH,,,
6312285174,53.5215009,10.0445031,Zemo Tools,,,
6313159627,53.4661965,9.7927168,"R. M. Brodda, M. Schulz",Bahnhofstraße 29,21629,Neu Wulmstorf
6323035715,53.5656372,9.9829996,Debeka,,,
6323165191,53.574453,10.02047,Kanzlei Bergmann,,,
6328910275,53.5764408,9.9505659,PPS Familienrecht,,,
6329324890,53.5562767,9.9325652,Verkehrsclub Deutschland Landesverband Nord e. V.,Nernstweg 32-34,22765,Hamburg
6330999211,53.58813,10.0444286,VBG,Massaquoipassage 1,22305,Hamburg
6331278945,53.5730944,10.0738862,Katholisches Pfarramt,,,
6341759147,53.5148269,10.0422676,Rudolf Neber Tiefbau,Müggenburger Straße 12,20539,Hamburg
6341759148,53.514909,10.0419967,OAM Baustoff-Terminal,,,
6348030397,53.7335802,10.0238764,Breuell & Hilgenfeldt,,,
6348030398,53.7335961,10.0230154,Druckluft-Service Karl Kummerfeldt,,,
6348030399,53.7339007,10.0229859,Klaus Groß,,,
6348030400,53.7338372,10.0239488,Paul Filter,,,
6348030402,53.7326679,10.022251,WIP Mess- und Regelarmaturen,,,
6348030409,53.732268,10.0223342,Albert Rauch,,,
6348030410,53.732157,10.0215429,Carstens Shop-Einrichtungen,,,
6348030411,53.7321823,10.0210521,Eckenhoff,,,
6348030412,53.7326425,10.0215644,Edelstahlservice Sulz,,,
6348030413,53.7326012,10.020411,MTM Medizintechnik Mauk,,,
6348400728,53.7355761,10.0174498,Stollwerck,,,
6348417386,53.7272427,10.0215375,Parkhalle Norderstedt,Oststraße 145,22844,Norderstedt
6348417387,53.7272776,10.0211272,eviateg GmbH,,,
6349452615,53.549575,9.9954978,ARINET GmbH,Schauenburgerstraße 6,20095,Hamburg
6351138267,53.7297356,10.0178093,Nordfoto,,,
6351138268,53.7300149,10.0177449,Babyton,,,
6352352653,53.5803628,9.9793853,Holistic Care GmbH,,,
6356306222,53.5505178,10.0119207,DGB Hamburg,Besenbinderhof 60,20097,Hamburg
6368758994,53.5826518,9.9342806,C&K - Ingenieur- und Gutachterbüro,,,
6373225011,53.6638612,9.9772623,Profizelt24,,,
6373892446,53.582374,9.9746659,Dr. Burschberg & Partner PartG mbB,,,
6376556965,53.5719855,10.0723781,Gemeindebüro Christuskirche Wandsbek,,,
6376556966,53.5720031,10.0725125,Dr. Jörn Lütjohann,,,
6378754672,53.4610828,9.9806074,Abgeordneter Dr. Kurt Duwe (FDP),,,
6382662861,53.5503478,9.9979596,PiT Personalservice im Takt GmbH,Kreuslerstraße 10,20095,Hamburg
6389209478,53.5461155,9.9845605,ORBIT Ventures GmbH,,,
6402561467,53.5860688,9.9343145,Hoppe,Kieler Straße 318,22525,Hamburg
6412799049,53.7000316,9.9937299,Rechenzentrum Akquinet,,,
6412823234,53.7134679,9.9905111,Malteser in Norderstedt,,,
6414917642,53.5917326,9.9816191,Geschichtswerkstatt Eppendorf,Martinistraße 44a,20251,Hamburg
6414917643,53.5917963,9.9817666,martini erleben,Martinistraße 44a,20251,Hamburg
6418513026,53.544007,10.0149011,Waagen-Service Mahnke & Rungius GmbH,,,
6420915885,53.5418848,10.0014862,Green Planet Projects GmbH,Hongkongstraße 10,20457,Hamburg
6428039121,53.5794861,10.1033687,Solo Gebäudemagment,,,
6444977290,53.5276852,10.02082,HyCP Veddel Space,,,
6445028636,53.5491953,10.0246033,GIS-Akademie,,,
6448114685,53.6521706,10.2612296,,,,
6450442836,53.5855215,9.9538159,Felicious GmbH,Herlingsburg 16,22529,Hamburg
6452258620,53.5603239,9.858744,Institute of Plant Science and Microbiology,,,
6454696501,53.7276157,10.0264212,EGGERS Tiefbau GmbH,Harksheider Straße 110,22889,Tangstedt
6456392629,53.4656897,9.9807938,Jobcenter Harburg,,,
6457504771,53.4904761,10.2132316,GSD Software Design GmbH,Ernst-Mantius-Straße 24,21029,Hamburg
6457664395,53.6478302,10.0082292,Menschen & Märkte,,,
6461625762,53.550126,9.9947167,Innenstadtkoordination,,,
6463208432,53.5449693,9.9955278,Hamburg Port Authority,Neuer Wandrahm 4,20457,Hamburg
6473646811,53.5805087,9.7970653,Gebäude- und Alarmtechnik GmbH,,,
6482335530,53.6137142,9.972005,SAGEMCOM Dr. Neuhaus GmbH,Papenreye 65,22453,Hamburg
6483353552,53.5914285,10.0570775,Techniker Krankenkasse Hamburg-Barmbek,,,
6494771887,53.5580212,9.9881414,Spaces,Gorch-Fock-Wall 1a,20354,Hamburg
6494771888,53.5472792,9.9990523,Spaces,Willy-Brandt-Straße 23,20457,Hamburg
6499485639,53.6469185,10.0761257,Vereinigte Lohnsteuerhilfe e.V.,,,
6502286992,53.546142,10.1062755,IHG Immobilien Hamburg GmbH,Schiffbeker Weg 68,22119,
6504524313,53.5612437,9.9637291,Yessian Music GmbH,Schulterblatt 58,20357,Hamburg
6507886482,53.6573431,9.9038878,Classic Parking,Goosmoortwiete 9g,,
6508962811,53.4896344,10.2093701,Bergedorfer Schifffahrtsline,,,
6515383800,53.5396867,10.1067428,Kirchstein Immobilien GmbH,Möllner Landstraße 27,22111,Hamburg
6515469073,53.5832601,9.9799891,Allianz,Lehmweg 35,20251,Hamburg
6515491185,53.5838302,9.9791069,Goldflotte GmbH + Co. KG,Löwenstraße 16,20251,Hamburg
6518753768,53.4880428,10.2131333,Allianz Generalvertretung Wolfgang Niegel,,,
6524674326,53.5550135,10.0003001,Campana & Schott,Ballindamm 4-5,20095,Hamburg
6535437800,53.5423072,9.9825578,McKinsey & Company,Am Sandtorkai 77,20457,Hamburg
6542583455,53.5799248,9.9392254,Debeka Servicebüro Hamburg Eimsbüttel,Langenfelder Damm 37,20257,Hamburg
6546781506,53.5597882,9.9684684,Transact - Gesellschaft für Software & Analyse mbH,Lagerstraße 17,20357,Hamburg
6551260959,53.6810504,10.0004678,Engel & Völkers,,,
6552177678,53.5450565,10.0267213,Hauptzollamt Hamburg,Süderstraße 63,20097,Hamburg
6570562631,53.4640852,9.9670273,Vorpahl Umzüge,,,
6572671959,53.5498285,9.9943535,Videobeat,Rathausstraße 4,20095,Hamburg
6583653902,53.5125878,10.0547075,LMS,Peutestraße 80a,20539,Hamburg
6583653903,53.5126915,10.0544205,Setwork,Peutestraße 80a,20539,Hamburg
6583659645,53.517643,10.0518819,Profil Papiervertriebs GmbH & Co. KG,,,
6583659649,53.5172195,10.0529499,Pro Neupa GmbH,,,
6583659650,53.5174396,10.0527192,Papierverarbeitung Melosch GmbH & Co.,,,
6584208481,53.547385,9.9836121,Bundesverband Deutscher Versicherungsmakler,Admiralitätstraße 58,20459,Hamburg
6584719378,53.5189454,10.0503762,Logistik & Transportges.Meyer mbh,,,
6584719379,53.519007,10.0504282,LTH Langhorst Trucking Hamburg GmbH,,,
6584720731,53.519374,10.0492712,WSW Logistik GmbH,,,
6584720732,53.5194982,10.0488715,Elneco Lagerei GmbH,,,
6594909475,53.5197102,10.0482232,Daimay Europe GmbH,,,
6594909476,53.5196528,10.0481749,Husarich GmbH,,,
6594916410,53.5197816,10.0482262,Universal Transport Michels GmbH & Co. KG,,,
6594916412,53.520455,10.0459281,Die Schmücker Klöpner GmbH,,,
6594916413,53.5205635,10.0455786,Husarich GmbH,,,
6594916437,53.5206247,10.0449379,Computrade,,,
6594916438,53.5205784,10.0450761,AS-Nord GmbH,,,
6594916481,53.5233891,10.0368158,HPA - Hamburg Port Authority,,,
6594916482,53.5237004,10.0358601,Hatraco GmbH,,,
6594916483,53.5235489,10.0363253,Siegmann + Schröder GmbH,,,
6597306526,53.6110548,10.023949,Asekurado Versicherungsmakler GmbH,,,
6600193854,53.6082938,10.0051832,Hausverwaltung Wilde GmbH,,,
6613000707,53.5407179,10.0022011,TK Hafencity,Überseeallee 6-8,20457,
6622433331,53.5467285,10.0278746,sysfive.com GmbH,Sachsenstraße 20,,
6625017699,53.6736841,10.1226546,Trufi Association e.V.,,,
6627151820,53.6616259,9.7950383,Schapke & Rickmann Steuerberatungsgesellschaft,Dingstätte 32 b,25421,Pinneberg
6635648782,53.5478335,9.9922175,Reederei F. Laeisz,Trostbrücke 1,20457,Hamburg
6636570475,53.6098619,9.8405078,Schapke & Rickmann Steuerberatungsgesellschaft,Lornsenstraße 128-130,22869,Schenefeld
6640047986,53.5848148,10.02825,De Fleetenkieker e.V.,Großheidestraße 2,,
6649427109,53.4645963,9.9645202,Dirk Abraham,,,
6649427127,53.4642819,9.9627572,Buch Wunder Werk,,,
6651740371,53.4679851,9.9670505,RGM Facility Management GmbH,,,
6651768685,53.4672131,9.9654051,Kröger Rechtsanwaltskanzeil,,,
6653195020,53.4676209,9.970672,D. F. Liedelt,,,
6653939692,53.5331884,9.877182,Allianz,,,
6655020757,53.5547507,9.9808218,GMBC,Kaiser-Wilhelm-Straße 93,20355,Hamburg
6655027511,53.5547267,9.9807853,Ekkore,Kaiser-Wilhelm-Straße 93,20355,Hamburg
6659151754,53.5086504,9.7360801,Öko-Obstbau Norddeutschland - Versuchs- und Beratungsring e.V.,Moorende 53,21635,Jork
6660741211,53.4633072,9.959555,Beratungsstelle Lohnsteuerhilfeverein,,,
6669594079,53.6024565,10.149741,CycleSEC Academy,Heestweg 12a,22143,Hamburg
6682845142,53.5386847,10.0546709,Zoder,,,
6695748157,53.556591,9.9096134,adelante Jugendhilfe,Griegstraße 75,22763,Hamburg
6699100656,53.5150131,10.2085023,Julia Bentin,,,
6699127100,53.5155944,10.209032,Areal Sicherheitssysteme,,,
6699399283,53.6259149,10.0053191,Ausweisstelle,,,
6700325303,53.4516116,9.9828874,Jugendrotkreuz Harburg,,,
6711544834,53.5810236,10.0153683,WPS – Workplace Solutions GmbH,,,
6720018461,53.6082248,9.8389904,Allianz Generalvertretung Thomas von Appen,Kiebitzweg 41,22869,Schenefeld
6738392457,53.6201859,10.0035523,interpersonal GmbH (Verwaltung),Geschwister-Beschütz-Bogen 6,22335,Hamburg
6741915926,53.4879845,10.2123677,K. Pipping Immobilien,,,
6742517794,53.5538465,9.9890658,SCHUTZWERK GmbH,Poststraße 33,20354,Hamburg
6749656941,53.4563413,9.9729735,meravis,,,
6755526788,53.5793714,10.0616316,Geschichtsgruppe Dulsberg e.V.,,,
6791067248,53.5945212,9.9833428,MassiveButDynamic Group GbR,Geschwister-Scholl-Straße 52,20251,Hamburg
6793520814,53.4707189,9.9489359,Debeka-Servicebüro Hamburg,,,
6793527390,53.4684183,9.9603967,Karin Stein Grundstücks GmbH & Co. KG,,,
6794513644,53.5707873,9.9753333,Single Malt Audio,,,
6796994624,53.5953039,9.9468144,KNISTR GmbH,Hugh-Greene-Weg 2,22529,Hamburg
6801797201,53.4111667,10.018054,svt Brandschutz Vertriebsgesellschaft mbH Ost International,,,
6814734353,53.5721595,10.0733492,Die Linke,Schloßstraße 90,22041,Hamburg
6820765819,53.6940472,9.9160637,Wertplan Nord Immobiliengesellschaft mbH,Groote Kamp 35,25474,Hasloh
6848414008,53.5567439,9.9285728,Bastian + Fuchs,Bahrenfelder Straße 242,,
6866232022,53.4482872,9.9459381,Kanzlei Leßniak,,,
6896976146,53.5482391,10.0020065,Climate Service Center Germany,Fischertwiete 1,20095,Hamburg
6901940423,53.5489931,10.0009363,JOB Kontor GmbH,,,
6903466866,53.6818729,9.9933482,Gemeinschaftspraxis Mangeleer-Eisfeld,Ochsenzoller Straße 191,22848,Norderstedt
6903798858,53.4580964,9.9806471,Lionizers GmbH,,,
6909377063,53.5446904,9.9761203,LOGIC JOE,Vorsetzen 53,20459,Hamburg
6909436496,53.5506106,9.9686664,CGI,Millerntorplatz 1,20359,Hamburg
6917036903,53.461046,9.9501627,Institut für Notfallmedizin,,,
6924065403,53.5855491,10.0069744,Cancom GmbH,Poßmoorweg 2,22301,Hamburg
6931098183,53.5526454,10.0123089,pix & pinsel,Adenauerallee 8,20097,Hamburg
6949583146,53.5674212,10.0301067,DWARS & iZMiRLi,,,
6971120337,53.5742204,10.0710977,Hamburgnet,Kattunbleiche 18,22041,Hamburg
6975326003,53.6204443,10.0904502,Gemeindebüro St. Wilhelm,,,
6982159200,53.55583,9.90772,JobCenter Altona,,,
6986417846,53.5764282,9.8210935,Reisebüro Iserbrook,,,
7005112581,53.4840065,10.1979382,Struck KG,,,
7005149047,53.5829361,10.0157456,I.T.E.M.S. AFRICA GmbH & Co. KG,Forsmannstraße 8b,22303,Hamburg
7005265273,53.6062877,10.1515958,Hauptgeschäftsstelle Nordlicht e.V.,Grubesallee 26,,
7017936416,53.5824241,9.9699238,BSE IT UG,,,
7026451881,53.642579,10.0861701,mpsc Beteiligungsgesellschaft mbH,Lockkoppel 5a,22391,Hamburg
7047270794,53.6335431,9.9638036,Erbrecht Groß,König-Heinrich-Weg 148,22455,Hamburg
7048799596,53.5502268,9.9562991,Hamburger Ding,,,
7057291106,53.6000415,10.04087,Versicherung Hamburger Feuerkassen,Fuhlsbüttler Straße 299,22307,Hamburg
7061471170,53.6463536,10.0136738,öffentliche Rechtsauskunft,,,
7061478422,53.6464327,10.0135314,Mütterberatung,,,
7061486125,53.6463124,10.0132536,Grundsicherung und Soziales,,,
7070311200,53.7311906,9.9051619,Mees Immobilien,Querstraße 2,25451,Quickborn
7070311201,53.7310685,9.9051967,1. FC Quickborn,Querstraße 2,25451,Quickborn
7070311202,53.7310962,9.9051888,SPD-Geschäftsstelle,Querstraße 2,25451,Quickborn
7070471825,53.7309907,9.9019687,Adlershorst Kundencenter Quickborn,Bahnhofstraße 23b,25451,Quickborn
7074387384,53.6624928,10.2854606,Otto Cropp Hausverwaltung GmbH,Eilbergweg 11,22927,Großhansdorf
7084206917,53.5918724,9.9662465,die-HAUS-FRAUEN,,,
7084672043,53.6496437,10.0133797,Belgisches Konsulat - Wirtschaftsvertretung der Wallonie,,,
7096493589,53.4706289,9.949199,Nicolas Emmanuel Heinrichs,,,
7101879746,53.5460704,9.9395693,Honorarkonsulat von Südafrika,Palmaille 45,22767,Hamburg
7101879747,53.5460705,9.9393894,Deutsche Afrika Linien,Palmaille 45,22767,Hamburg
7128122378,53.6517985,9.9069522,Pflanzbar GbR,,,
7131386419,53.463741,9.9618121,AZ Gebäudeservice GmbH,,,
7137693185,53.4892381,10.2684926,Vastobau Gndh,,,
7139978439,53.6238057,10.1467016,Rechtsanwalt Mc Veigh,Fasanenweg 25,22145,Hamburg
7149816367,53.5576306,10.0203145,SECURVITA,,,
7165993386,53.5447327,10.0016107,NTT Germany AG & Co. KG,,,
7166896402,53.5479341,9.9598534,Agent ERP GmbH,Balduinstraße 24,20359,Hamburg
7188434915,53.6495566,10.0129273,W. Markgraf GmbH & Co. KG - Projektbüro,,,
7188437727,53.6495413,10.0128165,Condor Steuerberatungsgesellschaft mbH,,,
7202767960,53.5426614,9.9881083,BayWa r.e. Wind GmbH Büro Hamburg,Am Sandtorkai 66,20457,Hamburg
7221675685,53.6334688,9.8560255,Bindemann Group,Gärtnerstraße 81G,25469,Halstenbek
7222547529,53.5472729,10.1076918,HUK-Coburg,Schiffbeker Höhe 2a,22119,Hamburg
7227458079,53.5467958,9.9722654,Landesjugendorchester Hamburg,,,
7230118349,53.5478732,9.9875041,Design Offices,Görttwiete 16-20,20459,Hamburg
7230129282,53.5492759,9.9958018,Design Offices,Domstraße 10,20095,Hamburg
7243135306,53.736839,9.8945577,DRK Ortsverein Quickborn,,,
7245989908,53.5496918,10.0102521,DB InfraGO AG Produktionsdurchführung Hamburg Kundenmanagment,,,
7245989909,53.5496527,10.0103702,DB Stations&Service AG Regionalbereich Nord Bau- und Anlagenmanagment,,,
7248241829,53.5521829,9.9847091,MomentaryX AG,Axel-Springer-Platz 3,20355,Hamburg
7258416554,53.5573828,9.9364176,TOTEC,,,
7258873183,53.5720076,9.892993,Zentrales Fundbüro Hamburg,,,
7260473328,53.5763023,9.9169702,Dumrath & Fassnacht,Winsbergring 38,22525,Hamburg
7266050885,53.464223,9.9657294,Quickborn Verlag,,,
7277336121,53.7224056,10.2675498,CEMEX Deutschland AG,Lohe 58,22941,Bargteheide
7296411651,53.6602772,10.0843401,Rechtsanwälte Susanne Fuchs-Wenskat & Dr. Wolfgang Wenskat,,,
7298565588,53.5624595,9.975362,Hamburg Messe und Congress GmbH,Messeplatz 1,20357,Hamburg
7299271059,53.456435,9.978649,Beschriftung,,,
7299738056,53.4625739,9.9876419,lohi,,,
7302343360,53.4555708,9.9778019,Lembke & Langhans,,,
7302440735,53.4586423,9.9825355,Der Hafen,,,
7332437467,53.4669893,9.9520931,Steuerberatung M. Pollmann,,,
7335590367,53.4649195,9.9477795,debicon,,,
7335590368,53.4649579,9.9477285,Dipl.-Finanzwirt Wolfgang Papist,,,
7344438235,53.6532412,10.0190525,Luftfahrt-Bundesamt Außenstelle Hamburg,,,
7362908307,53.69241,10.0529797,Formel 1 in der Schule gGmbH,Hans-Böckler-Ring 23c,22851,Norderstedt
7376023336,53.5477131,9.9307014,HAPPY BRANDS,Holländische Reihe 11,22765,Hamburg
7379618472,53.4643799,9.9483736,Wietbrok Rechtsanwälte,,,
7379618473,53.4644078,9.9483736,TBR Architekten,,,
7379646502,53.4671334,9.9470137,AVAutomatisierungs GmbH,,,
7380756517,53.4622535,9.9737505,Bock Innenausbau,,,
7425938156,53.5716134,10.0308217,Jobcenter,,,
7439176765,53.5693052,9.9412872,tricargo,Waidmannstraße 12,22769,Hamburg
7453264744,53.5732502,9.958929,MacgyverIndustries,Schulweg 18,20259,Hamburg
7467717985,53.543057,9.9866298,Maersk Deutschland A/S & Co. KG,,,
7467718085,53.543026,9.9867438,Schroeder KG (GmbH & Co.),,,
7467718285,53.543002,9.9862995,Deutsche Gesellschaft für Privatpatienten mbH,,,
7469465451,53.508624,10.2504354,Logopädische Praxis Bloch & Team,,,
7475449688,53.6216858,10.1645972,Zurich Bezirksdirektion Borowiak Jacks Lengfelder GmbH & Co. KG,,,
7532648923,53.566706,9.9568864,Sternglas,Eimsbütteler Chaussee 23,20259,Hamburg
7538955681,53.5488381,10.0025958,Tegtmeier Inkubator GmbH,Burchardstraße 14,20095,Hamburg
7573159869,53.5451901,10.0097512,Headquarters Hamburg Werbeagentur,Stadtdeich 27,20097,Hamburg
7608215945,53.6013902,9.8138045,INTENSIVkinder zuhause e.V.,,,
7618292913,53.5506068,9.9840313,Behörde für Wirtschaft und Innovation,,,
7618292914,53.5506223,9.9837762,Behörde für Verkehr und Mobilitätswende,,,
7622963900,53.4620465,9.9850052,Helge Groeneveld,,,
7622990011,53.46272,9.9795576,malia tax,,,
7638241535,53.5249118,10.0271755,TSR,,,
7643267744,53.5538915,10.0980705,Pfarrbüro,,,
7648768080,53.64967,10.1175355,Stefan Dehns,Berner Weg 31,22393,Hamburg
7648780758,53.7297322,10.2676542,Stefan Dehns,Rathausstraße 28,22941,Bargteheide
7656868472,53.7315618,9.9039435,Provinzial Thomas Blaume,Bahnhofstraße 108,25451,Quickborn
7656874452,53.7308188,9.9038913,Debeka,,,
7656953930,53.7312377,9.8991337,Wendt Hausverwaltung,Bahnhofstraße 11,25451,Quickborn
7656970087,53.7312033,9.8991388,Nuro Bau GmbH,Bahnhofstraße 11,25451,Quickborn
7656981729,53.7312361,9.8991986,Kanzlei Quickborn,Bahnhofstraße 11,25451,Quickborn
7686998637,53.6786976,10.1437859,Ruf Deutschland GmbH,,,
7688408800,53.6790137,10.1435056,Nocke Lagerhaus,,,
7705557108,53.5451519,10.0092256,Complete Dienstleistung GmbH,Stadtdeich 7,20097,Hamburg
7705594802,53.5515064,10.0252328,Mikro Partner Service GmbH Hamburg,,,
7707545456,53.5736161,9.9606536,Hamburger Feuerkasse,Eppendorfer Weg 97,20259,Hamburg
7709909434,53.5622362,9.9388009,hegel° architektur,,,
7714509064,53.5656044,9.9430937,Jugendberufsagentur für Arbeit,,,
7728113308,53.5851077,10.0279509,Rechtsanwälte Müller-Knapp • Hjort • Wulff,,,
7745467159,53.6029661,9.9110149,Anders & Anders GbR,,,
7760898485,53.6329936,9.9240513,Vantopia GmbH,Frohmestraße 59,22459,
7798888228,53.6704418,10.0741893,Centurius,,,
7811049320,53.5890096,10.0541464,POWmedia GmbH,Bramfelder Straße 102a,22305,Hamburg
7811049321,53.5890511,10.0541271,Praxis für Lerntherapie,Bramfelder Straße 102a,22305,Hamburg
7816526429,53.5838185,9.9790247,Kanzlei Maack,Löwenstraße 16,20251,Hamburg
7816526430,53.5838482,9.9790688,Steuerberaterin Petra Brandt,Löwenstraße 16,20251,Hamburg
7821128560,53.4601532,9.9723844,Steuerberater Holger Richter,Eißendorfer Straße 43a,,
7836595986,53.5939324,9.9950572,Arbeit und Mehr,,,
7836595987,53.593954,9.9951514,TGMC Recruting Services GmbH,,,
7836595988,53.5939359,9.9951837,Heissner & Struck,,,
7840507271,53.5879624,10.0447204,Digitec GmbH,Krüsistraße 7,22305,Hamburg
7840782338,53.5400548,10.0025998,foodlab Hamburg,Überseeallee 10,20457,Hamburg
7869922163,53.60892,10.0678559,Kfz-Sachverständigenbüro Mahnke & Sohn GmbH,Fabriciusstraße 210,22177,Hamburg
7893503520,53.5419829,10.004563,bbsMEDIEN - Die Kretivagentur,Am Lohsepark 16,20457,Hamburg
7893503521,53.5420339,10.0045496,Netzwerk Hafencity e. V.,Am Lohsepark 16,20457,Hamburg
7894334374,53.4667965,9.9743696,Block Mono,,,
7894334375,53.4668229,9.9743092,moij design,,,
7896217987,53.5469075,9.9967245,Abelone Films GmbH,Brandstwiete 42,20457,Hamburg
7903042979,53.6276757,10.0983219,Kanzlei Rechtsanwalt Siegfried S. Heida,Lüdmoor 39,22175,Hamburg
7924924350,53.5526648,9.9924131,SYNGENIO AG,Neuer Wall 10,20354,Hamburg
7932664412,53.6378608,9.9233169,MesseHalle Hamburg-Schnelsen GmbH,Modering 1a,22457,Hamburg
7933626638,53.5475823,9.9853231,Ebner Stolz,Ludwig-Erhard-Straße 1,,
7937888037,53.4621837,9.9754132,HUK-Corburg Marina Schimanski,,,
7941847776,53.5531058,10.009843,Amanat,Steintorweg 2,,
7942192992,53.5708544,10.0715248,Gesundheitsamt Wandsbek,Robert-Schuman-Brücke 8,22041,Hamburg
7945028805,53.5478751,9.9913475,Unilever Deutschland GmbH,,,
7949039580,53.5522201,10.0379489,dentisratio GmbH Hamburg,,,
7951363000,53.552845,10.0111655,Fritz Fick GmbH,Steindamm 8,20099,Hamburg
7968636164,53.5415396,9.9861545,Consulting 86 Fides,Am Kaiserkai 60,20457,Hamburg
7969263830,53.5759666,9.953681,Marcus Tischel,Osterstraße 92,20259,Hamburg
8002695767,53.620354,10.0821602,Susanne Gassan,,,
8002695773,53.6208088,10.0824651,Sport Reisen,,,
8002695776,53.6212737,10.0828407,Dirk von Minden,,,
8006572258,53.4592303,9.9587365,Architekturbüro Sawallich,Mehringweg 24,21073,Hamburg
8007207576,53.457794,9.9597805,FaberTec IT,Mehringweg 12,,
8007345174,53.4575975,9.9638049,Heinrich & André Rohn e.K.,Eißendorfer Straße 86,,
8042541562,53.4866772,10.1809735,Oxyton Pharma GmbH,Edith-Stein-Platz 7,21035,Hamburg
8062891074,53.6039993,10.0442899,Architekten Thomas Giese & Reinhard Scholl,Elligersweg 31,22307,Hamburg
8069217085,53.6965421,10.1331893,Michael Rübcke,Kupferredder 17,22397,Hamburg
8080770613,53.417796,9.8806797,Silke Lebender Achtsamkeit und Meditation,,,
8089012536,53.4355747,9.9038368,Pastorei zu Vahrendorf,,,
8113404898,53.5847665,9.9699041,DEKOM,Hoheluftchaussee 108,20253,Hamburg
8165224977,53.6447481,9.7892812,proLogistik,Eggerstedter Weg 16,,
8190826102,53.6670692,10.232818,Melville - Schellmann GbR,Bogenstraße 28,22926,Ahrensburg
8223839439,53.5028735,9.9228564,Rhenus Logistics,,,
8239906414,53.5445113,10.0513849,Behr Objekt,Hammer Deich 160b,20537,Hamburg
8259737095,53.5516955,9.9967203,Aequitas Software Gmbh & Co. KG,Hermannstraße 13,20095,Hamburg
8281785351,53.5471609,9.9862879,Signa Projektbüro Flüggerhöfe,,,
8284041841,53.5648941,9.9801941,Daniel Heid,Durchschnitt 19,20146,Hamburg
8288623856,53.5533347,9.9998942,combine Consulting GmbH,Raboisen 38,20095,Hamburg
8297383425,53.7256399,9.9187177,Dirk Gulderer Immobilien,,,
8297383426,53.7256399,9.9186,Röper GmbH Versicherungsmakler,,,
8305148917,53.6747041,9.7685425,Ludwig Weber GmbH,,,
8324741145,53.544681,10.019524,Plansysteme GmbH,Amsinckstraße 57,20097,Hamburg
8325160887,53.5577622,9.9892015,Dataletics GmbH,Stephansplatz 6,20354,Hamburg
8325802811,53.671713,10.0021023,Dokumenta,,,
8326245668,53.4337018,9.9053146,Globetrotter Reisen u. Subunternehmerliniendienste,,,
8329687054,53.5390617,9.9933194,NEW WORK SE,Am Strandkai 1,,
8334841217,53.5824613,10.0239787,Orange Cube Werbeagentur,Osterbekstraße 86,,Hamburg
8355440270,53.5796274,9.9472231,Hamburgs Immobilienmakler,Stellinger Weg 43 Haus 6,20255,Hamburg
8376264117,53.5948356,9.9870482,Weinhardt Immobilien,,,
8376686467,53.5502252,10.1588183,Planevision Systems,Gewerbering 8,22113,Oststeinbek
8381611422,53.5513702,9.9869116,kvadrat soft cells,,,
8388519992,53.6522719,10.0082405,Gemeindebüro Ansgar,,,
8394444659,53.6047738,10.1554442,ServiceCenter Vattenfall,,,
8409692897,53.5799703,9.8508283,Johanniter Ortsgruppe Osdorf,,,
8413371469,53.5544822,9.9315393,Lichten | Kommunikation und Gestaltung,Hohenesch 55,22765,Hamburg
8414792651,53.5543634,9.9468622,Theorie und Praxis Verlag Hamburg,Hospitalstraße 67a,,Hamburg
8414792652,53.5546176,9.9454956,Karex Warenhandels GmbH,Esmarchstraße 82,22767,Hamburg
8414792653,53.5546232,9.9454285,ASA Handelskontor GmbH,Esmarchstraße 84,22767,Hamburg
8414792655,53.5546463,9.9453722,Frauentherapiezentrum Hamburg e.V.,Warnholtzstraße 2,,Hamburg
8414792656,53.5548917,9.9456029,BESPOKE co/work,Warnholtzstraße 4,22767,Hamburg
8418147992,53.6165722,10.1142251,SPD Bürgerbüro Regina Jäck,Neusurenland 107,22159,Hamburg
8420556287,53.590059,10.053432,Riesenbeck IT-Lösungen,Bramfelder Straße 121,22305,Hamburg
8422752375,53.5472962,10.0262301,ECS Elbe Clean Service,,,
8440357917,53.464198,9.9832194,VIPERdev HQ,,,
8443187107,53.6209582,9.7941516,LVM-Versicherung Agentur,Waldenauer Marktplatz 11,25421,Pinneberg
8443187108,53.6210759,9.7941301,SuS Waldenau,Waldenauer Marktplatz 11,25421,Pinneberg
8443187109,53.6211905,9.794106,Apotheke Waldenau,Waldenauer Marktplatz 9,25421,Pinneberg
8446106425,53.4474938,9.9904655,Provinzial H.A. Schween,,,
8460892094,53.5524592,9.9866016,EmLab Legal,Hohe Bleichen 5,20354,Hamburg
8465317634,53.5714571,9.9807559,Flüchtlingshilfe Harvestehude,,,
8486124889,53.5596108,9.9393306,Quartiersbüro - Mitte Altona,Harkortstraße 91,22765,Hamburg
8486764979,53.573846,9.9271822,Speidel System Trocknung GmbH,Marlowring 6,22525,Hamburg
8509409558,53.4172255,9.8898672,Wiegers Immobilien-Service,Brandheide 23a,21224,Rosengarten
8509430387,53.4172698,9.8911079,Vermietung Eduard Donhauser,Brandheide 17,21224,Rosengarten
8523331436,53.5910866,9.8329886,Selectus GmbH,Osterbrooksweg 71,22869,Schenefeld
8534324563,53.5534707,9.9902302,PlayTheHype,Große Bleichen 16,20354,Hamburg
8548265961,53.6695303,10.2436322,Schulz Seelig Triebe,,,
8553070786,53.5441871,10.0297508,Hamburg Welcome Center for Professionals,Süderstraße 32b,20097,Hamburg
8557361067,53.5565031,9.9229687,SCHROLLER mobilmedia.hamburg,Planckstraße 13,22765,Hamburg
8567985602,53.6643753,9.904908,Lütt Huus,Kieler Straße 101b,25474,Bönningstedt
8568140014,53.6643296,9.904953,consenss,Kieler Straße 101b,25474,Bönningstedt
8568155526,53.6641762,9.9050526,Bosse & Schormann Rechtsanwälte u. Notare,Kieler Straße 101a,25474,Bönningstedt
8575540818,53.5387184,10.0316596,LASERCUT.HAMBURG,Billhorner Brückenstraße 40,20539,Hamburg
8575551923,53.5698571,9.8835757,pike engineering,,,
8575551925,53.5698546,9.8836229,CAE-Forum,,,
8583371377,53.5694625,9.995869,"Hohage, May & Partner mbB, Rechtsanwälte, Steuerberater",Mittelweg 147,20148,Hamburg
8596182437,53.4218469,9.8970929,HoneyHeroes,Zu den Diebeskuhlen 2,21224,Rosengarten
8598432292,53.4217481,9.8953782,LA Bauunternehmen,Zu den Diebeskuhlen 7,21224,Rosengarten
8600109198,53.4917063,10.2569423,Westerfeld,,,
8611164521,53.5482826,10.0000919,IPM Immobilien Projekt Marketing GmbH,Hopfensack 6,20457,Hamburg
8612757546,53.4723122,9.7891233,Anwaltskanzlei Stöffler,Bahnhofstraße 71a,21629,Neu Wulmstorf
8625579810,53.5472455,9.8997036,more shiny eyes / Wondercards,Liebermannstraße 9a,22605,Hamburg
8627027474,53.5661761,10.0514744,Kräuterkiste,Evastraße 1a,22089,Hamburg
8633260964,53.4622504,9.9796136,K&N Immobilien,,,
8636196168,53.6648519,9.9045589,Lauenroth Seafood,Kieler Straße 107,25474,Bönningstedt
8636199441,53.6646233,9.9047064,Blohm Consulting GmbH,Kieler Straße 103,25474,Bönningstedt
8636201398,53.6648458,9.9044889,C.E. Schweig,Kieler Straße 107,25474,Bönningstedt
8636241559,53.6648071,9.9045246,Pohl,Kieler Straße 107,25474,Bönningstedt
8636256651,53.6649328,9.9045314,jamXmusic,Kieler Straße 107,25474,Bönningstedt
8636265436,53.6648119,9.904614,DOKTOR X On-Air Promotion GmbH,Kieler Straße 107,25474,Bönningstedt
8636271426,53.664907,9.9045211,audio))me,Kieler Straße 107,25474,Bönningstedt
8636284470,53.6647318,9.9040783,vjoon,Kieler Straße 103-107,25474,Bönningstedt
8636604444,53.5507506,9.9948023,Generalkonsulat der Republik Argentinien in Hamburg,Mönckebergstraße 22,20095,Hamburg
8640522151,53.6648596,9.9043917,Albus Block Concept GmbH & Co. KG,Kieler Straße 103-107,25474,Bönningstedt
8640527696,53.6645627,9.9035619,Advance Products GmbH,Kieler Straße 103-107,25474,Bönningstedt
8640585031,53.664804,9.9044463,ASC Albus Strom Concept GmbH,Kieler Straße 103-107,25474,Bönningstedt
8640585591,53.6646358,9.9038702,Comeback Deco Service GmbH,Kieler Straße 103-107,25474,Bönningstedt
8640586982,53.6646589,9.9039692,ALL ACCESS Entertainment GmbH,Kieler Straße 103-107,25474,Bönningstedt
8640590818,53.6647664,9.9044945,barefoot music GmbH,Kieler Straße 107,25474,Bönningstedt
8640598256,53.6648184,9.9043615,Enkon GmbH,Kieler Straße 103-107,25474,Bönningstedt
8640598385,53.6644147,9.9044111,Clintworld GmbH,Kieler Straße 103-107,25474,Bönningstedt
8640790245,53.6645111,9.903699,Fair Implant GmbH,Kieler Straße 103-107,25474,Bönningstedt
8640802593,53.6643123,9.9034029,Metall- und Motorschmiede Krüger,Kieler Straße 103-107,25474,Bönningstedt
8640820791,53.6645577,9.9043238,Prangenberg & Zaum GmbH,Kieler Straße 103-107,25474,Bönningstedt
8640821170,53.6646034,9.9037298,Hanisch Inkasso,Kieler Straße 103-107,25474,Bönningstedt
8640831380,53.6645526,9.9039181,Hamburger Zahntechnik GmbH,Kieler Straße 103-107,25474,Bönningstedt
8640831518,53.6645354,9.903824,FRAGA DENTAL,Kieler Straße 103-107,25474,Bönningstedt
8640864963,53.6645922,9.9040106,hubo LOGIC,Kieler Straße 103-107,25474,Bönningstedt
8640867912,53.664507,9.9037829,Hamburger Fräs-Manufaktur GmbH,Kieler Straße 103-107,25474,Bönningstedt
8640869660,53.6648518,9.9042725,Nähstudio Ulla Geitner,Kieler Straße 107,25474,Bönningstedt
8640872010,53.6641622,9.903848,Martin Redel Consulting,Kieler Straße 103-107,25474,Bönningstedt
8640875823,53.6644685,9.9036494,K-mat GmbH,,,
8640898219,53.6645009,9.9030657,LOYALTY Automobile Technology GmbH,Kieler Straße 103-107,25474,Bönningstedt
8640906477,53.6647119,9.9039181,Novasport Racing GbR,Kieler Straße 103-107,25474,Bönningstedt
8640906478,53.6644735,9.9037778,Oec Occident Express Cargo GmbH,Kieler Straße 103-107,25474,Bönningstedt
8640911570,53.6645161,9.9038788,Blend Shipping GmbH,Kieler Straße 103-107,25474,Bönningstedt
8640930182,53.6643792,9.9043426,TH Rückbau GmbH,Kieler Straße 103,25474,Bönningstedt
8640968255,53.6643877,9.9034785,Zeike.net GmbH,Kieler Straße 103,25474,Bönningstedt
8640986403,53.6644062,9.9033461,Dipl. Ing. Nollmann,Kieler Straße 103,25474,Bönningstedt
8661055862,53.5642272,9.9601168,Home Company,Schulterblatt 112,20357,Hamburg
8669519655,53.609963,10.0585872,Allgemeiner Sozialer Dienst Steilshoop,Gründgensstraße 26,22309,Hamburg
8686730541,53.5694442,9.9845575,Autoruf Taxizentrale,,,
8699088992,53.5517726,9.9388444,Axel Max,Neue Große Bergstraße 9,22767,Hamburg
8726386310,53.5866872,10.0440767,WEBBERS UG (haftungsbeschränkt),Wiesendamm 9,22305,Hamburg
8736486650,53.551349,10.0037002,"Polizei Hamburg, Beschwerdemanagement und Disziplinarangelegenheiten",Mönckebergstraße 5,20095,Hamburg
8756509766,53.6602735,10.0829594,,,,
8756509769,53.6604906,10.0825148,SPD Wahlkreisbüro,,,
8759746538,53.578385,9.9441612,GRÜNE Eimsbüttel,,,
8766037596,53.6760725,9.9996333,MCS GmbH,Essener Bogen 23,22419,Hamburg
8786867495,53.6507417,10.0766642,Altenpflegeschule Hamburg-Alstertal,,,
8791576596,53.6027006,10.1584938,Hypersoft,,,
8791594442,53.6025635,10.1589151,Hypersoft,,,
8808820745,53.5866208,9.9754955,Übersetzungsbüro Minić,,,
8814695365,53.7307473,9.8997028,Carstens & Carstens Partnerschafts mbB,Bahnhofstraße 24,25451,Quickborn
8815426581,53.5876215,10.0386964,JUGENDBILDUNG HAMBURG,,,
8816602445,53.553929,10.0139955,Pfandkredit Johannsen GmbH,,,
8816664065,53.54702,9.89039,Vega Reederei,,,
8816692436,53.5615074,9.9172627,Barclays Bank Ireland PLC,,,
8822025721,53.6048558,9.9091496,Signal Iduna,,,
8825734313,53.5796985,9.9374153,KOCH Consulting + Export,,,
8826266976,53.7297741,9.8966201,Steuerberater Hermanns-von der Heide & Partner,,25451,Quickborn
8826275035,53.7302002,9.8964701,Itzehoer Versicherungen,Kieler Straße 81,25451,Quickborn
8826287509,53.7308895,9.8949558,Reinhard Paul Schulz Heizungsbau,Pinneberger Straße 3,25451,Quickborn
8829342774,53.5757462,9.8438171,Geschäftsstelle Bundesverband für Deutsche Tänze,,,
8829412330,53.4637099,9.774214,A. Heer Vertrieb,,,
8830148007,53.4609628,9.7801515,,,,
8833285742,53.7288971,9.898167,TEAMMAKLER Immobilien,Kieler Straße 80,25451,Quickborn
8841376501,53.4630707,9.968403,Institute of Geo-Hydroinformatics,Am Schwarzenberg-Campus 3,21073,Hamburg
8851279984,53.5918226,9.9725274,Patienten- und Labortransport UKE,,,
8865568418,53.5774315,10.0389889,Würth Niederlassung Hamburg-Barmbek-Süd,,,
8871943864,53.5449773,9.9918586,elbspot Werbeagentur,,,
8888478425,53.5664226,9.9640014,Martin R. Simons,Margaretenstraße 39,20357,Hamburg
8890492676,53.6682897,9.9031987,blankmedia,Kieler Straße 130,25474,Bönningstedt
8890533975,53.6773001,9.9010225,Duschdichtungsprofile,Winzeldorfer Straße 50,25474,Bönningstedt
8898826793,53.4177264,9.8934662,Dahlke Verwaltungsgesellschaft GmbH,,,
8898826794,53.4177766,9.8877252,Allcar Germany GmbH,,,
8902388038,53.584726,9.9651138,Jobcenter,,,
8908038699,53.6631341,9.9053928,Ergo Versicherung Monika Schumm,Kieler Straße 95,25474,Bönningstedt
8908101178,53.6632988,9.9055377,Nerdlich Heiraten,Kieler Straße 97,25474,Bönningstedt
8911974804,53.5631585,9.8109024,Hofgeforster & Partner,,,
8920315069,53.5562903,9.988267,Vattenfall,,,
8935078080,53.498212,10.0108507,SAGA Geschäftsstelle Wilhemsburg,,,
8957090136,53.5992587,10.069845,Coca-Cola European Partners Deutschland GmbH,,,
8960824761,53.6356272,10.0530069,Gerdt Architektur,Wellingsbütteler Landstraße 239,22337,Hamburg
8974400758,53.6638962,9.9998373,UMP Utesch Media Processing GmbH,Tarpenring 13,22419,Hamburg
8980014282,53.5435866,9.9931213,Getslash GmbH,Am Sandtorkai 23,20457,Hamburg
8984200494,53.6332419,10.0544834,Menken + Schlief Hamburger Immobilien,Stübeheide 166,22337,Hamburg
8986624000,53.6298414,10.0572828,Immobilien Marketing Service,Friedhofsweg 17-19,22337,Hamburg
8986624001,53.6291855,10.0580446,Fochler & Collegen,Friedhofsweg 9,22337,Hamburg
8986659219,53.6361236,10.0571702,Georg Adler Hamburger Grundbesitz GmbH,Borstels Ende 2a,22337,Hamburg
8986659220,53.6361058,10.0571744,SSI-Verwaltung,Borstels Ende 2a,22337,Hamburg
8987634508,53.6736764,10.2399777,Klawan Immobilien,Große Straße 35,22926,Ahrensburg
8989284395,53.5428537,10.0350645,ZOLLO,,,
8990527808,53.5896338,10.0559271,THOR GmbH,,,
8994200682,53.5691482,9.9244003,LENTZ Fahrzeugtechnik GmbH,Ruhrstraße 116,22761,Hamburg
8998892103,53.5885084,10.0155007,Arbeitsgemeinschaft Hamburger Pfadfinder*innenverbände e.V.,Barmbeker Straße 71,22303,Hamburg
9002965132,53.5548063,9.9896733,Kanzlei CleverLaw,Jungfernstieg 44,20354,Hamburg
9004684768,53.5902425,10.0538072,AXA Hamburg Barmbek,Bramfelder Straße 123,22305,Hamburg
9004764668,53.5622447,9.950704,CuraSoft GmbH,Stresemannstraße 161,22769,Hamburg
9004939552,53.5461962,9.9738664,Anker Arbeitsschutz,Eichholz 33,20459,Hamburg
9006109352,53.5939811,9.9248129,MOIA Hub Stellingen Betriebslenkung,Kieler Straße 433,22525,Hamburg
9006274946,53.5766031,9.9652919,Karsten Günther Dienstleistungen GmbH,,,
9006594626,53.5792408,9.9450329,mediakitchen,Müggenkampstraße 5a,20257,Hamburg
9006817246,53.6639955,9.9050829,CS Security,Ellerbeker Straße 2,25474,Bönningstedt
9007627631,53.5486986,9.945921,el rojito e.V.,Königstraße 16a,22767,Hamburg
9008651201,53.635516,9.9159909,Engel & Völkers,Oldesloer Straße 27,22457,Hamburg
9009555373,53.548475,10.2848173,Tashi-Tuch Werkstatt - Das Stofftaschentuch aus Biobaumwolle,Am Hünengrab 11,21465,Reinbek
9010025723,53.5567859,9.9365687,Zühlke Engineering GmbH,,,
9023155536,53.6533641,9.8290347,Rechtsanwalt Christof Kordik,,,
9027148954,53.6717718,9.9979381,Gemeindebüro,,,
9037676039,53.4109392,9.9888596,Karen Ulrich Immobilien,,,
9043839553,53.5701687,9.9346473,Metall-Innung Hamburg,,,
9060933050,53.6436883,10.0616778,Heimatverein Hummelsbüttel,,,
9060946701,53.5695676,10.0853132,CFDL - Christliche Finanzdienstleistung,,,
9073316232,53.5691638,9.9245245,SPG GmbH,Ruhrstraße 116,22761,Hamburg
9088547109,53.5759799,10.081149,Ritz Instrument Transformers GmbH,,,
9092308475,53.5936422,9.9738133,Dekanat der medizinischen Fakultät,Martinistraße 52,,Hamburg
9092308476,53.5936247,9.9738642,Dekanin,Martinistraße 52,,Hamburg
9098793753,53.574512,10.070386,Soziales Dienstleistungszentrum Wandsbek,Wandsbeker Allee 71,,Hamburg
9098793754,53.5743574,10.0703999,Grundsicherung und Sozialamt Wandsbek,,,
9098799451,53.55104,9.98619,Generalhonorarkonsulat der Republik Bolivien,,,
9112909897,53.5697629,10.1687922,LemonTec GmbH & Co. KG,Stiefenhoferplatz 2a,22885,Barsbüttel
9116947073,53.5906002,10.0451509,Freiwilligenagentur Nord,,,
9120862557,53.5563021,9.9909452,Claritos - Sozietät für Finanzplanung und Handel GmbH,Große Theaterstraße 7,20354,Hamburg
9122099695,53.6414744,9.8845696,PDM Adviser GmbH Ware house,,,
9122099696,53.6413013,9.8847965,Parthian Service GmbH,,,
9122099697,53.641062,9.8850849,Pathian Beverage GmbH Co. KG,,,
9122099698,53.6410664,9.8847612,Parthian Trading GmbH & Co. KG,,,
9122099699,53.6413278,9.8844617,Parthian Cosmetics GmbH & Co. KG,,,
9122099700,53.6412109,9.8839613,SOOFI HOLDINGS AG,,,
9122099701,53.6410289,9.8841715,FTC Football Transfer Company GmbH,,,
9122099702,53.6408646,9.8843687,cotesk sports GmbH,,,
9122099703,53.6410819,9.8839279,DMG Distribution,,,
9122099704,53.6408723,9.8841753,VIParking Fly & Cruise UG,,,
9127729635,53.4209597,9.8918053,CDU Rosengarten,,,
9127729636,53.4178228,9.8869835,T. Illies Verwaltung GmbH,,,
9140428194,53.6153022,9.9092181,ASB Hamburg-Eimsbüttel Geschäftsstelle Eidelstedt,,,
9155161736,53.552868,9.9873127,COLLECTION Business Center,Hohe Bleichen 8,20354,Hamburg
9155401946,53.5694091,9.925003,FTA Props,Am Diebsteich 51,22761,Hamburg
9156265331,53.4713972,9.9691059,TÜV Harburg Provisorische Praxisprüfungsabnahme,,,
9176607220,53.6653656,9.9049398,TH Rückbau GmbH,Kieler Straße 96,25474,Bönningstedt
9183308033,53.5834714,10.0197962,Köthe Steuer & Rechtsberatung,Barmbeker Straße 12,22303,Hamburg
9195612843,53.5903751,9.9302027,Berlinhaus Verwaltung GmbH,,,
9195766517,53.6794112,9.9101775,Martens Kunststofftechnik,Nordring 19-21,25474,Bönningstedt
9195766518,53.6793885,9.9101775,Allku,Nordring 19-21,25474,Bönningstedt
9195766525,53.6793541,9.9098384,Flexotube GmbH,Nordring 17,25474,Bönningstedt
9195766526,53.6793586,9.9091017,Vollbrich Floristen und Dekobedarf,Nordring 13,25474,Bönningstedt
9195766530,53.6789434,9.9085158,Hensel & Partner GmbH,Nordring 8,25474,Bönningstedt
9195941054,53.6135127,9.8996601,"Werbewerkstatt Jörn Faßbender, Digitaldruck + Werbetechnik",,22523,Hamburg
9195941057,53.6135482,9.8998127,a.b.b. Sicherheitstechnik,Pflugacker 7,22523,Hamburg
9199845456,53.6774488,10.236522,VILVIF,,,
9203288237,53.5419464,10.0105275,Fab Lab St. Pauli,Stockmeyerstraße 43,20457,Hamburg
9205449142,53.5814627,10.0184046,Datenrettung Hamburg,Hans-Henny-Jahnn-Weg 53,22085,Hamburg
9214586957,53.5541762,9.9431507,Billroth Büro,Billrothstraße 161,,Hamburg
9216488453,53.5553399,10.0213266,Hinz&Kunzt,,20099,Hamburg
9220846630,53.5505921,10.0494032,Kaliga-Sicherheit,Wendenstraße 413,20537,Hamburg
9221026824,53.5718684,10.0371881,HTBU Hamburger Turngesellschaft Barmbeck-Uhlenhorst e.V.,Klinikweg 10,22081,Hamburg
9221058619,53.5502519,10.0779,Rechtsanwaltkanzlei Reiner Köhnke,,,
9221973727,53.6043049,10.0227125,TKgesundheit GmbH,,,
9223580763,53.5136756,9.9873783,Saga Hauswart,,,
9223594382,53.5158845,9.9931941,Stadteilbüro Die Linke,,,
9223606259,53.5155463,9.9928487,Karakalem Werbetechnik,,,
9234970445,53.5086261,9.7362222,"Obstbauversuchsanstalt der Landwirtschaftskammer (LWK) Niedersachsen, Standort Jork",Moorende 53,21635,Jork
9235857559,53.5465028,10.0145742,TauRes Gesellschaft für Investmentberatung mbH,Amsinckstraße 40,20097,Hamburg
9238618772,53.5117698,10.0866562,Landwirtschaftskammer Hamburg,,,
9241340400,53.5685867,10.1706778,Servicebüro Susek,Willinghusener Landstraße 16,22885,Barsbüttel
9242936230,53.5509187,9.9380588,Nutzinger Zucker GmbH & Co. KG,Schillerstraße 43,22767,Hamburg
9249076998,53.5546726,10.0762335,Hanseatisches Versicherungskontor Hinz GmbH,Horner Weg 108,22111,Hamburg
9250096786,53.5489266,10.0011388,wandschneider + gutjahr ingenieurgesellschaft mbh,,,
9250427152,53.6902319,9.9118615,Garten- & Landschaftspflege Lars Breckwoldt,Garstedter Weg 2a,25474,Hasloh
9257080392,53.5467812,9.9281965,Honorary Consul Republic of Belarus,Elbchaussee 54,22765,Hamburg
9257584647,53.5467908,9.9281241,Honorarkonsulat von Senegal,Elbchaussee 54,22765,Hamburg
9257658093,53.546786,9.9282529,Consulate General Republic of Kosovo,Elbchaussee 54,22765,Hamburg
9260127990,53.6317883,9.9548133,MADER Hamburg GmbH,Adlerhorst 17,22459,Hamburg
9260304646,53.548237,9.9761871,,,,
9260313453,53.5752022,9.9571635,AXA,,,
9276171996,53.5973806,9.9769016,"GHP Großmann, Holst & Partner mbB",,,
9283834347,53.6646986,9.9057829,Dorfgeflüster,Am Markt 2-10,25474,Bönningstedt
9299762515,53.5514649,10.0254681,Tanner AG,Spaldingstraße 218,20097,Hamburg
9299976512,53.5610922,10.024315,Code4You GmbH & Co. KG,Hohenfelder Terrasse 1,22087,Hamburg
9300911687,53.4565516,9.9319501,Harburger Turnerbund von 1865 e.V.,,,
9312443070,53.5613148,9.9129239,Beehive,Gasstraße 18,22761,Hamburg
9327792843,53.580917,10.1042569,Verwertungsstelle des Hauptzollamts Hamburg,,,
9338084330,53.5744382,10.0253121,Kassenärztliche Vereinigung Hamburg,Humboldtstraße 56,22083,Hamburg
9338086606,53.5634493,10.0179872,AGESA Grundstücksgesellschaft mbH,,,
9341129556,53.5564118,9.9863947,BIG-BAU Projekt- und Stadtentwicklung,Drehbahn 7,20354,Hamburg
9353119540,53.6823634,10.0475295,Friedhofsverwaltung,,,
9355394536,53.550425,10.0120076,IG Metall Region Hamburg,Besenbinderhof 60,20097,Hamburg
9355857576,53.5438071,10.0299185,InnoGames GmbH,Friesenstraße 13,20097,Hamburg
9365052394,53.5598783,9.9436454,NGG Landesbezirk Nord,Haubachstraße 74,22765,Hamburg
9366813923,53.5503825,10.0120474,NGG Region Hamburg-Elmshorn,Besenbinderhof 60,20097,Hamburg
9373443290,53.5784825,9.9430903,GRÜNE Eimsbüttel,,,
9381624579,53.5748451,9.9592028,Schlief + Co. Immobilien GmbH,Osterstraße 30-32,20259,Hamburg
9382047650,53.5976264,9.8376904,Laeisz & Lüders Import- und Vertriebsgesellschaft mbH,Osterbrooksweg 21,22869,Schenefeld
9385458610,53.547593,9.969408,Therapie am Hafen,Seewartenstraße 10,20459,Hamburg
9394216550,53.5806638,9.9642595,FALC Immobilien,Gärtnerstraße 80,20253,Hamburg
9400478515,53.5718612,9.9357584,NMMN,,,
9403303884,53.6028899,10.0237732,FlashFotoVideo.de,,,
9403303887,53.6031516,10.0228073,Biocair Germany,,,
9405384208,53.6616404,9.9048561,Geschäftsstelle SV Rugenbergen,Kieler Straße 81,25474,Bönningstedt
9410487993,53.5578082,9.9896789,TherapieZentrum Colonnaden,Colonnaden 51,20354,Hamburg
9420316262,53.4568805,9.9772683,Marketingkraft,,,
9420358240,53.458751,9.9821984,bci - Beratung Coaching Integration,,,
9445853981,53.5964799,9.9809853,Akzenta Immobilien,Lokstedter Weg 43,20251,Hamburg
9445898848,53.5684738,9.9292588,E.P.R.O. Palettenhandel,,,
9449521599,53.5923717,10.00187,Haferkamp Immobilien,,,
9453251735,53.6640238,9.9051041,Christin Larisch Immobilien,Ellerbeker Straße 2,25474,Bönningstedt
9454222921,53.4702229,9.8868759,Schützenverband Hamburg und Umgegend e.V.,Ehestorfer Heuweg 14a,21149,Hamburg
9464228055,53.5700089,9.9511424,Honey Bucket Records,Sophienallee 20,20257,Hamburg
9470884412,53.5503398,10.0120875,IG BCE Bezirk Hamburg-Harburg,Besenbinderhof 60,20097,Hamburg
9473637983,53.5504738,10.0119619,DGB Bezirk Nord,Besenbinderhof 60,20097,Hamburg
9473708439,53.4895314,10.2089169,DGB Ortsverband Bergedorf,Serrahnstraße 1,21029,Hamburg
9481381523,53.533796,9.8816881,ITECS Engineering GmbH,Köhlfleet-Hauptdeich 7,21129,Hamburg
9487558420,53.575538,9.9629236,Allianz,,,
9489370835,53.6585838,9.7992668,Bewährungshilfe Pinneberg,Moltkestraße 2,25421,Pinneberg
9500596505,53.4882694,10.2136789,Rechtsanwalt Frank Freytag,Bergedorfer Schloßstraße 17,21029,Hamburg
9504343676,53.5611981,9.966929,inoio gmbh,Kampstraße 15,20357,Hamburg
9513279256,53.5850323,9.9289731,HGVG,,,
9521480856,53.6041694,10.0302964,Hausfotografie.de - Agentur für Immobilienfotografie,Loki-Schmidt-Platz 5,22297,Hamburg
9532322172,53.5190377,10.2975202,Kirchenbüro der Ev.-Luth. Heilig-Geist-Kirchengemeinde,Kirchberg 5a,21521,Wohltorf
9532581795,53.5486814,10.0033432,nutwork Handelsgesellschaft,,,
9545332033,53.5896244,9.9042252,ELAFLEX HIBY GmbH & Co. KG,Schnackenburgallee 121,22525,Hamburg
9548061779,53.6581742,9.7752353,G+K Spezialtiefbau GmbH,Mühlenstraße 122,25421,Pinneberg
9554733452,53.6061358,10.0193899,O2,Überseering 33a,22297,Hamburg
9558810229,53.4979589,10.0113013,Allianz Frank Winkelmann,,,
9558810241,53.4983266,10.011452,Schülerhilfe,,,
9565524768,53.4725766,9.9307648,Grabau Vermessung,Tempowerkring 1a,,
9577394483,53.5497616,9.8984411,Casini & Görner Immobilien GmbH & Co. KG,Liebermannstraße 44a,22605,Hamburg
9581503629,53.5765138,9.9700783,reese,,,
9581675032,53.5856362,10.0066816,Hanseaticsoft GmbH,Poßmoorweg 2,22301,Hamburg
9591819068,53.4878247,10.1612651,Sachverständigenbüro Quade,Von-Moltke-Bogen 28,21035,Hamburg
9592158105,53.5522579,10.0381887,Z-Point Datentechnik,Eiffestraße 74,20537,Hamburg
9604514905,53.552114,9.9840878,TGA Hamburg,Axel-Springer-Platz 3,20355,Hamburg
9605332684,53.6531923,9.82984,Allianz Generalvertretung Jörg Riccius e.K.,Tangstedter Chaussee 2,25462,Rellingen
9605901958,53.5574273,9.9860963,Arbeitsrechtskanzlei Hamburg,,,
9613362804,53.5737134,10.0806636,Eifrig Media,,,
9621084375,53.5820674,9.9297607,HapaTeam,,,
9621084387,53.5827509,9.9305827,TNC Hamburg,Warnstedtstraße 12d,22525,Hamburg
9628325388,53.5550308,10.0283178,IG BAU Bezirksverband Hamburg,Jungestraße 1,20535,Hamburg
9643914730,53.5622707,9.9140292,NACO KG Steuerberatungsgesellschaft,,,
9694382254,53.5710352,9.9682799,Stadtkreation,Moorkamp 19 A,20357,Hamburg
9694382255,53.5710448,9.9682071,MotivBuero,Moorkamp 19 A,20357,Hamburg
9711360840,53.4823416,10.1146602,Allgemeiner Alster-Club,,,
9724654230,53.4593633,9.9521774,DM Consulting Hamburg,Eißendorfer Pferdeweg 71d,,
9729953225,53.5892931,10.1070952,"Haushaltsauflösung Hamburg, Entrümpelung Hamburg",Walddörferstraße 426,22047,Hamburg
9732949481,53.6041005,10.031189,Quartiersmanagement Pergolenviertel,Winterlindenweg 34,22297,Hamburg
9733224776,53.6573656,9.787346,SopaeDiA - Lerntherapie - Sozialpädagogische Dienstleistungen Ahrens-Korbel,Oberst-von-Stauffenberg-Straße 20,25421,Pinneberg
9753118863,53.4717109,10.1152316,Forschungsstation Die Reit,,,
9763803256,53.4798948,9.9938934,VIKING Life-Saving Equipment GmbH,König-Georg-Stieg 5,21107,Hamburg
9769535921,53.5245687,10.0863426,Medizinischer Transportdienst Deutschland,Bredowstraße 17C,22113,Hamburg
9778616707,53.5481362,9.9873338,BEEFTEA group GmbH,Rödingsmarkt 9,20459,Hamburg
9778734885,53.5677217,10.0479125,AIRES Architekten & Ingenieure,Wandsbeker Chaussee 150,22089,Hamburg
9778734886,53.5677194,10.0478968,B² Beteiligungsgesellschaft mbH,Wandsbeker Chaussee 150,22089,Hamburg
9778734887,53.5677171,10.0478825,SERIA ITD GmbH,Wandsbeker Chaussee 150,22089,Hamburg
9778734888,53.5677147,10.0478681,Unternehmergemeinschaft Steindamm e.V.,Wandsbeker Chaussee 150,22089,Hamburg
9778734889,53.5677116,10.0478538,Grundstücksgesellschaft Bundesstraße 82 UG & Co.KG,Wandsbeker Chaussee 150,22089,Hamburg
9779610155,53.4631656,9.9798638,Bergeest & Richter,,,
9779963527,53.5071453,10.0516688,Transgourmet Deutschland,Beim Schröderschen Hof 3,21109,Hamburg
9783698403,53.5539168,10.0123978,freshlabs,Steindamm 27,20099,Hamburg
9783951881,53.5799177,9.9480196,Wierig & Cornelius,,,
9783951896,53.5766338,9.9513708,Groenewald - Tiedemann - Griffel,,,
9807848297,53.5888189,10.0996334,Jobcenter,,,
9850305160,53.579473,9.9493583,Melichar Bros.,Stellinger Weg 30,20255,Hamburg
9868716610,53.5838396,10.0442667,digmed GmbH,,,
9868716611,53.5838126,10.0443499,SCHMIDT & BETHGE Verwaltung,,,
9872625067,53.5574188,9.9751875,karo5 IT-Lösungen - Martin Stoll-Hafkus e.K.,Karolinenstraße 5,20357,Hamburg
9872999846,53.5573315,9.9157584,Lingua-World Übersetzungsbüro,,,
9880085308,53.5492909,10.0965688,Friedrich Ganter Webdesign,Vierbergen 59,22111,Hamburg
9883422523,53.5490779,9.9739306,Eraneos Germany GmbH,Zeughausmarkt 33,20459,Hamburg
9883422524,53.5490631,9.9739313,Eraneos Cybersecurity Germany GmbH,Zeughausmarkt 33,20459,Hamburg
9883422525,53.549091,9.9739299,Eraneos Analytics Germany GmbH,Zeughausmarkt 33,20459,Hamburg
9887576711,53.5430719,9.994026,Mobimeo GmbH,Am Sandtorkai 50,20457,Hamburg
9907439570,53.5488093,9.9922146,Gayen und Berns Homann GmbH,Börsenbrücke 6,20457,Hamburg
9907476433,53.5500894,9.9958769,Hamburger Anwaltskontor,Rathausstraße 13,20095,Hamburg
9907477809,53.5479805,9.9883807,Hamburger Feuerkasse,Kleiner Burstah 6-10,20457,Hamburg
9907479639,53.5541963,9.9904606,Kanzlei am Jungfernstieg,Jungfernstieg 38,20354,Hamburg
9922411694,53.5435613,9.985435,U.S. Generalkonsulat Hamburg,,,
9927497745,53.5567623,9.9748977,Rechtsanwalt Noah Kistner,,,
9934071726,53.5526408,10.0044631,Kundenzentrum Hamburg-City,,,
9941672395,53.5377849,9.8634695,Ing.-Büro Heino Winter GmbH & Co. KG,Hein-Saß-Weg 27,21129,Hamburg
9941672396,53.5374539,9.8638445,Reederei Heino Winter GmbH & Co. KG,Hein-Saß-Weg 27,21129,Hamburg
9941672398,53.5374783,9.8650135,Safran Engineering Services GmbH,Hein-Saß-Weg 28,21129,Hamburg
9941769317,53.5526154,10.0044631,Kundenzentrum Hamburg City,,,
9951154857,53.5747029,10.1049045,Falck Deutschland,,,
9966051003,53.5562404,9.9254623,Die Diele,Borselstraße 7,22765,Hamburg
9966237161,53.5499254,9.9467855,Zwischengeschoss,Eschelsweg 4,22767,Hamburg
9966243900,53.5562974,9.9228405,XO Projects Co-Working Space,Planckstraße 13,22765,Hamburg
9967777502,53.4593751,9.9854258,GBA Laborgruppe,,,
9967777503,53.4593646,9.9854151,nuTIQ GmbH,,,
9980659019,53.5432953,10.0025456,McMakler,Shanghaiallee 7,20457,Hamburg
9980667117,53.5428932,10.0028434,Multiversum GmbH,,,
9980688020,53.5403192,10.0083863,Hanseatic Blockchain Institute,Versmannstraße 4,20457,
9981354217,53.5434578,9.984135,Herbert und Elsbeth Weichmann Stiftung,Kehrwieder 12,20457,
9981709956,53.6006981,10.068759,Akquinet,Werner-Otto-Straße 6,22179,Hamburg
9999707666,53.5425343,10.001754,subshell GmbH,Hongkongstraße 5,20457,Hamburg
9999898961,53.4665011,9.991412,Schwarz & Grantz,,,
10005124717,53.4248833,9.7877826,infrapower GmbH,Lindenstraße 13,21629,Neu Wulmstorf
10011618483,53.7075767,10.1087965,Mühlig Immobilien,Duvenstedter Damm 39,22397,Hamburg
10031775692,53.5481701,9.9873619,CoreMedia GmbH,Rödingsmarkt 9,20459,Hamburg
10039473666,53.5475409,10.0281132,Olympus Deutschland GmbH,,,
10039473667,53.5474905,10.0281015,Olympus European Headquarters,,,
10040049862,53.5469315,9.9723723,Jugendpresse Nord e. V. (JPNord),,,
10047521529,53.5637959,9.8149775,Taxenanruf Blankenese,,,
10053662110,53.5338105,10.0853138,Mobiltrans GmbH,Liebigstraße 34,22113,Hamburg
10053762632,53.5545673,10.0075238,Beehive,,,
10058708080,53.578154,10.0394162,ranklike - Online Marketing SEO,Hamburger Straße 180,22083,Hamburg
10061969208,53.5092653,10.251679,Reichert & Gehrke,Bahnhofstraße 6b,21465,Reinbek
10068274974,53.5087099,10.2530501,Autoruf Süd-Stormarn,Sophienstraße 7,21465,Reinbek
10068556337,53.6250483,10.0979125,Kirchenbüro Semionkirche,,,
10084981224,53.6038954,10.0312489,HANSA Baugenossenschaft - Hauswartbüro,Winterlindenweg 30,22297,Hamburg
10084981225,53.6124637,10.0248682,KJSH e.V. / SPECTRUM für soziale Hilfen,Alsterdorfer Markt 6,22297,Hamburg
10084981226,53.6124796,10.0249216,Alster Food,Alsterdorfer Markt 6,22297,Hamburg
10084981227,53.6124907,10.0249628,No Limit IT-Services,Alsterdorfer Markt 6,22297,Hamburg
10084981228,53.6124721,10.0249797,Konerding Architekten,Alsterdorfer Markt 6,22297,Hamburg
10084981229,53.61246,10.0249375,Bank für Sozialwirtschaft,Alsterdorfer Markt 6,22297,Hamburg
10084981230,53.6124461,10.024886,Henjes Zahntechnische Werkstatt,Alsterdorfer Markt 6,22297,Hamburg
10084981231,53.6124435,10.024951,Plan-S Werbeagentur,Alsterdorfer Markt 6,22297,Hamburg
10084981232,53.6124543,10.0249958,Hamburger Kontor,Alsterdorfer Markt 6,22297,Hamburg
10084981233,53.6124123,10.0249202,vitabook - Abteilung Entwicklung,Alsterdorfer Markt 6,22297,Hamburg
10084981234,53.6124258,10.0249653,Club 68 Helfer e.V.,Alsterdorfer Markt 6,22297,Hamburg
10084981235,53.6124391,10.0250096,JBV Rechnungswesen Beratung,Alsterdorfer Markt 6,22297,Hamburg
10084981236,53.6124092,10.0249789,Selbsthilfegruppe für Muskelkranke Hamburg und Umland e.V.,Alsterdorfer Markt 6,22297,Hamburg
10084981237,53.6123799,10.0249529,BFW Düren,Alsterdorfer Markt 6,22297,Hamburg
10084981239,53.6123918,10.024993,Silver Fern Farms,Alsterdorfer Markt 6,22297,Hamburg
10084981243,53.6126839,10.0256376,KinderPaCT Hamburg - Med. Versorgung / Pflege,Alsterdorfer Markt 8,22297,Hamburg
10084981247,53.6126837,10.0257529,BFW Düren - Schulungen,Alsterdorfer Markt 8,22297,Hamburg
10084981252,53.6125812,10.0257377,KinderVersorgungsNetz Hamburg e.V.,Alsterdorfer Markt 8,22297,Hamburg
10084981254,53.612607,10.0258301,Psychosoziales Zentrum Alsterdorf,Alsterdorfer Markt 8,22297,Hamburg
10084981256,53.6125595,10.0257589,Ülenkinder,Alsterdorfer Markt 8,22297,Hamburg
10084981257,53.6125718,10.025811,KinderPaCT Hamburg - Verwaltung,Alsterdorfer Markt 8,22297,Hamburg
10084981258,53.6125821,10.0258552,TreVita,Alsterdorfer Markt 8,22297,Hamburg
10087050167,53.5120689,10.2517741,Alarmzentrale Steinberg,Am Rosenplatz 6,21465,Reinbek
10099414705,53.5814107,9.9256029,Karl Dose GmbH,Försterweg 77,22525,Hamburg
10106957121,53.6576888,9.9839639,Blume 2000 Zentrale,Gutenbergring 53,22848,Norderstedt
10121445544,53.5568881,9.9823143,Staatsanwaltschaft Hamburg,,,
10124245136,53.5354914,10.0212034,ENERPARC AG,,,
10134965601,53.509696,9.9853098,Spielmobil Falkenflitzer,Neuhöfer Straße 23,,
10135214978,53.572986,9.9502103,Taxen-Service,,,
10137524101,53.5502952,9.9876634,Steuerberater am Neuen Wall,,,
10154780359,53.5407476,10.0211388,"Behörde für Wirtschaft, Verkehr, und Innovation - Pflanzengesundheitskontrolle",,,
10155120141,53.7314556,9.8985958,LVM,,,
10156572200,53.5525248,9.9920853,"Rechtsanwalt SCHORN, LL.M. | Fachanwalt für Steuerrecht",Neuer Wall 10,20354,Hamburg
10157202456,53.5825322,9.958832,Beiersdorf Forschung 1+2,,,
10175680384,53.5729316,10.0303816,Behörde für Schule und Berufsbildung,Hamburger Straße 31,22083,Hamburg
10175686879,53.5725139,10.0305098,Center Management,,,
10175686897,53.5723171,10.0294634,Finanzamt Barmbek-Uhlenhorst,Hamburger Straße 23,22083,Hamburg
10181060850,53.6352849,10.1841516,DRK-Suchdienst Standort Hamburg,,,
10181060878,53.6349239,10.1829871,Jobcenter team.arbeit.hamburg,,,
10181064527,53.6347648,10.1849007,Minebea Intec GmbH,,,
10186265876,53.5446734,10.0232396,vivida BKK,Sachsenfeld 4,,
10197144897,53.5600779,9.886638,Twesten & Sohn,,,
10197317511,53.6874266,9.8093526,mIT solutions GmbH,Quickborner Straße 79,,
10198330290,53.5712564,9.9800898,Reimkultur GmbH & Co. KG,Rutschbahn 11,20146,Hamburg
10214296316,53.557098,9.9268251,CARLSEN Verlag,,,
10215061772,53.5616831,9.9277556,Vincent Vegan Lovefood GmbH,,,
10220157204,53.5580956,10.0119036,DLC Distributed Ledger Consulting GmbH,Lange Reihe 73,20099,Hamburg
10221622801,53.5538597,10.2436778,RGIS Inventur Spezialisten GmbH,Grenzweg 30,21465,Reinbek
10221783082,53.6631123,10.0037983,Bureau Veritas,,,
10221783083,53.6630628,10.0032762,Tchibo Coffee Service Team,,,
10221940476,53.5535693,10.2439265,THESO Grundbesitz GmbH & Co. KG,Grenzweg 30,21465,Reinbek
10223597556,53.6445225,10.013855,Landesbetrieb Erziehung und Beratung - Clearingstelle,Tannenweg 11,22415,Hamburg
10228103296,53.5577985,9.9676655,Sonja Sturm - Life Coach,Neuer Kamp 30,20357,Hamburg
10228274336,53.6629848,10.007411,Kultur-Medien Hamburg GmbH,Oehleckerring 22,22419,Hamburg
10228405764,53.6620757,10.0067885,HERR & POLITZ,Oehleckerring 15,22419,Hamburg
10228405765,53.6619436,10.0068604,Tankmüller,Oehleckerring 15,22419,Hamburg
10229434427,53.5399271,10.0118315,Rechtsanwalt Olaf Schubert,Versmannstraße 32,20457,Hamburg
10237831382,53.5478406,9.9695539,DGVT - Ausbildungszentrum für Verhaltenstherapie,,,
10259263291,53.5541534,9.9876451,Nitrobox GmbH,Hohe Bleichen 28,,
10259367115,53.5806777,9.9764748,KVL Bauconsult Hamburg,Straßenbahnring 13,20251,Hamburg
10263269945,53.5449189,10.0315221,SGS Holding Deutschland B.V. & Co. KG,Heidenkampsweg 99,20097,Hamburg
10264438811,53.562036,10.0565396,Milli & Meter . Print- und Werbeprodukte SGBmedien . FullSolutionWerbeagentur,Chateauneufstraße 1,20535,Hamburg
10270107305,53.6819597,9.9971843,"Horne, Krüger, Tietje-Schulz, Heidorn",Ohechaussee 9,22848,Norderstedt
10271021066,53.6779219,9.9916286,Goller,Ohechaussee 69,22848,Norderstedt
10278231476,53.6838863,9.9957771,Erich Thor,Breslauer Straße 17g,22850,Norderstedt
10278231477,53.6839006,9.995932,Generali,Breslauer Straße 17e,22850,Norderstedt
10280980611,53.7025668,10.0077991,TuRa Harksheide e.V.,Am Exerzierplatz 14-16,22844,Norderstedt
10282471139,53.6018876,9.8894187,Kay Burose,,,
10288062556,53.680681,9.9767094,Sozialwerk Norderstedt,Ochsenzoller Straße 85,22848,Norderstedt
10290906424,53.486895,10.2149805,Debeka,,,
10295500441,53.6819331,9.9821606,SPD-Podium,,,
10295500469,53.6816461,9.983359,Deutsches Rotes Kreuz Ortsverein Norderstedt,,,
10300071546,53.5734207,10.0475583,brainbreak grafik + interior,,,
10313443950,53.5445295,9.9764438,best practice consulting,Vorsetzen 50,20459,Hamburg
10313752444,53.4853685,9.990299,svt Schadensanierung,Pollhornbogen 8,21107,Hamburg
10316742596,53.5844348,9.9538275,Jomp. Architektur,,,
10316753824,53.5853357,9.9542335,Thomas Herbst,,,
10316758579,53.5844567,9.9540522,Matthay,,,
10539080932,53.6025703,10.0403795,Hochtief,Fuhlsbüttler Straße 399,22309,Hamburg
10542016485,53.6537713,10.115097,Kensington,,,
10552835483,53.5562524,9.9098405,Mobile Mode Inge Berges,,,
10552912195,53.5472127,9.9373705,"Bezirksamt Altona, Fachamt Grundsicherung und Soziales - Elterngeld",Alte Königstraße 29-39,22767,Hamburg
10561661613,53.5551121,10.0006039,Arriba Tiefkühl GmbH,Ballindamm 3,20095,Hamburg
10568011032,53.5675702,9.9923487,Institut français,Heimhuder Straße 55,,
10568116625,53.6028765,10.0629612,OTTO Office GmbH & Co. KG,Fabriciusstraße 105a,22177,Hamburg
10575089974,53.5397081,10.2055424,Pfarrbüro Zu den heiligen Engeln Glinde,,,
10577916571,53.6510729,10.0965481,Bringezu Immobilien,,,
10579249173,53.5464778,9.9392217,Notare an der Palmaille,Palmaille 106,22767,Hamburg
10581860083,53.6054181,10.0553511,Adveritas GmbH,Steilshooper Straße 294a,22309,Hamburg
10601499586,53.5577176,10.0070639,Sekara Schäfer Rechtsanwälte PartG mbB,An der Alster 62,20099,Hamburg
10607958710,53.5506714,9.8894008,Infinit GmbH,,,
10637616898,53.5473903,9.9667935,OMG Investment + Activation GmbH,Zirkusweg 1,20359,Hamburg
10669416961,53.6040882,9.9806951,Köster & Nehrenheim,Borsteler Chaussee 85-99a,22453,Hamburg
10675828439,53.6512269,10.0972053,Immobilien Service Zimmermann,,,
10680754405,53.6084402,9.9590962,HUK-Coburg,,,
10680757806,53.6186263,9.9513682,BGL Software,Tibarg 20,,
10683345347,53.726736,9.9220433,Druckerei & Verlag G. Sauerer Gmbh,,,
10683771885,53.5701256,10.0810704,Greisen Produkt Service,,,
10687882183,53.6194154,9.9467321,Wulf Objektbetreuung,,,
10692442852,53.5784181,10.0386378,Allianz,,,
10696840687,53.5940283,9.8345252,"Stadt Schenefeld, Fachbereich Bauen und Umwelt",Osterbrooksweg 36,22869,Schenefeld
10696975409,53.6000018,9.8366439,Ordnungsamt der Stadt Schenefeld,Holstenplatz 3-5,22869,Schenefeld
10706249511,53.639053,10.090938,DecoTex GmbH,Rolfinckstraße 68,22391,Hamburg
10712619818,53.5557823,10.0168021,EOS Deutscher Inkasso-Dienst GmbH,Steindamm 71,20099,Hamburg
10719507805,53.6219893,10.121516,MAX EDV Pro,,,
10720542728,53.5045383,10.0047076,Microflex Services,,,
10727461947,53.6709166,10.2424034,CvH Design,Manhagener Allee 25,22926,Ahrensburg
10727461948,53.6694554,10.2438437,adoros,,,
10732022714,53.5567106,9.9071647,Ramboll Deutschland,Jürgen-Töpfer-Straße 48,22763,Hamburg
10733200572,53.5962972,9.9804125,ViertelCheck GmbH,Wendloher Weg 6,20251,Hamburg
10743227914,53.6645712,9.9047143,Generalagentur der Mannheimer Versicherung AG,Kieler Straße 103,25474,Bönningstedt
10746538252,53.6611943,9.7995767,Energieuniversum,,,
10746769166,53.6438244,9.8877182,Kraeber & Co GmbH,Waldhofstraße 14,25474,Ellerbek
10753605888,53.5508939,9.9911894,Linklaters LLP,Alter Wall 10-12,20457,Hamburg
10763989622,53.5560295,9.9387847,Christliche Gemeinschaft Hamburg-Altona,,,
10764023386,53.6197341,9.9518793,"Bela Puskas, Thorsten Ruge",,,
10764115265,53.6212128,9.9519104,Vattenfall,,,
10764132203,53.618463,9.9498278,Ecke & Feuersenger,Niendorfer Marktplatz 18,22459,Hamburg
10766418875,53.5113844,9.967391,Casa de Espana,,,
10766637090,53.6217604,9.9520098,Allianz,,,
10766675243,53.6220039,9.9530901,HSP Steuer,,,
10766679453,53.6208549,9.9524876,Janzen Rechtsanwälte,,,
10766679454,53.621411,9.9526466,Gerold Bischoff,,,
10766682823,53.6219297,9.9530855,Notariat am Tibarg,,,
10766682983,53.6217952,9.9520208,Reuter & Partner,,,
10771069165,53.5454631,9.9886031,Activate,Cremon 11,,
10773108752,53.5738978,10.0806412,AV-Medien Service GmbH,Neumann-Reichardt-Straße 27-33,22041,Hamburg
10778202599,53.5679664,9.9798614,Dagmar Sengbusch,,,
10778330958,53.5660549,9.9874286,Hamburg 4,Johnsallee 65-67,,
10778381308,53.5503902,10.0772977,Verbandshaus Hamburg,,,
10778403700,53.5547121,10.0358413,Yilmaz Buchhaltungsbüro,,,
10778432327,53.6138908,9.971484,LimeSurvey GmbH,Papenreye 63,22453,Hamburg
10778432422,53.5547113,10.0357678,Car 2 Rate Kfz-Gutachter,,,
10778542304,53.5696954,10.0194288,AOS Hamburg,Overbeckstraße 7,,Hamburg
10783657575,53.5446152,10.0301894,Autobahn GmbH Niederlassung Nord,Heidenkampsweg 96-98,20097,Hamburg
10786713834,53.5157226,9.9879141,Pascha 58 e.V.,,,
10786713847,53.5139254,9.9869042,Lichtinsel,Veringstraße 47,,
10786841007,53.5098658,9.9853721,Arzu Asani,Neuhöfer Straße 23,,
10786841044,53.5092199,9.985443,Atelier Ingo Bräuning,Neuhöfer Straße 23,,
10786841046,53.5092291,9.9852812,The CabinetMaker,Neuhöfer Straße 23,,
10786841047,53.5098796,9.9851734,Technikum,Neuhöfer Straße 23,,
10786841048,53.5104463,9.9844684,ecomed-Storck,Neuhöfer Straße 23,,
10786841049,53.5094032,9.9845757,Elbdeich 23,Neuhöfer Straße 23,,
10786841050,53.5100685,9.9849738,Emis Electrics,Neuhöfer Straße 23,,
10786841052,53.5104203,9.9845371,Falkenflitzer,Neuhöfer Straße 23,,
10786841053,53.5102332,9.9850301,Stahldesign / Freia,Neuhöfer Straße 23,,
10786841056,53.5087436,9.9848869,Importugal,,,
10786841057,53.5103667,9.985598,Industrie-Wartung Systeme,,,
10786841058,53.5094563,9.985805,Koch - Brennstoff,Neuhöfer Straße 23,,
10786841060,53.5098878,9.9846604,Labor Mauch Gläser,Neuhöfer Straße 23,,
10786841062,53.5103404,9.9858944,LWT Containertrucking,Neuhöfer Straße 23,,
10786841063,53.5100589,9.9850911,Max Meyn - Lütgens & Reimers,Neuhöfer Straße 23,,
10786841065,53.5093638,9.9845664,Morawetz / Ehlers,Neuhöfer Straße 23,,
10786841073,53.5103323,9.9855939,Protec24 Facility Service,Neuhöfer Straße 23,,
10786841074,53.5103788,9.9858629,Hans Puhst GbR,Neuhöfer Straße 23,,
10786841075,53.5104448,9.984542,Rebional,Neuhöfer Straße 23,,
10786841077,53.5100886,9.9852122,Flow Fashion,Neuhöfer Straße 23,,
10786841079,53.5104219,9.9844653,satis & fy,Neuhöfer Straße 23,,
10786841080,53.510224,9.9859045,Schollenberger Kampfmittelbergung,Neuhöfer Straße 23,,
10786841082,53.5102053,9.9850277,Tourhafen / Plan B / Rockn Roll Hamburg / Wilhelmsrock,Neuhöfer Straße 23,,
10786841083,53.5103906,9.9844614,Ottmar Trenk,Neuhöfer Straße 23,,
10786841086,53.5103698,9.9844587,Wolfsgruber,Neuhöfer Straße 23,,
10787072451,53.5777322,9.7343316,THALES Simulation & Training,,,
10787288469,53.5504092,9.934417,Techniker Krankenkasse,,,
10787302916,53.557971,9.9287598,Gesundheitsamt,Bahrenfelder Straße 260,,
10787302917,53.5607486,9.9146898,Kasse.Hamburg,,,
10787302918,53.55806,9.928741,Mütterberatung,Bahrenfelder Straße 260,,
10787302921,53.5567409,9.928494,Vereinigung Pestalozzi,Bahrenfelder Straße 242,,
10788667261,53.572369,10.0673047,Vattenfall (Deutschland),Wandsbeker Marktstraße 89,22041,Hamburg
10799396923,53.6077856,10.0382872,BDK,,,
10801083000,53.6423504,9.945924,Karsten Buth - missing link,Joseph-Norden-Weg 11,22455,Hamburg
10801658264,53.6205552,9.8003423,Bambus-Timm,,,
10801765829,53.5078437,10.0006075,SUL Portugal Import GmbH,,,
10814226010,53.6175619,9.950832,Hausmann,,,
10814737073,53.5811632,9.97054,Fuel For Mars,,,
10819457744,53.5744003,10.0459089,smartISS,Gluckstraße 57,22081,Hamburg
10819687748,53.7281451,9.9065223,Gemeindebüro Quickborn,Kurzer Kamp 2,25451,Quickborn
10819747531,53.6601067,9.8018122,Gemeindebüro Pinneberg,Fahltskamp 14,25421,Pinneberg
10827327423,53.548857,10.0025406,everyworks bei Unicorn Workspaces,Burchardstraße 14,,
10833795540,53.6055151,10.0232894,IEA,,,
10833809949,53.6036182,10.0227829,Big Media,,,
10833819482,53.6054754,10.0228686,Hamburger Software,Überseering 29,22297,Hamburg
10836572441,53.5459395,10.0207772,PRESENSE,Nagelsweg 41,20097,Hamburg
10838049856,53.6891941,10.2564919,Ludwig Fresenius Schulen,Kornkamp 44,22926,Ahrensburg
10838049858,53.68664,10.256862,Tribotool,Kornkamp 32,22926,Ahrensburg
10846960813,53.6414068,10.0802921,Hamburg Lifte,Wellingsbüttler Weg 117,22391,Hamburg
10868063320,53.5551936,10.0393179,,,,
10873823037,53.5896447,10.0161231,Wahlkreisbüro Dagmar Wiedemann,,,
10895356395,53.5470122,10.2315534,Kreis Stormarn - Allgemeiner Sozialdienst,Biedenkamp 1 A,21509,Glinde
10895356396,53.5471173,10.2315065,Trizwo GmbH,Biedenkamp 1 A,21509,Glinde
10895356398,53.5471447,10.2308429,MIT Germany GmbH,Biedenkamp 1 C,21509,Glinde
10895385040,53.5470854,10.2306544,Nette GmbH,Biedenkamp 3 A,21509,Glinde
10895385041,53.5469936,10.2302997,Livepro Fitness Europe GmbH,Biedenkamp 3 B,21509,Glinde
10895385042,53.5468752,10.2301187,FM Mattsson Germany GmbH,Biedenkamp 3 C,21509,Glinde
10895385044,53.5466783,10.2296431,TRIBOMAR GmbH,Biedenkamp 3 E,21509,Glinde
10895385046,53.546601,10.2296024,DAIKIN Infocenter Hamburg,Biedenkamp 3 F,21509,Glinde
10898913883,53.6730516,10.2366437,Engel & Völkers,,,
10907367953,53.5831413,10.0560287,GPD Nordost,,,
10907367954,53.5831891,10.0560743,SOS Global,,,
10907367955,53.5833133,10.0557497,Hochbahn Haltestellenservice,,,
10907367956,53.5832942,10.0558275,SOS Global Event Logistics,,,
10907367957,53.5832496,10.0558356,parallel studios,,,
10907367958,53.5832623,10.0559536,Sathya Sai Zentrum Hamburg,,,
10907367959,53.5832209,10.0558999,TOPCOM,,,
10907367960,53.5832241,10.0559858,Seethaler Industrie,,,
10907367961,53.5835346,10.0558383,Ernst Deutsch Theater Werkstatt und Probebühne,,,
10907367963,53.5832926,10.0562942,Hansa Novex,,,
10907367964,53.5833085,10.0563774,S&B Hansa Service,,,
10907367965,53.5833467,10.0564632,hamburger gesundheitshilfe,,,
10907367966,53.583256,10.056372,special places,,,
10911167057,53.5499626,9.9040404,Gesellschaft zur Förderung der Gehörlosen in Hamburg e.V.,Bernadottestraße 126-128,22605,Hamburg
10913860916,53.6031816,10.0314475,Leben mit Behinderung,,,
10914496649,53.5854153,9.9800499,FDP-Bezirksfraktion,,,
10919757656,53.5696725,9.9788533,Allianz,Grindelallee 137,20146,Hamburg
10936961091,53.6047299,10.0264627,Bundesbauabteilung,,,
10937020445,53.6046944,10.0269951,Postbank,,,
10937025713,53.6046931,10.0268567,Deutsche Bank,Überseering 10a,22297,Hamburg
10937032019,53.6046871,10.0271001,BCB - Betriebscenter für Banken,,,
10937034321,53.6046935,10.0272167,Hochbahn - U5 Projekt GmbH,,,
10937036110,53.6047106,10.0266795,Hansainvest,,,
10942515104,53.551702,9.9940707,PLANIT // LEGAL,,,
10942585743,53.5479131,9.9901084,Trisor,,,
10948613615,53.5589484,9.9823269,ISA Schreibzentrum,,,
10949209046,53.5919172,9.9832858,SPD-Bezirksfraktion Hamburg-Nord,Martinistraße 31,,
10949376689,53.5775529,10.0146953,Friedrichs Immobilien,,,
10959772413,53.5882153,10.0047008,Fürst Donnersmarck-Stiftung,,,
10968081256,53.5871502,10.0167866,Vermonth Immobilien,,,
10979201582,53.5601056,9.9733143,Jung von Matt,Glashüttenstraße 79,20357,Hamburg
10983896524,53.5757765,9.8595406,Architektur- und Sachverständigenbüro Birgit Hüning,Am Landpflegeheim 40,22549,Hamburg
11005208583,53.4902037,10.2533392,Hamburger Finanz,,,
11005247519,53.4904048,10.2525145,aqua Pflegedienst,,,
11006020039,53.5493576,9.9998662,BKK VBU,,,
11007866851,53.5235701,10.2497897,Das EinfallsReich Grafik Design & Werbung,,,
11010941523,53.5667287,9.9168554,Stroh Bauausführung GmbH,,,
11010941525,53.5666638,9.9162134,BSS Systemtechnik GmbH,,,
11012539304,53.5784341,9.9623591,Maren Steen,,,
11012554268,53.5767288,9.9535516,"Waltraud Braker, Ursula Ehrhardt",,,
11012564841,53.5784158,9.9622985,Notax,,,
11012567121,53.5754452,9.9591097,Alte Wache Sonntag,,,
11014473353,53.5553234,10.0410151,Bausparkasse Mainz,,,
11014484760,53.5551188,10.0436149,Wüstenrot,,,
11014488338,53.5523031,10.0390974,ATM Kfz-Sachverständige,,,
11014637427,53.5576968,10.0131803,Dompfarramt,,,
11016798715,53.5710215,9.8921778,TERUMO Aortic Trainig und Conference Center,,,
11016798716,53.5707163,9.8918541,Eggers-Gruppe A7 Tunnel Altona,,,
11016798717,53.570731,9.8918532,Victor Foxtrott,,,
11016798718,53.5707452,9.8918523,Glaswerk Hamburg GmbH,,,
11016798719,53.5707627,9.8918512,Schmeer und Fuss GmbH,,,
11016798720,53.5707766,9.8918503,PERI GmbH Vertriebs- und Ingenieurbüro,,,
11016798721,53.5707904,9.8918494,PURYA GmbH,,,
11016798722,53.5708057,9.8918484,Organic Friends & Sports GmbH,,,
11016798723,53.5706092,9.8922865,Pro Constructa GmbH,,,
11016798724,53.5706225,9.8922874,kju. studio,,,
11016798725,53.5706406,9.8922887,IPH Ingenieur Planungsbüro,,,
11016798726,53.5706594,9.8922901,Hydra GmbH,,,
11016798727,53.5706753,9.8922912,Hansmann Heitgerken Architekten,,,
11016798728,53.5706949,9.8922926,Florian Schmitz Kommunikation GmbH,,,
11016798729,53.5707107,9.8922937,AIT Architektur- und Ingenieurbüro,,,
11016798730,53.5707437,9.891288,Studio Liv Reimers & Reimers GmbH,,,
11016798731,53.5707624,9.8912874,alsterspectrum,,,
11016798732,53.5707806,9.8912869,HSG Hanse Solution GmbH TRIMIT,,,
11016798733,53.5703171,9.8910164,PDM Adviser GmbH JSH,,,
11016798734,53.5702968,9.8910176,Melanie Königsfeld Steuerberaterin,,,
11016798735,53.5702774,9.8910188,Marina Hoffmann Architektin,,,
11016798736,53.5702595,9.89102,Kurt Glöckler GmbH,,,
11016798737,53.5702408,9.8910211,MEC ContainerSafety Systems GmbH,,,
11016798738,53.5702246,9.8910221,Countdown Media GmbH,,,
11016798739,53.5710819,9.8915476,Hausmeisterbüro,,,
11016798740,53.5711003,9.8915464,Evangelisch Lutherische Kirche in Norddeutschland,,,
11016798741,53.5711193,9.8915452,E&N Wasser & Plan GmbH,,,
11016798742,53.5711457,9.8915434,AP Media Hamburg,,,
11016798743,53.5714754,9.8917596,Deutsche Confiseria Gruppe Hussel Arko Eilles,,,
11016798744,53.5713832,9.8918435,DiaExpert,,,
11016798745,53.5726111,9.8925255,Sunshine Deutschland Handelsgesellschaft GmbH,,,
11016798746,53.5726187,9.8925255,Reinhard Software GmbH,,,
11016798747,53.5726268,9.8925256,GHD GesundHeits GmbH Deutschland,,,
11016798751,53.5722162,9.8922209,Zentrales Fundbüro Versteigerungshalle 2,,,
11016798752,53.5722305,9.89222,TERUMO Aortic Vascutek Deutschland,,,
11016798753,53.5716758,9.8918363,die_Wertarbeiter Agentur für Text und Gestaltung,,,
11016798754,53.5716659,9.8918361,Projekt 17 GbR,,,
11016798755,53.5716523,9.8918358,OMM Steuerberatung,,,
11016798756,53.5716413,9.8918356,mousesports [Office] Virtual Sports GmbH,,,
11016798757,53.5716304,9.8918354,Ingenieurbüro für technische Gebäudeausstattung VDI,,,
11016798758,53.5716174,9.8918351,Cross Media Sales GmbH Tagesspiegel,,,
11016798759,53.5716056,9.8918349,Andreas Thomsen Architekten GmbH,,,
11016798760,53.5715954,9.8918347,AGENCY SCAN,,,
11016798761,53.5714026,9.8928069,mousesports,,,
11016798762,53.57141,9.8928074,Massmann Internationale Buchhandlung GmbH,,,
11016798763,53.5714189,9.892808,baldauf + große Landschaftsarchitekten,,,
11016798765,53.5716852,9.8928132,Immazy GmbH,,,
11016798766,53.5716979,9.8928138,Gernert Hamburg Services GmbH,,,
11016798767,53.5721313,9.8929531,CKL Software GmbH,,,
11016798768,53.572145,9.8929539,CITYPRINT Storost GmbH,,,
11016798769,53.57216,9.8929547,ALMAS INDUSTRIES AG,,,
11016798770,53.5717115,9.8928144,Digital Natives GmbH technikPR,,,
11016798771,53.5717254,9.8928151,WERK & STADT,,,
11016798772,53.5717536,9.8928164,DRYMSTRYM TV GmbH,,,
11016798773,53.5717676,9.8928171,SCHERENBERG LEGAL & LICENSING,,,
11016798774,53.5717399,9.8928158,Solarlux GmbH,,,
11016798775,53.5717824,9.8928178,KuS Kruut un Smook Hamburg GmbH,,,
11016798776,53.5717964,9.8928184,hempfrigge GmbH,,,
11016798777,53.5718133,9.8928192,wahre Kommunikation GmbH,,,
11016798778,53.5718297,9.89282,Hanseatic Coffee Company GmbH,,,
11016798779,53.5718453,9.8928207,HCH Handels Contor Hamburg GmbH,,,
11016798780,53.5718589,9.8928213,Cranach Pharma GmbH,,,
11016798781,53.5718733,9.892822,Choose 2 Rent Europe GmbH,,,
11016798782,53.5718873,9.8928227,C.Contor GmbH,,,
11016798783,53.5719008,9.8928233,Barista Club fine spirits,,,
11016798784,53.5719133,9.8928239,A&H von Bülow,,,
11016798785,53.5710615,9.8927512,CURARE YOGAWEAR,,,
11016798786,53.571081,9.8927512,Dirk Fischer KFZ-Meister,,,
11016798787,53.5710992,9.8927512,Becker Personal | Solutions,,,
11016798788,53.5711202,9.8927512,HUECK Systems GmbH & Co. KG Aluminium Systems,,,
11016798789,53.5711423,9.8927512,HGM Gebäude-Management GmbH,,,
11016798790,53.5706059,9.8926767,OTB GmbH,,,
11016798791,53.5706266,9.8926764,GDS GesundHeits GmbH Deutschland,,,
11016798792,53.5706454,9.8926761,bws.metallbau,,,
11016798793,53.5704158,9.892654,Die Tonpiloten,,,
11016798794,53.570431,9.8926542,Das Projektwerk,,,
11016798795,53.5704455,9.8926543,Das Kontaktwerk,,,
11016798796,53.5704611,9.8926545,Deutsche Bahn GmbH Stadtrad,,,
11016798797,53.570477,9.8926546,Hermann Sill Vermietung,,,
11016798798,53.5704942,9.8926548,Hermann Sill GmbH,,,
11016798799,53.5700544,9.8918416,DPO Kroschel GmbH & Co. KG,,,
11016798801,53.5700423,9.8918419,Nussknacker e.V.,,,
11016798802,53.5700415,9.8914339,UPDOWN Ingenieurteam für Fördertechnik,,,
11016798803,53.5700556,9.891436,VDI Verlag GmbH,,,
11016798804,53.5700682,9.8914379,CrossMediaConsulting,,,
11022770416,53.5702642,9.9575464,Ergo Lars Walden,,,
11027865894,53.6035183,10.1481143,Peter Jensen GmbH,Heestweg 41,22143,Hamburg
11037161266,53.5664004,9.964652,ZS Accounting,,,
11042463752,53.5895531,9.9730804,Management Zeitarbeit & Pool (MZP),,,
11042463767,53.5907328,9.9778878,UKE-Geschäftsbereich Informationstechnologie,,,
11045850508,53.5754221,10.1889389,Zentrale Autoglas GmbH,Fahrenberg 31,22885,Barsbüttel
11047966691,53.5682657,9.9565183,Janiesch,,,
11049685894,53.5656602,10.0382527,Frank Zander Umzüge,,,
11049700298,53.5656803,10.0420557,Klaus Böttcher,,,
11052788425,53.571003,9.9605329,Studio Besau Marguerre,Weidenstieg 20,,
11054265158,53.5644262,9.9226407,KÖHLER[sign+design],Beerenweg 6-8,,Hamburg
11059620250,53.5762733,9.9465824,Sillem 38 - Therapie und Netzwerk,,,
11059714303,53.5247972,9.9415118,Taucher Frey GmbH,Köhlbranddeich 24,20457,Hamburg
11063582823,53.5673037,10.0460571,Hirschberg Umzüge,,,
11070566456,53.5416705,9.9967675,NTT DATA Deutschland,Überseeallee 1,20457,Hamburg
11073221919,53.5957,9.9059592,EDELFETTWERK Entertainment,,,
11073221923,53.5957238,9.9059645,Werner Schlüter GmbH,,,
11073221944,53.5980271,9.9061559,DRK Ambulanzdienst Hamburg,,,
11073221973,53.5959691,9.9049171,B+W it Solutions GmbH,,,
11073339177,53.5944914,9.9081305,Urban! Scope,,,
11079128062,53.5832055,9.9855264,Dahler & Company,,,
11079128455,53.5826008,9.986063,Engel & Völkers,,,
11079128625,53.5819986,9.987452,Grossmann & Berger,,,
11081868397,53.5590771,9.8129628,Günther & Günther,,,Hamburg
11091872458,53.5826033,10.0551021,Debeka,,,
11091882507,53.5755314,10.0367027,Otto Lemke Immobilien,,,
11091884605,53.5808432,10.0428557,Schönrich Immobilien,,,
11099115133,53.6117246,10.0595804,Bürgerbüro Sandro Kappe,Schreyerring 41,22309,Hamburg
11099844564,53.68903,10.1619418,Nordfenster,,,
11110349587,53.548274,9.9898477,DAK,,,
11110450256,53.5539354,10.0028438,Lafrentz,,,
11110450257,53.5539073,10.0027879,Consbruch,,,
11110450258,53.5539153,10.002872,GREY Real Estate,,,
11110450259,53.5538907,10.002819,GOS. Gesellschaft für Ortsentwicklung und Stadterneuerung mbH,,,
11110450260,53.5538829,10.0029299,Verbund freier Trainer und Coaches,,,
11110450261,53.5538735,10.0028467,Gewerkschaft Deutscher Lokomotivführer,,,
11110450262,53.5538608,10.0028756,S | Verkehrswerbung Lloyd Schiffmann,,,
11110450263,53.5538979,10.0029043,S | Werbeservice media intertraffic,,,
11110450264,53.5538588,10.0029264,"SBB Cargo International, Depot Hamburg",,,
11110512203,53.5941412,9.9074667,ViskoTeepak Deutschland GmbH,,,
11110512204,53.5944752,9.9075683,Tank & Becker Bauunternehmung,,,
11110518705,53.5937407,9.9075312,Light-Control eventtechnik,,,
11110518706,53.5948278,9.9073778,Light-Control eventtechnik,,,
11110518707,53.594791,9.9073654,Assecutor Data Service GmbH,,,
11110518708,53.5944899,9.9072144,"Krumpf Umzüge, Lagerung, Transporte",,,
11110518709,53.5934395,9.9075065,abdeckhauben-shop.de,,,
11110518710,53.5934042,9.9074966,GUBES,,,
11110518711,53.5935129,9.9070733,Lindschau Hamburg,,,
11110518712,53.5934586,9.9070584,Happy Station Hamburg,,,
11110518713,53.5939302,9.9070461,LTV Digitaler Offsetdruck,,,
11111140600,53.587357,10.0496405,ATG,Steilshooper Straße 54,22305,Hamburg
11111496330,53.5969928,9.9056414,Heitmann & Bruun,Reichsbahnstraße 94,,
11113775637,53.555397,9.9252073,Fachanwalt für Arbeitsrecht Reineke,,,
11134877833,53.4663685,9.9872784,Schäfer Group,Veritaskai 3,21079,Hamburg
11135865201,53.7316961,9.9032688,Rechtsanwalt Zamboni,Bahnhofstraße 63,25451,Quickborn
11136990779,53.5456958,10.027305,"Hauptzollamt Hamburg, Finanzkontrolle Schwarzarbeit",Sachsenstraße 12,20097,Hamburg
11136990780,53.5433024,10.0013288,"Hauptzollamt Hamburg, Dienstort Koreastraße",Koreastraße 4,20457,Hamburg
11136990781,53.5433757,10.0016356,Hauptzollamt Hamburg,Koreastraße 4,20457,Hamburg
11139550104,53.6050966,10.0110126,Landeskriminalamt Hamburg,,,
11142078322,53.6330212,9.9668789,Sabine Siemers,,,
11165485746,53.5804729,10.0260482,Stackelberg Architekten,,,
11165511884,53.5807992,10.0190723,Martin Ullrich Immobilien,,,
11165513680,53.5788089,10.0193039,Objektbetreuung D. Baumbach,,,
11165522005,53.5801391,10.0187548,Allianz,,,
11171784457,53.6427387,10.034575,Iris Kahl-Hinsch,,,
11174722103,53.6283127,9.8805203,RHEINZINK,Adlerstraße 38,25462,Rellingen
11180594047,53.5665582,9.9095797,,,,
11180601646,53.5668114,9.9074447,Seminar,,,
11180601647,53.5667939,9.9075061,EFP,,,
11180601648,53.5668319,9.9073774,Klaus Köser GmbH,,,
11180620583,53.5677754,9.9054285,Drucker-Service,,,
11180620584,53.5674087,9.906299,pixel creators,,,
11180633042,53.5733299,9.8942768,Autounfallgutachter,,,
11180669934,53.5732676,9.8921389,Stefan Alwardt,,,
11181847379,53.6616231,9.977891,Five Star Services Gmbh Internationale Spedition,Niendorfer Straße 170,22848,Norderstedt
11188922016,53.5992608,10.040939,Allianz-Versicherungsbüro Deniz Cimendur,Fuhlsbüttler Straße 289,22307,Hamburg
11195674842,53.5648551,9.9138214,,,,
11196017695,53.5759327,9.919381,WISAG,Schnackenburgallee 18,,
11196017696,53.5758964,9.9193877,LOESCH,Schnackenburgallee 18,,
11196017697,53.575866,9.9193933,ELEKSA,Schnackenburgallee 18,,
11196155651,53.5499698,9.9804149,TWP Strafrechtskanzlei,,,
11200434900,53.5613572,10.0806906,DJH - Landesverband Nordmark e. V.,,,
11219622210,53.5513934,10.0535661,Allianz Okur & Improta OHG,,,
11220944206,53.5021849,9.9883913,Bauverein Reiherstieg eG - Hauswartbüro,,,
11222756402,53.4990026,9.9968437,Kundenzentrum Bezirksamt Hamburg-Mitte,Mengestraße 19,,
11222756403,53.4989544,9.997055,Jobcenter,Mengestraße 19,,
11222931068,53.4981134,10.0091345,Domin,,,
11222931071,53.4986104,10.0095204,Amazon,,,
11246292356,53.5593883,9.8837053,Turnverein von 1901 Gross Flottbek e.V.,,,
11248217017,53.6313253,9.88244,Elevate GmbH,Siemensstraße 21,,
11252758535,53.5519405,9.9271704,BG Verkehr,,,
11273077549,53.5594601,9.8845849,Wutzler Raumgestaltung,,,
11273077550,53.5595209,9.8858523,Meissler & Co,,,
11280231195,53.5497325,9.9959707,Bundesverband der Berufsbetreuer*innen,,,
11288723959,53.56481,9.9234218,AB – Analytik Dr. A. Berg GmbH,Ruhrstraße 49,22761,Hamburg
11305470194,53.6182878,10.0788885,Frank Hoffmann Immobilien,Bramfelder Chaussee 309,22177,Hamburg
11329928017,53.5373681,10.0285783,Yeply Germany GmbH,,,
11330115569,53.5517416,9.9861984,white label eCommerce,,20355,
11333367553,53.5508418,9.9892975,Notare an den Alsterarkaden,Alter Wall 55,20354,
11352427873,53.5553816,9.9252503,Berendsohn Rechtsanwälte in Partnerschaft,,,
11362150508,53.5176699,10.0050361,Arnold Koch Jr,Stenzelring 20,,
11362528597,53.6361094,9.9182112,Deutsches Immobilien Kontor,Frohmestraße 3a,,
11369905159,53.5495322,9.9807846,CN Europlan,Erste Brunnenstraße 3,20459,Hamburg
11371361922,53.5692028,10.0485224,Bergedorf Bille Hausverwalter,Schellingstraße 42,,
11373369069,53.5577502,9.9894188,Jantzen & Partner,,,
11377495451,53.4012603,10.1738322,Hitscher A. & Sohn GmbH Exportverpackungen,,,
11377762243,53.6086605,10.1857185,buch & presse,Neuer Höltigbaum 2,22143,Hamburg
11389894531,53.5518487,9.9386159,HR7,Neue Große Bergstraße 9,,
11389894532,53.5518748,9.9386183,Mieterverein zu Hamburg von 1890,Neue Große Bergstraße 9,,
11389894539,53.551807,9.9387413,SoVD - Beratung im Sozialrecht,Neue Große Bergstraße 9,,
11389995856,53.5199064,10.0801865,Umbrella Coach & Buses,,,
11389995857,53.519855,10.080101,Umbrella City Lines,,,
11403477358,53.5144788,9.9866766,Vehbi Ördek,,,
11420315004,53.5467819,10.0242833,Schmidt Navabi Partners Steuerberatung mbB,Wendenstraße 1,20097,Hamburg
11425814082,53.5596012,9.8874244,,,,
11435621931,53.6009564,10.0260879,Generali,Überseering 2,22297,Hamburg
11443617166,53.4593808,9.9813058,Kuhagen,,,
11443617167,53.459393,9.9812978,Florian Schuler,,,
11443617168,53.4594086,9.9812876,"Braetsch, Jessen & Partner",,,
11443634569,53.4594234,9.9812779,Barbara Uckon,,,
11443931488,53.5577364,9.9895511,Storypark,,,
11443931489,53.5577442,9.9894787,David + Martin,,,
11443931490,53.5578765,9.9894672,DialogGroup,,,
11443931491,53.5579008,9.9894759,Blacklake,,,
11444183462,53.5870461,9.8740487,Beyoğlu e.V.,,,
11449381367,53.5675756,9.9569841,Emilia Fester,,,
11449607594,53.7077577,9.9902669,Medienanstalt Hamburg Schleswig-Holstein,Rathausallee 72-76,22846,Norderstedt
11470377475,53.5430919,10.0037413,Wintershall Dea GmbH,,,
11495840647,53.555771,9.9641059,UNZEITIG Industrial Design,Budapester Straße 49,20359,Hamburg
11515644741,53.606785,10.0518869,Tuchel & Sohn GmbH,Hermann-Buck-Weg 6,,
11515730674,53.5506144,10.004356,panta ingenieure GmbH,,,
11516204893,53.5647204,10.0239972,Movemates,,,
11516212442,53.5649793,10.0240878,Allianz,,,
11516222367,53.5649571,10.0245615,Wohnschmiede Hamburg Immobilien,Kuhmühle 16,22087,Hamburg
11516222368,53.5648945,10.0245468,Fa. Basic,,,
11516240557,53.5647793,10.0240174,Fairmieter,,,
11521840907,53.550391,9.9951674,Notariat Mönckebergstraße,Mönckebergstraße 27,20095,Hamburg
11521899553,53.6535667,10.1077464,R&T Pflegeteam,,,
11525807020,53.5415401,9.9866583,DataRex Marc Schmidt,Am Kaiserkai 56,20457,Hamburg
11548481178,53.4854027,9.9906219,svt Brandschutz,,,
11556739103,53.6083757,10.0610131,RISO (Deutschland) GmbH,,,
11556739104,53.6083809,10.0608524,IT-Service Johannsen,,,
11560895820,53.6849844,10.1156833,CISV Hamburg,"Sarenweg 12,14",22397,Hamburg
11565562308,53.5507341,9.9889951,enomyc GmbH,Neuer Wall 57,,
11576823673,53.5545991,10.0077704,Ubilabs GmbH,Heidi-Kabel-Platz 2,,
11582460151,53.660793,10.0062537,elb-BIT GmbH,Oehleckerring 6b,22419,Hamburg
11584547866,53.6080816,10.0606061,Siebe & Oldehaver,Steilshooper Allee 80,22309,Hamburg
11586930898,53.5635211,10.0409949,SBI Beratende Ingenieure für Bau - Verkehr - Vermessung GmbH,Hasselbrookstraße 33,22089,Hamburg
11618541169,53.5602572,9.9275652,Mitarbeiterbistro essity,Schützenstraße 1-3,22761,
11623760136,53.584969,9.8682786,Scientec Internet,,,
11634171435,53.5764778,9.9805962,Planebene A Architektur,Oberstraße 18e,20144,Hamburg
11652816879,53.6163827,9.867807,Christian Rieckenberg - Rechtsanwalt und Notar,Seestraße 163,25469,Halstenbek
11652985313,53.551018,9.9819614,SPD Julia Barth,,,
11653474225,53.6349072,9.9106029,STULZ GmbH,,,
11659107846,53.6069462,10.1187879,"Allgemeiner Sozialer Dienst Farmsen-Berne, Walddörfer",August-Krogmann-Straße 2b,22159,Hamburg
11676141206,53.6152748,9.8651708,Barmenia Versicherung - Manuela Buchauer,Siebentunnelweg 8,25469,Halstenbek
11676326532,53.5650545,10.0457243,Barmenia Versicherung - Timo Haase,Ritterstraße 59,22089,Hamburg
11676631090,53.5828271,9.9934425,Barmenia Versicherung - Peter Lingk,St. Benedictstraße 40,20149,Hamburg
11681100439,53.7269074,9.9065608,Barmenia Versicherung - Oliver Wallat,Langenkamp 28,25451,Quickborn
11687657219,53.5719729,10.0202314,Campus Uhlenhorst,Heinrich-Hertz-Straße 72,22085,Hamburg
11690209493,53.526049,10.0286347,ek-robotics,,,
11690235560,53.5506736,9.9868543,Impact-Finanz - Tim Martin,Neuer Wall 84,20354,Hamburg
11690619526,53.6073461,10.0047608,Barmenia Versicherung - Hartwig Benzler,Alsterdorfer Straße 247,22297,Hamburg
11690649889,53.5493014,9.9800735,Impact-Finanz - Jana Rades,Ludwig-Erhard-Straße 18,20459,Hamburg
11691275153,53.7076763,9.9973539,Impact-Finanz - Thorsten Makowski,Ulzburger Straße 305,22846,Norderstedt
11709254923,53.6510708,10.093841,Rechtsanwalt Rainer Ferslev,Stormarnplatz 2a,22393,Hamburg
11709254924,53.6510585,10.0938288,Metamorphio GmbH,Stormarnplatz 2a,22393,Hamburg
11717207063,53.6016889,9.9982783,Mecklenburgische Versicherungsgruppe,Braamkamp 18,22297,Hamburg
11725958990,53.5502791,9.9563342,Exxeta AG,Nobistor 16,22767,Hamburg
11725983083,53.6539645,10.115604,GuTe Immobilienberatung,Waldweg 15,22393,Hamburg
11725983084,53.6539454,10.115549,Thimo Mates,Waldweg 15,22393,Hamburg
11732162024,53.518988,10.0229932,Bensons CB-Funktechnik Hofmann e.K.,,,
11734124418,53.6548274,10.0933607,ECE,Heegbarg 30,22391,Hamburg
11735090356,53.5552696,10.0066803,PCS Beratungscontor AG,Holzdamm 57,,
11735360142,53.4589286,9.9829753,Gothaer,,,
11735372350,53.4590395,9.9828869,Vattenfall,,,
11736607012,53.548771,9.9964826,Itzehoer,,,
11737388791,53.5746377,10.0200332,Jan-Luca Phelps,Stormsweg 3,,
11745031085,53.5658309,9.986885,AOK extra,,,
11749009469,53.5541662,9.9997285,Hapag-Lloyd AG,Ferdinandstraße 28-30,20095,Hamburg
11758472147,53.5702332,9.9755937,Woldeab & Schrage Consulting,,,
11758578044,53.592193,10.0931286,Hemro Manufacturing Germany,,,
11758596903,53.5927778,10.09756,Gigabyte,Am Stadtrand 63,22047,Hamburg
11758596904,53.5927134,10.097593,MTG Marinetechnik,Am Stadtrand 63,22047,Hamburg
11758645641,53.5083878,10.0017398,Ciro Parfums,,,
11764460961,53.6489669,10.0051026,Der Lichtpeter,Krohnstieg 88,22415,Hamburg
11769451011,53.5910638,10.0979039,INIT Mobility Software Solutions GmbH,Wilma-Witte-Stieg 1,22047,Hamburg
11792689787,53.6128718,10.0757454,LEMBKE Häusliche Kranken- und Altenpflege,Bramfelder Chaussee 238a;238b,22177,Hamburg
11799634648,53.5671195,10.0216718,Probis Immobilien,,,
11799670278,53.5671475,10.0217303,Fahr-Zeit,,,
11799671572,53.5671775,10.0217741,HDI,,,
11804514299,53.5475811,9.9838088,Fincon Reply GmbH,Admiralitätsstraße 59,20459,Hamburg
11804514300,53.5476479,9.9835305,Elbkind Reply GmbH,Admiralitätsstraße 59,20459,Hamburg
11804568432,53.5476762,9.9836209,Canvas Reply GmbH,Admiralitätsstraße 59,20459,Hamburg
11810045028,53.5315998,10.2238026,New Generation HR,Wilhelm-Bergner-Straße 2,21509,Glinde
11811056600,53.4655042,9.9869491,LBV Kfz-Zulassung Harburg,,,
11811792424,53.5375479,10.012884,Wüstenrot,Baakenallee 40,,
11813665793,53.5996173,9.963346,Business Capital Service GmbH,Vogt-Wells-Straße 3,22529,Hamburg
11813665794,53.5996171,9.9633386,Design- und Planungssupport,Vogt-Wells-Straße 3,22529,Hamburg
11813667066,53.6517218,10.0948556,Grossmann & Berger,Stormarnplatz 1,22393,Hamburg
11815763529,53.6134785,10.0760172,Hamburger BildungsPort,Bramfelder Chaussee 248;250,22177,Hamburg
11816603645,53.5593126,10.0469296,Itzehoer,,,
11816659355,53.5585113,10.0444934,Allianz,,,
11816692669,53.5594403,10.0469364,HMT Hamburger Möbel Transport,,,
11822457536,53.5652018,10.0396196,Barmenia Versicherung,Papenstraße 23,22089,Hamburg
11822911256,53.6420542,10.0819696,Andreas Woltemath,Wellingsbüttler Weg 148,22391,Hamburg
11822921998,53.6420629,10.0819831,Plan-S,Wellingsbüttler Weg 148,22391,Hamburg
11835242232,53.6131207,9.9553764,Rolf Kappler Einbruchschutz,,,
11836663137,53.5522815,10.0017989,René Hanna Akademie | Coaching | Training,Lilienstraße 15,20095,Hamburg
11842241762,53.5815889,10.0225438,RA Toben,Grovestraße 9,22083,Hamburg
11870004722,53.5555232,9.9846566,Lancom Systems GmbH,Valentinskamp 24,20354,Hamburg
11898041496,53.5714827,9.9758837,TONALi gGmbH,Kleiner Kielort 8,20144,Hamburg
11903410911,53.5358962,10.0216227,Vattenfall,,,
11909081964,53.725492,9.9972907,Wohnquartier Bella,Ulzburger Straße 523,22844,Norderstedt
11909081966,53.7278045,9.9965179,batcam.de,Bahnhofstraße 2,22844,Norderstedt
11914097020,53.7291221,9.9967796,ernst h. eggers Hausmakler e.K.,Ulzburger Straße 561,22844,Norderstedt
11918452691,53.5911285,10.097889,medocino Hamburg GmbH,Wilma-Witte-Stieg 1,22047,Hamburg
11925159945,53.5576317,9.909435,Prime Lithium AG,Friesenweg 28,22763,Hamburg
11925992931,53.5074562,9.9928347,SAGA Hausmeister,,,
11927055142,53.5429362,9.9843614,Danfoss,Am Sandtorkai 38-41,20457,Hamburg
11927569701,53.7293191,9.9966822,Angela Sonnemäker Steuerberaterin,Ulzburger Straße 563c,22844,Norderstedt
11927763100,53.7285702,10.0102207,"Richter, Sonja",Mühlenweg 89,22844,Norderstedt
11933286663,53.5498209,10.0177084,elbblut,,,
11935338900,53.5630462,9.9312013,DAIKIN Airconditioning,,,
11939410011,53.5444536,10.0320554,ZAV-Künstlervermittlung Hamburg,Heidenkampsweg 101,20097,Hamburg
11939478076,53.5510566,9.9615274,Schauspielagentur Gipfelstürmer,Hamburger Berg 22,20359,Hamburg
11945063755,53.5600314,9.9488603,Vattenfall,,,
11945212282,53.5520847,9.9325436,"Rechtsanwältinnen Chr. Eckhardt, H. Bartels",,,
11949925412,53.6028698,10.0228936,Johnny. Visual Content,Mexikoring 21,,
11950508273,53.5574072,10.0514326,SeniorenUmzüge,,,
11951682708,53.5677902,9.9465636,Gemeindebüro Pauluskirchengemeinde Altona,,,
11951812014,53.5643489,10.0352286,Der Paritätische Hamburg,,,
11952375049,53.607445,9.9022965,DEVK,,,
11955388628,53.542599,9.9869774,Exporo AG,,,
11955832362,53.6076961,10.0096889,Aufmaßprofi,Heubergredder 34,22297,Hamburg
11972280514,53.6455934,10.0345878,Aloys Hoffmann Immobilien,,,
11989918244,53.5490823,9.977689,Barmenia Versicherung,Englische Planke 2,20459,Hamburg
12012410612,53.5472236,10.107242,KFZ Gutachter,,,
12021227609,53.5585857,9.9417786,Godewind,Goldbachstraße 7,22765,Hamburg
12028807884,53.5909883,10.0979203,consider it GmbH,Wilma-Witte-Stieg 1,22047,Hamburg
12028807885,53.5908596,10.0979511,Projekt- und Baumanagement Heinrich Schmid,Wilma-Witte-Stieg 1,22047,Hamburg
12035587757,53.5921355,10.0988517,Sabine Köhler Steuerkanzlei,Am Stadtrand 56,22047,Hamburg
12036471549,53.5170225,9.9883959,GÜL,,,
12039723891,53.4506522,9.9877699,WiR in Wilsdorf,,,
12039973616,53.5529347,10.022036,Mieterverein zu Hamburg,,,
12039974766,53.5379504,10.0102314,GSPart,,,
12045973943,53.5566402,9.9263913,DEPT®,,,
12052987895,53.5776069,9.8763737,XFEL Injector,,,
12053021581,53.5662513,10.0242525,Buchhaltung Schupke,,,
12058965168,53.55471,10.0019562,café digital,Glockengießerwall 20,20095,Hamburg
12060153473,53.5553491,9.9819978,Ilgard Beltermann,,,
12070099484,53.5786333,9.9177235,Landesbetrieb Verkehr Hamburg-West,Schnackenburgallee 43,22525,Hamburg
12073162295,53.5489829,10.0009935,Rhein-Main-Verkehrsverbund Servicegesellschaft,Burchardstraße 17,20095,Hamburg
12073903241,53.5464183,9.9431129,Hont Peter Hetenyi,,,
12078569504,53.5705248,10.017181,Axel Heller,,,
12078598623,53.5729305,10.0155986,Yoventi Immobilien,,,
12078599261,53.5804873,10.0143996,Jürgen Martens,,,
12082233314,53.5460308,9.9844613,IABG Hamburg,Rödingsmarkt 20,20459,Hamburg
12083918972,53.5005378,10.2522951,KRANICHconcept GmbH,Reinbeker Weg 48,21465,Wentorf bei Hamburg
12089245936,53.5259103,10.0201228,SAGA- Hauswartbüro,,,
12089245987,53.5251995,10.020412,Abgeordnetenbüro Veddel,,,
12089269152,53.5138911,9.9845273,KOM,,,
12089280990,53.5161616,9.9965417,impuls 21 projektgesellschaft mbH,,,
12089365490,53.5152592,9.982736,,,,
12091855766,53.5693747,10.0194665,Käthe Röger,,,
12091857347,53.5693739,10.0195286,Grundstücksverwaltung Kehrwieder,,,
12091864672,53.5696146,10.0177999,Baumgarte + Fiebig,,,
12096611168,53.6322145,10.0256104,Anwaltkanzlei Mierau,,,
12102860015,53.5620618,10.0170325,Erna Tiedgen,,,
12102873606,53.5633519,10.0245267,Heinrich Meier,,,
12108797001,53.5493521,9.9366854,Verlagsgruppe Oetinger Service GmbH,,22765,
12108848441,53.5483262,9.9364831,cc.systems GmbH,Max-Brauer-Allee 22,22765,Hamburg
12118267621,53.6822386,9.9825074,Haus und Grund Norderstedt,,,
12118971346,53.5873748,10.0213969,quente schwartz,Hanssensweg 16,,
12120131658,53.5429353,9.984279,Brasilianisches Honorarkonsulat,Am Sandtorkai 41,20457,Hamburg
12130077451,53.5594415,9.8115179,Engel & Völkers,,,
12136867133,53.6019727,10.0624104,Cleanbusters Gebäudeservice GmbH,,,
12139773001,53.5828785,9.9587698,Beiersdorf AG Hauptsitz Haupteingang,Beiersdorfstraße 3,22529,Hamburg
12140796480,53.5603744,9.9469285,frankundthiele,,,
12140803758,53.560499,9.9468702,"Marc Schmidt, FA für Arbeitsrecht",,,
12140814902,53.5605345,9.9468648,WaissiLegal,,,
12148082988,53.6335803,9.8412037,Marktplatz Finanz,Rathausquartier 7,25469,Halstenbek
12148381130,53.572694,10.0175254,Jens Bögershausen,,,
12148389577,53.5768444,10.0196984,HBA - Hagen Bohl Architekt,,,
12152159420,53.6319442,9.9143744,Kirchenbüro Adventskirche Schnelsen,,,
12155288659,53.5476356,9.9801108,Nycro UG,Wincklerstraße 3,20459,Hamburg
12157549077,53.5541038,9.9871699,freenet Group,,,
12162019853,53.5893674,10.0033651,Dietmar Kolk,,,
12162045700,53.5893628,10.0033381,Heike Kaiser-Behm,,,
12162051069,53.5885347,10.0037863,AXA,,,
12163568934,53.594572,10.049696,KST Kfz-Sachverständigenteam,,,
12165225627,53.5673407,9.9836632,Büro für digitale Lehre EW,Von Melle Park 8,20146,Hamburg
12165780550,53.5278828,10.0205107,Bildung und Integration Hamburg Süd,Wilhelmsburger Straße 2,20539,Hamburg
12165823879,53.5310932,9.9951008,Stiftung Hamburg Maritim,Australiastraße 52a,,
12166716652,53.6809424,9.9867479,TO Weber Norderstedt,,,
12167822663,53.5563504,9.9582724,Charon Verlag,,,
12179203314,53.5513367,9.9892156,iC Consult GmbH,Neuer Wall 50,20354,Hamburg
12182381896,53.5519957,9.9373828,Hendrik horn & partner,,,
12182403634,53.5518945,9.9372851,Timm Kreyer,,,
12185447303,53.4890342,10.2186546,Standesamt Bergedorf,Gräpelweg 8,21029,Hamburg
12190036126,53.5620813,9.8116494,Von Poll Immobilien,,,
12192447518,53.4644849,9.9848791,Institut für Elektrische Energietechnik,,,
12198616759,53.5400295,10.0078549,MaibornWolff GmbH,,,
12200031321,53.5129178,9.9867684,Abgeordnetenbüro Michael Weinreich,,,
12205437016,53.5482327,9.9890552,HÜPEDEN & CO. (GmbH & Co.) KG,Großer Burstah 31,20457,Hamburg
12205437793,53.5482053,9.9890604,HOCHTIEF,Großer Burstah 31,20457,Hamburg
12208827151,53.6081717,10.0342918,Allgemeine Deutsche Schiffszimmerer-Genossenschaft,Rübenkamp 240,22337,Hamburg
12209152626,53.5871589,9.9207894,DB Logistik,,,
12209152627,53.5869708,9.9232558,ABX Energy Services,Försterweg 130,,
12209152628,53.5869569,9.9231841,Greve + Behrens,Försterweg 130,,
12211517400,53.5481917,9.9986371,NASH Renewables GmbH,Kleine Reichenstraße 1,20457,Hamburg
12221976938,53.5477018,10.0366193,Hans Kummerfeld Steuerberater,Süderstraße 153a,20537,Hamburg
12221983146,53.5477305,10.0366837,Landesverband Hamburger Taxiunternehmer e.V.,Süderstraße 153a,20537,Hamburg
12221983147,53.5477739,10.0365902,Öhler Rechtsanwälte,Süderstraße 153a,20537,Hamburg
12229545879,53.5184237,10.0178551,Green Grover,,,
12229545880,53.5184379,10.0181845,Gahrens + Battermann,,,
12229757394,53.570465,9.9845868,Heine & Meins,,,
12229783682,53.5600686,9.8110593,Grossmann & Berger,,,
12229821401,53.5590619,9.811248,Britta-Müller Kirchenbauer,,,
12231334261,53.5550894,10.0005349,Appinio GmbH,Ballindamm 3,20095,Hamburg
12231921982,53.4656934,9.9880752,Barge Ingenieure,,,
12235759652,53.5587837,9.9308735,Dreamit,,,
12235761651,53.5573059,9.9317877,Altoba Kommunikationscentrum,,,
12235779562,53.5576806,9.9318082,Vössing,,,
12235782045,53.5573047,9.931709,TankMatch Rail,,,
12235784928,53.5575862,9.932191,Lokalportal,,,
12235804927,53.5573548,9.9316939,Viewlicity,,,
12241475867,53.577031,9.9421866,StimmDich Hamburg,,,
12241564401,53.5804662,9.9759881,Architekten Venus GmbH,,,
12246646726,53.5537595,10.043942,Institut für Bildungsmonitoring und Qualitätsentwicklung,,,
12247963050,53.522578,10.0055306,dronePORT,,,
12248028253,53.518703,10.0021552,Transcargo GmbH,,,
12249791123,53.5829842,10.0765436,willy.tel,Hinschenfelder Stieg 6,,
12250047442,53.5418695,10.0014954,Green Planet Solutions GmbH & Co. KG,Hongkongstraße 10,20457,Hamburg
12253421616,53.5454523,9.9433619,Institut für marine Ökosystem- und Fischereiwissenschaften,,,
12253421617,53.5459264,9.9430802,Max Rubner-Institut,,,
12253545631,53.5870311,10.0485346,Mediran Pflegedienst GmbH & Co. KG,,,
12269459442,53.5570348,10.0317337,Deutsche Hilfsgemeinschaft e.V.,,,
12270358599,53.5445408,10.0002089,Hamburger Verkehrsverbund Gesellschaft mbH,,,
12271218101,53.5759968,9.9410169,Schuldenhilfe Sofort e.V.,,,
12285042158,53.5547387,9.9903261,Noerr,Jungfernstieg 51,20354,Hamburg
12291979189,53.5508502,9.9620856,Silbersack Hood Talentförderung,,,
12292462601,53.6036925,10.011878,Polizeieinsatzzentrale für Koordination aller Notrufe und der dazugehörigen Polizeieinsätze,,,
12293464576,53.5629138,9.955137,Lektorat Dr. Egbert Scheunemann,,,
12299286408,53.461537,9.9786407,Deutsche Notfallschule,Neue Straße 17,21073,Hamburg
12300293196,53.6831347,9.9065107,Held Isolier-Technik GmbH,Kieler Straße 267,25474,Bönningstedt
12300293197,53.683141,9.9063873,Held Brandschutz-Technik GmbH,Kieler Straße 267,25474,Bönningstedt
12307797035,53.5546965,9.9290354,BFS Buchführungsservice,,,
12307802363,53.5690133,9.9382444,Mundhalle,Waidmannstraße 26,,
12310153009,53.545369,10.0031536,ExxonMobil,Ericusspitze 2,20457,Hamburg
12312825441,53.6524595,10.0921899,Standort Alstertal Einwohnerangelegenheiten,Wentzelplatz 9,22391,Hamburg
12320319490,53.5690528,9.9974835,Honorarkonsulat von Irland,,,
12324714140,53.580811,10.0152499,Sopra Steria SE,Hans-Henny-Jahnn-Weg 29,22085,Hamburg
12329401283,53.5029804,9.9912028,Bauverein Reiherstieg eG,,,
12329406836,53.50125,9.991332,"Hauswartbüro, Bauverein Reiherstieg",,,
12333389629,53.515882,9.9931763,"Die Linke, Wilhelmsburg",,,
12333396988,53.580272,10.0423322,"F. Topal, M. Koch, F. Dogan",,,
12350628901,53.5441112,9.942884,WITTE Projektmanagement GmbH,Große Elbstraße 61/63,22767,
12397509521,53.5477008,9.9332409,Standort Altona Einwohnerangelegenheiten,Ottenser Marktplatz 10,22765,Hamburg
12397511119,53.6206576,9.9536135,Standort Niendorf Einwohnerangelegenheiten,Garstedter Weg 11,22453,Hamburg
12434089830,53.5568399,10.0771634,Wohnbau GmbH,,,
12438783819,53.5618319,10.0324449,WRS,,,
12438873901,53.5016508,10.0105958,Vonovia,,,
12438976232,53.5405465,10.040651,Amt für Arbeitsschutz,,,
12455543104,53.6295676,10.0215032,Hanseatisches Immobilienbüro,,,
12455697323,53.597824,9.9060135,SPIEGELBLANK Reinigungsunternehmen,,,
